,conds,date,dewpti,dewptm,fog,hail,heatindexi,heatindexm,hum,icon,metar,precipi,precipm,pressurei,pressurem,rain,snow,tempi,tempm,thunder,tornado,utcdate,visi,vism,wdird,wdire,wgusti,wgustm,windchilli,windchillm,wspdi,wspdm
0,Unknown,"{u'mday': u'05', u'hour': u'00', u'min': u'00', u'mon': u'08', u'pretty': u'12:00 AM CEST on August 05, 2009', u'year': u'2009', u'tzname': u'Europe/Paris'}",50.0,10.0,0,0,-9999,-9999,46,unknown,METAR LFPB 042200Z AUTO 12007KT 9999NDV NSC 22/10 Q1018,-9999.00,-9999.00,30.06,1018,0,0,71.6,22.0,0,0,"{u'mday': u'04', u'hour': u'22', u'min': u'00', u'mon': u'08', u'pretty': u'10:00 PM GMT on August 04, 2009', u'year': u'2009', u'tzname': u'UTC'}",6.2,10.0,120,ESE,-9999.0,-9999.0,-999,-999,8.1,13.0
1,Unknown,"{u'mday': u'05', u'hour': u'00', u'min': u'30', u'mon': u'08', u'pretty': u'12:30 AM CEST on August 05, 2009', u'year': u'2009', u'tzname': u'Europe/Paris'}",50.0,10.0,0,0,-9999,-9999,52,unknown,METAR LFPB 042230Z AUTO 09003KT 060V130 9999NDV NSC 20/10 Q1019,-9999.00,-9999.00,30.09,1019,0,0,68.0,20.0,0,0,"{u'mday': u'04', u'hour': u'22', u'min': u'30', u'mon': u'08', u'pretty': u'10:30 PM GMT on August 04, 2009', u'year': u'2009', u'tzname': u'UTC'}",6.2,10.0,90,East,-9999.0,-9999.0,-999,-999,3.5,5.6
2,Unknown,"{u'mday': u'05', u'hour': u'01', u'min': u'00', u'mon': u'08', u'pretty': u'1:00 AM CEST on August 05, 2009', u'year': u'2009', u'tzname': u'Europe/Paris'}",51.8,11.0,0,0,-9999,-9999,64,unknown,METAR LFPB 042300Z AUTO 06005KT 9999NDV NSC 18/11 Q1019,-9999.00,-9999.00,30.09,1019,0,0,64.4,18.0,0,0,"{u'mday': u'04', u'hour': u'23', u'min': u'00', u'mon': u'08', u'pretty': u'11:00 PM GMT on August 04, 2009', u'year': u'2009', u'tzname': u'UTC'}",6.2,10.0,60,ENE,-9999.0,-9999.0,-999,-999,5.8,9.3
3,Unknown,"{u'mday': u'05', u'hour': u'01', u'min': u'30', u'mon': u'08', u'pretty': u'1:30 AM CEST on August 05, 2009', u'year': u'2009', u'tzname': u'Europe/Paris'}",51.8,11.0,0,0,-9999,-9999,64,unknown,METAR LFPB 042330Z AUTO 06004KT 9999NDV NSC 18/11 Q1019,-9999.00,-9999.00,30.09,1019,0,0,64.4,18.0,0,0,"{u'mday': u'04', u'hour': u'23', u'min': u'30', u'mon': u'08', u'pretty': u'11:30 PM GMT on August 04, 2009', u'year': u'2009', u'tzname': u'UTC'}",6.2,10.0,60,ENE,-9999.0,-9999.0,-999,-999,4.6,7.4
4,Unknown,"{u'mday': u'05', u'hour': u'02', u'min': u'00', u'mon': u'08', u'pretty': u'2:00 AM CEST on August 05, 2009', u'year': u'2009', u'tzname': u'Europe/Paris'}",51.8,11.0,0,0,-9999,-9999,68,unknown,METAR LFPB 050000Z AUTO 06005KT 9999NDV NSC 17/11 Q1018,-9999.00,-9999.00,30.06,1018,0,0,62.6,17.0,0,0,"{u'mday': u'05', u'hour': u'00', u'min': u'00', u'mon': u'08', u'pretty': u'12:00 AM GMT on August 05, 2009', u'year': u'2009', u'tzname': u'UTC'}",6.2,10.0,60,ENE,-9999.0,-9999.0,-999,-999,5.8,9.3
5,Unknown,"{u'mday': u'05', u'hour': u'02', u'min': u'30', u'mon': u'08', u'pretty': u'2:30 AM CEST on August 05, 2009', u'year': u'2009', u'tzname': u'Europe/Paris'}",51.8,11.0,0,0,-9999,-9999,68,unknown,METAR LFPB 050030Z AUTO 02003KT 9999NDV NSC 17/11 Q1019,-9999.00,-9999.00,30.09,1019,0,0,62.6,17.0,0,0,"{u'mday': u'05', u'hour': u'00', u'min': u'30', u'mon': u'08', u'pretty': u'12:30 AM GMT on August 05, 2009', u'year': u'2009', u'tzname': u'UTC'}",6.2,10.0,20,NNE,-9999.0,-9999.0,-999,-999,3.5,5.6
6,Unknown,"{u'mday': u'05', u'hour': u'03', u'min': u'00', u'mon': u'08', u'pretty': u'3:00 AM CEST on August 05, 2009', u'year': u'2009', u'tzname': u'Europe/Paris'}",51.8,11.0,0,0,-9999,-9999,68,unknown,METAR LFPB 050100Z AUTO 36004KT 9999NDV NSC 17/11 Q1018,-9999.00,-9999.00,30.06,1018,0,0,62.6,17.0,0,0,"{u'mday': u'05', u'hour': u'01', u'min': u'00', u'mon': u'08', u'pretty': u'1:00 AM GMT on August 05, 2009', u'year': u'2009', u'tzname': u'UTC'}",6.2,10.0,360,North,-9999.0,-9999.0,-999,-999,4.6,7.4
7,Unknown,"{u'mday': u'05', u'hour': u'03', u'min': u'30', u'mon': u'08', u'pretty': u'3:30 AM CEST on August 05, 2009', u'year': u'2009', u'tzname': u'Europe/Paris'}",51.8,11.0,0,0,-9999,-9999,68,unknown,METAR LFPB 050130Z AUTO 05006KT 9999NDV NSC 17/11 Q1018,-9999.00,-9999.00,30.06,1018,0,0,62.6,17.0,0,0,"{u'mday': u'05', u'hour': u'01', u'min': u'30', u'mon': u'08', u'pretty': u'1:30 AM GMT on August 05, 2009', u'year': u'2009', u'tzname': u'UTC'}",6.2,10.0,50,NE,-9999.0,-9999.0,-999,-999,6.9,11.1
8,Unknown,"{u'mday': u'05', u'hour': u'04', u'min': u'00', u'mon': u'08', u'pretty': u'4:00 AM CEST on August 05, 2009', u'year': u'2009', u'tzname': u'Europe/Paris'}",51.8,11.0,0,0,-9999,-9999,68,unknown,METAR LFPB 050200Z AUTO 04003KT 9999NDV NSC 17/11 Q1018,-9999.00,-9999.00,30.06,1018,0,0,62.6,17.0,0,0,"{u'mday': u'05', u'hour': u'02', u'min': u'00', u'mon': u'08', u'pretty': u'2:00 AM GMT on August 05, 2009', u'year': u'2009', u'tzname': u'UTC'}",6.2,10.0,40,NE,-9999.0,-9999.0,-999,-999,3.5,5.6
9,Unknown,"{u'mday': u'05', u'hour': u'04', u'min': u'30', u'mon': u'08', u'pretty': u'4:30 AM CEST on August 05, 2009', u'year': u'2009', u'tzname': u'Europe/Paris'}",50.0,10.0,0,0,-9999,-9999,63,unknown,METAR LFPB 050230Z AUTO 04004KT 9999NDV NSC 17/10 Q1018,-9999.00,-9999.00,30.06,1018,0,0,62.6,17.0,0,0,"{u'mday': u'05', u'hour': u'02', u'min': u'30', u'mon': u'08', u'pretty': u'2:30 AM GMT on August 05, 2009', u'year': u'2009', u'tzname': u'UTC'}",6.2,10.0,40,NE,-9999.0,-9999.0,-999,-999,4.6,7.4
10,Unknown,"{u'mday': u'05', u'hour': u'05', u'min': u'00', u'mon': u'08', u'pretty': u'5:00 AM CEST on August 05, 2009', u'year': u'2009', u'tzname': u'Europe/Paris'}",51.8,11.0,0,0,-9999,-9999,72,unknown,METAR LFPB 050300Z AUTO 06006KT 9999NDV NSC 16/11 Q1018,-9999.00,-9999.00,30.06,1018,0,0,60.8,16.0,0,0,"{u'mday': u'05', u'hour': u'03', u'min': u'00', u'mon': u'08', u'pretty': u'3:00 AM GMT on August 05, 2009', u'year': u'2009', u'tzname': u'UTC'}",6.2,10.0,60,ENE,-9999.0,-9999.0,-999,-999,6.9,11.1
11,Unknown,"{u'mday': u'05', u'hour': u'05', u'min': u'30', u'mon': u'08', u'pretty': u'5:30 AM CEST on August 05, 2009', u'year': u'2009', u'tzname': u'Europe/Paris'}",51.8,11.0,0,0,-9999,-9999,72,unknown,METAR LFPB 050330Z AUTO 03002KT 9999NDV NSC 16/11 Q1018,-9999.00,-9999.00,30.06,1018,0,0,60.8,16.0,0,0,"{u'mday': u'05', u'hour': u'03', u'min': u'30', u'mon': u'08', u'pretty': u'3:30 AM GMT on August 05, 2009', u'year': u'2009', u'tzname': u'UTC'}",6.2,10.0,30,NNE,-9999.0,-9999.0,-999,-999,2.3,3.7
12,Unknown,"{u'mday': u'05', u'hour': u'06', u'min': u'00', u'mon': u'08', u'pretty': u'6:00 AM CEST on August 05, 2009', u'year': u'2009', u'tzname': u'Europe/Paris'}",50.0,10.0,0,0,-9999,-9999,68,unknown,METAR LFPB 050400Z AUTO 05004KT 9999NDV NSC 16/10 Q1018,-9999.00,-9999.00,30.06,1018,0,0,60.8,16.0,0,0,"{u'mday': u'05', u'hour': u'04', u'min': u'00', u'mon': u'08', u'pretty': u'4:00 AM GMT on August 05, 2009', u'year': u'2009', u'tzname': u'UTC'}",6.2,10.0,50,NE,-9999.0,-9999.0,-999,-999,4.6,7.4
13,Clear,"{u'mday': u'05', u'hour': u'06', u'min': u'30', u'mon': u'08', u'pretty': u'6:30 AM CEST on August 05, 2009', u'year': u'2009', u'tzname': u'Europe/Paris'}",51.8,11.0,0,0,-9999,-9999,72,clear,METAR LFPB 050430Z 36004KT CAVOK 16/11 Q1018 NOSIG,-9999.00,-9999.00,30.06,1018,0,0,60.8,16.0,0,0,"{u'mday': u'05', u'hour': u'04', u'min': u'30', u'mon': u'08', u'pretty': u'4:30 AM GMT on August 05, 2009', u'year': u'2009', u'tzname': u'UTC'}",-9999.0,-9999.0,360,North,-9999.0,-9999.0,-999,-999,4.6,7.4
14,Clear,"{u'mday': u'05', u'hour': u'07', u'min': u'00', u'mon': u'08', u'pretty': u'7:00 AM CEST on August 05, 2009', u'year': u'2009', u'tzname': u'Europe/Paris'}",51.8,11.0,0,0,-9999,-9999,72,clear,METAR LFPB 050500Z 02003KT CAVOK 16/11 Q1018 NOSIG,-9999.00,-9999.00,30.06,1018,0,0,60.8,16.0,0,0,"{u'mday': u'05', u'hour': u'05', u'min': u'00', u'mon': u'08', u'pretty': u'5:00 AM GMT on August 05, 2009', u'year': u'2009', u'tzname': u'UTC'}",-9999.0,-9999.0,20,NNE,-9999.0,-9999.0,-999,-999,3.5,5.6
15,Clear,"{u'mday': u'05', u'hour': u'07', u'min': u'30', u'mon': u'08', u'pretty': u'7:30 AM CEST on August 05, 2009', u'year': u'2009', u'tzname': u'Europe/Paris'}",51.8,11.0,0,0,-9999,-9999,72,clear,METAR LFPB 050530Z 04004KT CAVOK 16/11 Q1019 NOSIG,-9999.00,-9999.00,30.09,1019,0,0,60.8,16.0,0,0,"{u'mday': u'05', u'hour': u'05', u'min': u'30', u'mon': u'08', u'pretty': u'5:30 AM GMT on August 05, 2009', u'year': u'2009', u'tzname': u'UTC'}",-9999.0,-9999.0,40,NE,-9999.0,-9999.0,-999,-999,4.6,7.4
16,Clear,"{u'mday': u'05', u'hour': u'08', u'min': u'00', u'mon': u'08', u'pretty': u'8:00 AM CEST on August 05, 2009', u'year': u'2009', u'tzname': u'Europe/Paris'}",53.6,12.0,0,0,-9999,-9999,72,clear,METAR LFPB 050600Z 04003KT CAVOK 17/12 Q1019 NOSIG,-9999.00,-9999.00,30.09,1019,0,0,62.6,17.0,0,0,"{u'mday': u'05', u'hour': u'06', u'min': u'00', u'mon': u'08', u'pretty': u'6:00 AM GMT on August 05, 2009', u'year': u'2009', u'tzname': u'UTC'}",-9999.0,-9999.0,40,NE,-9999.0,-9999.0,-999,-999,3.5,5.6
17,Clear,"{u'mday': u'05', u'hour': u'08', u'min': u'30', u'mon': u'08', u'pretty': u'8:30 AM CEST on August 05, 2009', u'year': u'2009', u'tzname': u'Europe/Paris'}",53.6,12.0,0,0,-9999,-9999,68,clear,METAR LFPB 050630Z 04002KT CAVOK 18/12 Q1019 NOSIG,-9999.00,-9999.00,30.09,1019,0,0,64.4,18.0,0,0,"{u'mday': u'05', u'hour': u'06', u'min': u'30', u'mon': u'08', u'pretty': u'6:30 AM GMT on August 05, 2009', u'year': u'2009', u'tzname': u'UTC'}",-9999.0,-9999.0,40,NE,-9999.0,-9999.0,-999,-999,2.3,3.7
18,Clear,"{u'mday': u'05', u'hour': u'09', u'min': u'00', u'mon': u'08', u'pretty': u'9:00 AM CEST on August 05, 2009', u'year': u'2009', u'tzname': u'Europe/Paris'}",53.6,12.0,0,0,-9999,-9999,60,clear,METAR LFPB 050700Z VRB03KT CAVOK 20/12 Q1019 NOSIG,-9999.00,-9999.00,30.09,1019,0,0,68.0,20.0,0,0,"{u'mday': u'05', u'hour': u'07', u'min': u'00', u'mon': u'08', u'pretty': u'7:00 AM GMT on August 05, 2009', u'year': u'2009', u'tzname': u'UTC'}",-9999.0,-9999.0,0,Variable,-9999.0,-9999.0,-999,-999,3.5,5.6
19,Clear,"{u'mday': u'05', u'hour': u'09', u'min': u'30', u'mon': u'08', u'pretty': u'9:30 AM CEST on August 05, 2009', u'year': u'2009', u'tzname': u'Europe/Paris'}",53.6,12.0,0,0,-9999,-9999,60,clear,METAR LFPB 050730Z 10004KT CAVOK 20/12 Q1019 NOSIG,-9999.00,-9999.00,30.09,1019,0,0,68.0,20.0,0,0,"{u'mday': u'05', u'hour': u'07', u'min': u'30', u'mon': u'08', u'pretty': u'7:30 AM GMT on August 05, 2009', u'year': u'2009', u'tzname': u'UTC'}",-9999.0,-9999.0,100,East,-9999.0,-9999.0,-999,-999,4.6,7.4
20,Clear,"{u'mday': u'05', u'hour': u'10', u'min': u'00', u'mon': u'08', u'pretty': u'10:00 AM CEST on August 05, 2009', u'year': u'2009', u'tzname': u'Europe/Paris'}",53.6,12.0,0,0,-9999,-9999,53,clear,METAR LFPB 050800Z 11003KT 030V140 CAVOK 22/12 Q1019 NOSIG,-9999.00,-9999.00,30.09,1019,0,0,71.6,22.0,0,0,"{u'mday': u'05', u'hour': u'08', u'min': u'00', u'mon': u'08', u'pretty': u'8:00 AM GMT on August 05, 2009', u'year': u'2009', u'tzname': u'UTC'}",-9999.0,-9999.0,110,ESE,-9999.0,-9999.0,-999,-999,3.5,5.6
21,Clear,"{u'mday': u'05', u'hour': u'10', u'min': u'30', u'mon': u'08', u'pretty': u'10:30 AM CEST on August 05, 2009', u'year': u'2009', u'tzname': u'Europe/Paris'}",53.6,12.0,0,0,-9999,-9999,50,clear,METAR LFPB 050830Z 12003KT 060V200 CAVOK 23/12 Q1019 NOSIG,-9999.00,-9999.00,30.09,1019,0,0,73.4,23.0,0,0,"{u'mday': u'05', u'hour': u'08', u'min': u'30', u'mon': u'08', u'pretty': u'8:30 AM GMT on August 05, 2009', u'year': u'2009', u'tzname': u'UTC'}",-9999.0,-9999.0,120,ESE,-9999.0,-9999.0,-999,-999,3.5,5.6
22,Clear,"{u'mday': u'05', u'hour': u'11', u'min': u'00', u'mon': u'08', u'pretty': u'11:00 AM CEST on August 05, 2009', u'year': u'2009', u'tzname': u'Europe/Paris'}",53.6,12.0,0,0,-9999,-9999,47,clear,METAR LFPB 050900Z 12004KT 070V180 CAVOK 24/12 Q1019 NOSIG,-9999.00,-9999.00,30.09,1019,0,0,75.2,24.0,0,0,"{u'mday': u'05', u'hour': u'09', u'min': u'00', u'mon': u'08', u'pretty': u'9:00 AM GMT on August 05, 2009', u'year': u'2009', u'tzname': u'UTC'}",-9999.0,-9999.0,120,ESE,-9999.0,-9999.0,-999,-999,4.6,7.4
23,Clear,"{u'mday': u'05', u'hour': u'11', u'min': u'30', u'mon': u'08', u'pretty': u'11:30 AM CEST on August 05, 2009', u'year': u'2009', u'tzname': u'Europe/Paris'}",53.6,12.0,0,0,-9999,-9999,44,clear,METAR LFPB 050930Z 13004KT 070V180 CAVOK 25/12 Q1019 NOSIG,-9999.00,-9999.00,30.09,1019,0,0,77.0,25.0,0,0,"{u'mday': u'05', u'hour': u'09', u'min': u'30', u'mon': u'08', u'pretty': u'9:30 AM GMT on August 05, 2009', u'year': u'2009', u'tzname': u'UTC'}",-9999.0,-9999.0,130,SE,-9999.0,-9999.0,-999,-999,4.6,7.4
24,Unknown,"{u'mday': u'05', u'hour': u'12', u'min': u'00', u'mon': u'08', u'pretty': u'12:00 PM CEST on August 05, 2009', u'year': u'2009', u'tzname': u'Europe/Paris'}",51.8,11.0,0,0,-9999,-9999,39,unknown,METAR LFPB 051000Z 13004KT 070V200 9999 VCSH NSC 26/11 Q1018 NOSIG,-9999.00,-9999.00,30.06,1018,0,0,78.8,26.0,0,0,"{u'mday': u'05', u'hour': u'10', u'min': u'00', u'mon': u'08', u'pretty': u'10:00 AM GMT on August 05, 2009', u'year': u'2009', u'tzname': u'UTC'}",6.2,10.0,130,SE,-9999.0,-9999.0,-999,-999,4.6,7.4
25,Unknown,"{u'mday': u'05', u'hour': u'12', u'min': u'30', u'mon': u'08', u'pretty': u'12:30 PM CEST on August 05, 2009', u'year': u'2009', u'tzname': u'Europe/Paris'}",50.0,10.0,0,0,-9999,-9999,36,unknown,METAR LFPB 051030Z AUTO 16005KT 090V220 9999NDV NSC 26/10 Q1018,-9999.00,-9999.00,30.06,1018,0,0,78.8,26.0,0,0,"{u'mday': u'05', u'hour': u'10', u'min': u'30', u'mon': u'08', u'pretty': u'10:30 AM GMT on August 05, 2009', u'year': u'2009', u'tzname': u'UTC'}",6.2,10.0,160,SSE,-9999.0,-9999.0,-999,-999,5.8,9.3
26,Clear,"{u'mday': u'05', u'hour': u'13', u'min': u'30', u'mon': u'08', u'pretty': u'1:30 PM CEST on August 05, 2009', u'year': u'2009', u'tzname': u'Europe/Paris'}",50.0,10.0,0,0,-9999,-9999,32,clear,METAR LFPB 051130Z 12004KT 060V180 CAVOK 28/10 Q1018 NOSIG,-9999.00,-9999.00,30.06,1018,0,0,82.4,28.0,0,0,"{u'mday': u'05', u'hour': u'11', u'min': u'30', u'mon': u'08', u'pretty': u'11:30 AM GMT on August 05, 2009', u'year': u'2009', u'tzname': u'UTC'}",-9999.0,-9999.0,120,ESE,-9999.0,-9999.0,-999,-999,4.6,7.4
27,Clear,"{u'mday': u'05', u'hour': u'14', u'min': u'00', u'mon': u'08', u'pretty': u'2:00 PM CEST on August 05, 2009', u'year': u'2009', u'tzname': u'Europe/Paris'}",50.0,10.0,0,0,-9999,-9999,32,clear,METAR LFPB 051200Z 13007KT 030V180 CAVOK 28/10 Q1018 NOSIG,-9999.00,-9999.00,30.06,1018,0,0,82.4,28.0,0,0,"{u'mday': u'05', u'hour': u'12', u'min': u'00', u'mon': u'08', u'pretty': u'12:00 PM GMT on August 05, 2009', u'year': u'2009', u'tzname': u'UTC'}",-9999.0,-9999.0,130,SE,-9999.0,-9999.0,-999,-999,8.1,13.0
28,Clear,"{u'mday': u'05', u'hour': u'14', u'min': u'30', u'mon': u'08', u'pretty': u'2:30 PM CEST on August 05, 2009', u'year': u'2009', u'tzname': u'Europe/Paris'}",50.0,10.0,0,0,-9999,-9999,32,clear,METAR LFPB 051230Z 12007KT 070V160 CAVOK 28/10 Q1018 NOSIG,-9999.00,-9999.00,30.06,1018,0,0,82.4,28.0,0,0,"{u'mday': u'05', u'hour': u'12', u'min': u'30', u'mon': u'08', u'pretty': u'12:30 PM GMT on August 05, 2009', u'year': u'2009', u'tzname': u'UTC'}",-9999.0,-9999.0,120,ESE,-9999.0,-9999.0,-999,-999,8.1,13.0
29,Clear,"{u'mday': u'05', u'hour': u'15', u'min': u'00', u'mon': u'08', u'pretty': u'3:00 PM CEST on August 05, 2009', u'year': u'2009', u'tzname': u'Europe/Paris'}",51.8,11.0,0,0,-9999,-9999,35,clear,METAR LFPB 051300Z 13007KT 080V180 CAVOK 28/11 Q1018 NOSIG,-9999.00,-9999.00,30.06,1018,0,0,82.4,28.0,0,0,"{u'mday': u'05', u'hour': u'13', u'min': u'00', u'mon': u'08', u'pretty': u'1:00 PM GMT on August 05, 2009', u'year': u'2009', u'tzname': u'UTC'}",-9999.0,-9999.0,130,SE,-9999.0,-9999.0,-999,-999,8.1,13.0
30,Clear,"{u'mday': u'05', u'hour': u'15', u'min': u'30', u'mon': u'08', u'pretty': u'3:30 PM CEST on August 05, 2009', u'year': u'2009', u'tzname': u'Europe/Paris'}",51.8,11.0,0,0,-9999,-9999,35,clear,METAR LFPB 051330Z 15006KT 100V200 CAVOK 28/11 Q1018 NOSIG,-9999.00,-9999.00,30.06,1018,0,0,82.4,28.0,0,0,"{u'mday': u'05', u'hour': u'13', u'min': u'30', u'mon': u'08', u'pretty': u'1:30 PM GMT on August 05, 2009', u'year': u'2009', u'tzname': u'UTC'}",-9999.0,-9999.0,150,SSE,-9999.0,-9999.0,-999,-999,6.9,11.1
31,Clear,"{u'mday': u'05', u'hour': u'16', u'min': u'00', u'mon': u'08', u'pretty': u'4:00 PM CEST on August 05, 2009', u'year': u'2009', u'tzname': u'Europe/Paris'}",50.0,10.0,0,0,-9999,-9999,32,clear,METAR LFPB 051400Z 15006KT 110V190 CAVOK 28/10 Q1017 NOSIG,-9999.00,-9999.00,30.04,1017,0,0,82.4,28.0,0,0,"{u'mday': u'05', u'hour': u'14', u'min': u'00', u'mon': u'08', u'pretty': u'2:00 PM GMT on August 05, 2009', u'year': u'2009', u'tzname': u'UTC'}",-9999.0,-9999.0,150,SSE,-9999.0,-9999.0,-999,-999,6.9,11.1
32,Clear,"{u'mday': u'05', u'hour': u'16', u'min': u'30', u'mon': u'08', u'pretty': u'4:30 PM CEST on August 05, 2009', u'year': u'2009', u'tzname': u'Europe/Paris'}",50.0,10.0,0,0,-9999,-9999,32,clear,METAR LFPB 051430Z 12005KT 080V160 CAVOK 28/10 Q1017 NOSIG,-9999.00,-9999.00,30.04,1017,0,0,82.4,28.0,0,0,"{u'mday': u'05', u'hour': u'14', u'min': u'30', u'mon': u'08', u'pretty': u'2:30 PM GMT on August 05, 2009', u'year': u'2009', u'tzname': u'UTC'}",-9999.0,-9999.0,120,ESE,-9999.0,-9999.0,-999,-999,5.8,9.3
33,Clear,"{u'mday': u'05', u'hour': u'16', u'min': u'39', u'mon': u'08', u'pretty': u'4:39 PM CEST on August 05, 2009', u'year': u'2009', u'tzname': u'Europe/Paris'}",50.0,10.0,0,0,-9999,-9999,32,clear,METAR LFPB 051439Z VRB02KT CAVOK 28/10 Q1017 NOSIG,-9999.00,-9999.00,30.04,1017,0,0,82.4,28.0,0,0,"{u'mday': u'05', u'hour': u'14', u'min': u'39', u'mon': u'08', u'pretty': u'2:39 PM GMT on August 05, 2009', u'year': u'2009', u'tzname': u'UTC'}",-9999.0,-9999.0,0,Variable,-9999.0,-9999.0,-999,-999,2.3,3.7
34,Clear,"{u'mday': u'05', u'hour': u'17', u'min': u'00', u'mon': u'08', u'pretty': u'5:00 PM CEST on August 05, 2009', u'year': u'2009', u'tzname': u'Europe/Paris'}",50.0,10.0,0,0,-9999,-9999,32,clear,METAR LFPB 051500Z 07005KT 010V130 CAVOK 28/10 Q1017 NOSIG,-9999.00,-9999.00,30.04,1017,0,0,82.4,28.0,0,0,"{u'mday': u'05', u'hour': u'15', u'min': u'00', u'mon': u'08', u'pretty': u'3:00 PM GMT on August 05, 2009', u'year': u'2009', u'tzname': u'UTC'}",-9999.0,-9999.0,70,ENE,-9999.0,-9999.0,-999,-999,5.8,9.3
35,Clear,"{u'mday': u'05', u'hour': u'17', u'min': u'30', u'mon': u'08', u'pretty': u'5:30 PM CEST on August 05, 2009', u'year': u'2009', u'tzname': u'Europe/Paris'}",50.0,10.0,0,0,-9999,-9999,32,clear,METAR LFPB 051530Z VRB03KT CAVOK 28/10 Q1017 NOSIG,-9999.00,-9999.00,30.04,1017,0,0,82.4,28.0,0,0,"{u'mday': u'05', u'hour': u'15', u'min': u'30', u'mon': u'08', u'pretty': u'3:30 PM GMT on August 05, 2009', u'year': u'2009', u'tzname': u'UTC'}",-9999.0,-9999.0,0,Variable,-9999.0,-9999.0,-999,-999,3.5,5.6
36,Clear,"{u'mday': u'05', u'hour': u'18', u'min': u'00', u'mon': u'08', u'pretty': u'6:00 PM CEST on August 05, 2009', u'year': u'2009', u'tzname': u'Europe/Paris'}",48.2,9.0,0,0,-9999,-9999,29,clear,METAR LFPB 051600Z 08003KT 010V180 CAVOK 29/09 Q1017 NOSIG,-9999.00,-9999.00,30.04,1017,0,0,84.2,29.0,0,0,"{u'mday': u'05', u'hour': u'16', u'min': u'00', u'mon': u'08', u'pretty': u'4:00 PM GMT on August 05, 2009', u'year': u'2009', u'tzname': u'UTC'}",-9999.0,-9999.0,80,East,-9999.0,-9999.0,-999,-999,3.5,5.6
37,Clear,"{u'mday': u'05', u'hour': u'18', u'min': u'30', u'mon': u'08', u'pretty': u'6:30 PM CEST on August 05, 2009', u'year': u'2009', u'tzname': u'Europe/Paris'}",48.2,9.0,0,0,-9999,-9999,29,clear,METAR LFPB 051630Z 08006KT 020V140 CAVOK 29/09 Q1017 NOSIG,-9999.00,-9999.00,30.04,1017,0,0,84.2,29.0,0,0,"{u'mday': u'05', u'hour': u'16', u'min': u'30', u'mon': u'08', u'pretty': u'4:30 PM GMT on August 05, 2009', u'year': u'2009', u'tzname': u'UTC'}",-9999.0,-9999.0,80,East,-9999.0,-9999.0,-999,-999,6.9,11.1
38,Unknown,"{u'mday': u'05', u'hour': u'19', u'min': u'00', u'mon': u'08', u'pretty': u'7:00 PM CEST on August 05, 2009', u'year': u'2009', u'tzname': u'Europe/Paris'}",50.0,10.0,0,0,-9999,-9999,30,unknown,METAR LFPB 051700Z AUTO 05005KT 320V100 9999NDV NSC 29/10 Q1017,-9999.00,-9999.00,30.04,1017,0,0,84.2,29.0,0,0,"{u'mday': u'05', u'hour': u'17', u'min': u'00', u'mon': u'08', u'pretty': u'5:00 PM GMT on August 05, 2009', u'year': u'2009', u'tzname': u'UTC'}",6.2,10.0,50,NE,-9999.0,-9999.0,-999,-999,5.8,9.3
39,Unknown,"{u'mday': u'05', u'hour': u'19', u'min': u'30', u'mon': u'08', u'pretty': u'7:30 PM CEST on August 05, 2009', u'year': u'2009', u'tzname': u'Europe/Paris'}",50.0,10.0,0,0,-9999,-9999,30,unknown,METAR LFPB 051730Z AUTO 08007KT 050V120 9999NDV NSC 29/10 Q1017,-9999.00,-9999.00,30.04,1017,0,0,84.2,29.0,0,0,"{u'mday': u'05', u'hour': u'17', u'min': u'30', u'mon': u'08', u'pretty': u'5:30 PM GMT on August 05, 2009', u'year': u'2009', u'tzname': u'UTC'}",6.2,10.0,80,East,-9999.0,-9999.0,-999,-999,8.1,13.0
40,Unknown,"{u'mday': u'05', u'hour': u'20', u'min': u'00', u'mon': u'08', u'pretty': u'8:00 PM CEST on August 05, 2009', u'year': u'2009', u'tzname': u'Europe/Paris'}",48.2,9.0,0,0,-9999,-9999,29,unknown,METAR LFPB 051800Z AUTO 09006KT 9999NDV NSC 29/09 Q1017,-9999.00,-9999.00,30.04,1017,0,0,84.2,29.0,0,0,"{u'mday': u'05', u'hour': u'18', u'min': u'00', u'mon': u'08', u'pretty': u'6:00 PM GMT on August 05, 2009', u'year': u'2009', u'tzname': u'UTC'}",6.2,10.0,90,East,-9999.0,-9999.0,-999,-999,6.9,11.1
41,Unknown,"{u'mday': u'05', u'hour': u'20', u'min': u'30', u'mon': u'08', u'pretty': u'8:30 PM CEST on August 05, 2009', u'year': u'2009', u'tzname': u'Europe/Paris'}",51.8,11.0,0,0,-9999,-9999,37,unknown,METAR LFPB 051830Z AUTO 07006KT 9999NDV NSC 27/11 Q1017,-9999.00,-9999.00,30.04,1017,0,0,80.6,27.0,0,0,"{u'mday': u'05', u'hour': u'18', u'min': u'30', u'mon': u'08', u'pretty': u'6:30 PM GMT on August 05, 2009', u'year': u'2009', u'tzname': u'UTC'}",6.2,10.0,70,ENE,-9999.0,-9999.0,-999,-999,6.9,11.1
42,Unknown,"{u'mday': u'05', u'hour': u'21', u'min': u'00', u'mon': u'08', u'pretty': u'9:00 PM CEST on August 05, 2009', u'year': u'2009', u'tzname': u'Europe/Paris'}",53.6,12.0,0,0,-9999,-9999,42,unknown,METAR LFPB 051900Z AUTO 07008KT 9999NDV NSC 26/12 Q1017,-9999.00,-9999.00,30.04,1017,0,0,78.8,26.0,0,0,"{u'mday': u'05', u'hour': u'19', u'min': u'00', u'mon': u'08', u'pretty': u'7:00 PM GMT on August 05, 2009', u'year': u'2009', u'tzname': u'UTC'}",6.2,10.0,70,ENE,-9999.0,-9999.0,-999,-999,9.2,14.8
43,Unknown,"{u'mday': u'05', u'hour': u'21', u'min': u'30', u'mon': u'08', u'pretty': u'9:30 PM CEST on August 05, 2009', u'year': u'2009', u'tzname': u'Europe/Paris'}",53.6,12.0,0,0,-9999,-9999,47,unknown,METAR LFPB 051930Z AUTO 06007KT 9999NDV NSC 24/12 Q1017,-9999.00,-9999.00,30.04,1017,0,0,75.2,24.0,0,0,"{u'mday': u'05', u'hour': u'19', u'min': u'30', u'mon': u'08', u'pretty': u'7:30 PM GMT on August 05, 2009', u'year': u'2009', u'tzname': u'UTC'}",6.2,10.0,60,ENE,-9999.0,-9999.0,-999,-999,8.1,13.0
44,Unknown,"{u'mday': u'05', u'hour': u'22', u'min': u'00', u'mon': u'08', u'pretty': u'10:00 PM CEST on August 05, 2009', u'year': u'2009', u'tzname': u'Europe/Paris'}",55.4,13.0,0,0,-9999,-9999,50,unknown,METAR LFPB 052000Z AUTO 04006KT 9999NDV NSC 24/13 Q1017,-9999.00,-9999.00,30.04,1017,0,0,75.2,24.0,0,0,"{u'mday': u'05', u'hour': u'20', u'min': u'00', u'mon': u'08', u'pretty': u'8:00 PM GMT on August 05, 2009', u'year': u'2009', u'tzname': u'UTC'}",6.2,10.0,40,NE,-9999.0,-9999.0,-999,-999,6.9,11.1
45,Unknown,"{u'mday': u'05', u'hour': u'22', u'min': u'30', u'mon': u'08', u'pretty': u'10:30 PM CEST on August 05, 2009', u'year': u'2009', u'tzname': u'Europe/Paris'}",55.4,13.0,0,0,-9999,-9999,50,unknown,METAR LFPB 052030Z AUTO 03004KT 9999NDV NSC 24/13 Q1018,-9999.00,-9999.00,30.06,1018,0,0,75.2,24.0,0,0,"{u'mday': u'05', u'hour': u'20', u'min': u'30', u'mon': u'08', u'pretty': u'8:30 PM GMT on August 05, 2009', u'year': u'2009', u'tzname': u'UTC'}",6.2,10.0,30,NNE,-9999.0,-9999.0,-999,-999,4.6,7.4
46,Unknown,"{u'mday': u'05', u'hour': u'23', u'min': u'00', u'mon': u'08', u'pretty': u'11:00 PM CEST on August 05, 2009', u'year': u'2009', u'tzname': u'Europe/Paris'}",55.4,13.0,0,0,-9999,-9999,53,unknown,METAR LFPB 052100Z AUTO 03005KT 9999NDV NSC 23/13 Q1018,-9999.00,-9999.00,30.06,1018,0,0,73.4,23.0,0,0,"{u'mday': u'05', u'hour': u'21', u'min': u'00', u'mon': u'08', u'pretty': u'9:00 PM GMT on August 05, 2009', u'year': u'2009', u'tzname': u'UTC'}",6.2,10.0,30,NNE,-9999.0,-9999.0,-999,-999,5.8,9.3
47,Unknown,"{u'mday': u'05', u'hour': u'23', u'min': u'30', u'mon': u'08', u'pretty': u'11:30 PM CEST on August 05, 2009', u'year': u'2009', u'tzname': u'Europe/Paris'}",55.4,13.0,0,0,-9999,-9999,57,unknown,METAR LFPB 052130Z AUTO 03004KT 9999NDV NSC 22/13 Q1018,-9999.00,-9999.00,30.06,1018,0,0,71.6,22.0,0,0,"{u'mday': u'05', u'hour': u'21', u'min': u'30', u'mon': u'08', u'pretty': u'9:30 PM GMT on August 05, 2009', u'year': u'2009', u'tzname': u'UTC'}",6.2,10.0,30,NNE,-9999.0,-9999.0,-999,-999,4.6,7.4
0,Unknown,"{u'mday': u'06', u'hour': u'00', u'min': u'00', u'mon': u'08', u'pretty': u'12:00 AM CEST on August 06, 2009', u'year': u'2009', u'tzname': u'Europe/Paris'}",55.4,13.0,0,0,-9999,-9999,60,unknown,METAR LFPB 052200Z AUTO 00000KT 9999NDV NSC 21/13 Q1018,-9999.00,-9999.00,30.06,1018,0,0,69.8,21.0,0,0,"{u'mday': u'05', u'hour': u'22', u'min': u'00', u'mon': u'08', u'pretty': u'10:00 PM GMT on August 05, 2009', u'year': u'2009', u'tzname': u'UTC'}",6.2,10.0,0,North,-9999.0,-9999.0,-999,-999,0.0,0.0
1,Unknown,"{u'mday': u'06', u'hour': u'00', u'min': u'30', u'mon': u'08', u'pretty': u'12:30 AM CEST on August 06, 2009', u'year': u'2009', u'tzname': u'Europe/Paris'}",55.4,13.0,0,0,-9999,-9999,64,unknown,METAR LFPB 052230Z AUTO 05002KT 9999NDV NSC 20/13 Q1017,-9999.00,-9999.00,30.04,1017,0,0,68.0,20.0,0,0,"{u'mday': u'05', u'hour': u'22', u'min': u'30', u'mon': u'08', u'pretty': u'10:30 PM GMT on August 05, 2009', u'year': u'2009', u'tzname': u'UTC'}",6.2,10.0,50,NE,-9999.0,-9999.0,-999,-999,2.3,3.7
2,Unknown,"{u'mday': u'06', u'hour': u'01', u'min': u'00', u'mon': u'08', u'pretty': u'1:00 AM CEST on August 06, 2009', u'year': u'2009', u'tzname': u'Europe/Paris'}",55.4,13.0,0,0,-9999,-9999,64,unknown,METAR LFPB 052300Z AUTO VRB02KT 9999NDV NSC 20/13 Q1018,-9999.00,-9999.00,30.06,1018,0,0,68.0,20.0,0,0,"{u'mday': u'05', u'hour': u'23', u'min': u'00', u'mon': u'08', u'pretty': u'11:00 PM GMT on August 05, 2009', u'year': u'2009', u'tzname': u'UTC'}",6.2,10.0,0,Variable,-9999.0,-9999.0,-999,-999,2.3,3.7
3,Unknown,"{u'mday': u'06', u'hour': u'01', u'min': u'30', u'mon': u'08', u'pretty': u'1:30 AM CEST on August 06, 2009', u'year': u'2009', u'tzname': u'Europe/Paris'}",55.4,13.0,0,0,-9999,-9999,64,unknown,METAR LFPB 052330Z AUTO 06003KT 9999NDV NSC 20/13 Q1017,-9999.00,-9999.00,30.04,1017,0,0,68.0,20.0,0,0,"{u'mday': u'05', u'hour': u'23', u'min': u'30', u'mon': u'08', u'pretty': u'11:30 PM GMT on August 05, 2009', u'year': u'2009', u'tzname': u'UTC'}",6.2,10.0,60,ENE,-9999.0,-9999.0,-999,-999,3.5,5.6
4,Unknown,"{u'mday': u'06', u'hour': u'02', u'min': u'00', u'mon': u'08', u'pretty': u'2:00 AM CEST on August 06, 2009', u'year': u'2009', u'tzname': u'Europe/Paris'}",55.4,13.0,0,0,-9999,-9999,68,unknown,METAR LFPB 060000Z AUTO 00000KT 9999NDV NSC 19/13 Q1017,-9999.00,-9999.00,30.04,1017,0,0,66.2,19.0,0,0,"{u'mday': u'06', u'hour': u'00', u'min': u'00', u'mon': u'08', u'pretty': u'12:00 AM GMT on August 06, 2009', u'year': u'2009', u'tzname': u'UTC'}",6.2,10.0,0,North,-9999.0,-9999.0,-999,-999,0.0,0.0
5,Unknown,"{u'mday': u'06', u'hour': u'02', u'min': u'30', u'mon': u'08', u'pretty': u'2:30 AM CEST on August 06, 2009', u'year': u'2009', u'tzname': u'Europe/Paris'}",55.4,13.0,0,0,-9999,-9999,68,unknown,METAR LFPB 060030Z AUTO 34002KT 9999NDV NSC 19/13 Q1017,-9999.00,-9999.00,30.04,1017,0,0,66.2,19.0,0,0,"{u'mday': u'06', u'hour': u'00', u'min': u'30', u'mon': u'08', u'pretty': u'12:30 AM GMT on August 06, 2009', u'year': u'2009', u'tzname': u'UTC'}",6.2,10.0,340,NNW,-9999.0,-9999.0,-999,-999,2.3,3.7
6,Unknown,"{u'mday': u'06', u'hour': u'03', u'min': u'00', u'mon': u'08', u'pretty': u'3:00 AM CEST on August 06, 2009', u'year': u'2009', u'tzname': u'Europe/Paris'}",55.4,13.0,0,0,-9999,-9999,73,unknown,METAR LFPB 060100Z AUTO 36003KT 9999NDV NSC 18/13 Q1017,-9999.00,-9999.00,30.04,1017,0,0,64.4,18.0,0,0,"{u'mday': u'06', u'hour': u'01', u'min': u'00', u'mon': u'08', u'pretty': u'1:00 AM GMT on August 06, 2009', u'year': u'2009', u'tzname': u'UTC'}",6.2,10.0,360,North,-9999.0,-9999.0,-999,-999,3.5,5.6
7,Unknown,"{u'mday': u'06', u'hour': u'03', u'min': u'30', u'mon': u'08', u'pretty': u'3:30 AM CEST on August 06, 2009', u'year': u'2009', u'tzname': u'Europe/Paris'}",55.4,13.0,0,0,-9999,-9999,73,unknown,METAR LFPB 060130Z AUTO 36003KT 9999NDV NSC 18/13 Q1018,-9999.00,-9999.00,30.06,1018,0,0,64.4,18.0,0,0,"{u'mday': u'06', u'hour': u'01', u'min': u'30', u'mon': u'08', u'pretty': u'1:30 AM GMT on August 06, 2009', u'year': u'2009', u'tzname': u'UTC'}",6.2,10.0,360,North,-9999.0,-9999.0,-999,-999,3.5,5.6
8,Unknown,"{u'mday': u'06', u'hour': u'04', u'min': u'00', u'mon': u'08', u'pretty': u'4:00 AM CEST on August 06, 2009', u'year': u'2009', u'tzname': u'Europe/Paris'}",53.6,12.0,0,0,-9999,-9999,68,unknown,METAR LFPB 060200Z AUTO 01003KT 9999NDV NSC 18/12 Q1018,-9999.00,-9999.00,30.06,1018,0,0,64.4,18.0,0,0,"{u'mday': u'06', u'hour': u'02', u'min': u'00', u'mon': u'08', u'pretty': u'2:00 AM GMT on August 06, 2009', u'year': u'2009', u'tzname': u'UTC'}",6.2,10.0,10,North,-9999.0,-9999.0,-999,-999,3.5,5.6
9,Unknown,"{u'mday': u'06', u'hour': u'04', u'min': u'30', u'mon': u'08', u'pretty': u'4:30 AM CEST on August 06, 2009', u'year': u'2009', u'tzname': u'Europe/Paris'}",53.6,12.0,0,0,-9999,-9999,77,unknown,METAR LFPB 060230Z AUTO 01003KT 9999NDV NSC 16/12 Q1017,-9999.00,-9999.00,30.04,1017,0,0,60.8,16.0,0,0,"{u'mday': u'06', u'hour': u'02', u'min': u'30', u'mon': u'08', u'pretty': u'2:30 AM GMT on August 06, 2009', u'year': u'2009', u'tzname': u'UTC'}",6.2,10.0,10,North,-9999.0,-9999.0,-999,-999,3.5,5.6
10,Unknown,"{u'mday': u'06', u'hour': u'05', u'min': u'00', u'mon': u'08', u'pretty': u'5:00 AM CEST on August 06, 2009', u'year': u'2009', u'tzname': u'Europe/Paris'}",53.6,12.0,0,0,-9999,-9999,77,unknown,METAR LFPB 060300Z AUTO 36003KT 9999NDV NSC 16/12 Q1017,-9999.00,-9999.00,30.04,1017,0,0,60.8,16.0,0,0,"{u'mday': u'06', u'hour': u'03', u'min': u'00', u'mon': u'08', u'pretty': u'3:00 AM GMT on August 06, 2009', u'year': u'2009', u'tzname': u'UTC'}",6.2,10.0,360,North,-9999.0,-9999.0,-999,-999,3.5,5.6
11,Unknown,"{u'mday': u'06', u'hour': u'05', u'min': u'30', u'mon': u'08', u'pretty': u'5:30 AM CEST on August 06, 2009', u'year': u'2009', u'tzname': u'Europe/Paris'}",53.6,12.0,0,0,-9999,-9999,77,unknown,METAR LFPB 060330Z AUTO 02004KT 9999NDV NSC 16/12 Q1017,-9999.00,-9999.00,30.04,1017,0,0,60.8,16.0,0,0,"{u'mday': u'06', u'hour': u'03', u'min': u'30', u'mon': u'08', u'pretty': u'3:30 AM GMT on August 06, 2009', u'year': u'2009', u'tzname': u'UTC'}",6.2,10.0,20,NNE,-9999.0,-9999.0,-999,-999,4.6,7.4
12,Unknown,"{u'mday': u'06', u'hour': u'06', u'min': u'00', u'mon': u'08', u'pretty': u'6:00 AM CEST on August 06, 2009', u'year': u'2009', u'tzname': u'Europe/Paris'}",53.6,12.0,0,0,-9999,-9999,77,unknown,METAR LFPB 060400Z AUTO 02004KT 9999NDV NSC 16/12 Q1017,-9999.00,-9999.00,30.04,1017,0,0,60.8,16.0,0,0,"{u'mday': u'06', u'hour': u'04', u'min': u'00', u'mon': u'08', u'pretty': u'4:00 AM GMT on August 06, 2009', u'year': u'2009', u'tzname': u'UTC'}",6.2,10.0,20,NNE,-9999.0,-9999.0,-999,-999,4.6,7.4
13,Clear,"{u'mday': u'06', u'hour': u'06', u'min': u'30', u'mon': u'08', u'pretty': u'6:30 AM CEST on August 06, 2009', u'year': u'2009', u'tzname': u'Europe/Paris'}",53.6,12.0,0,0,-9999,-9999,77,clear,METAR LFPB 060430Z 02004KT CAVOK 16/12 Q1017 NOSIG,-9999.00,-9999.00,30.04,1017,0,0,60.8,16.0,0,0,"{u'mday': u'06', u'hour': u'04', u'min': u'30', u'mon': u'08', u'pretty': u'4:30 AM GMT on August 06, 2009', u'year': u'2009', u'tzname': u'UTC'}",-9999.0,-9999.0,20,NNE,-9999.0,-9999.0,-999,-999,4.6,7.4
14,Clear,"{u'mday': u'06', u'hour': u'07', u'min': u'04', u'mon': u'08', u'pretty': u'7:04 AM CEST on August 06, 2009', u'year': u'2009', u'tzname': u'Europe/Paris'}",53.6,12.0,0,0,-9999,-9999,77,clear,METAR LFPB 060504Z 01004KT CAVOK 16/12 Q1017 NOSIG,-9999.00,-9999.00,30.04,1017,0,0,60.8,16.0,0,0,"{u'mday': u'06', u'hour': u'05', u'min': u'04', u'mon': u'08', u'pretty': u'5:04 AM GMT on August 06, 2009', u'year': u'2009', u'tzname': u'UTC'}",-9999.0,-9999.0,10,North,-9999.0,-9999.0,-999,-999,4.6,7.4
15,Clear,"{u'mday': u'06', u'hour': u'07', u'min': u'30', u'mon': u'08', u'pretty': u'7:30 AM CEST on August 06, 2009', u'year': u'2009', u'tzname': u'Europe/Paris'}",53.6,12.0,0,0,-9999,-9999,77,clear,METAR LFPB 060530Z 35003KT CAVOK 16/12 Q1017 NOSIG,-9999.00,-9999.00,30.04,1017,0,0,60.8,16.0,0,0,"{u'mday': u'06', u'hour': u'05', u'min': u'30', u'mon': u'08', u'pretty': u'5:30 AM GMT on August 06, 2009', u'year': u'2009', u'tzname': u'UTC'}",-9999.0,-9999.0,350,North,-9999.0,-9999.0,-999,-999,3.5,5.6
16,Clear,"{u'mday': u'06', u'hour': u'08', u'min': u'00', u'mon': u'08', u'pretty': u'8:00 AM CEST on August 06, 2009', u'year': u'2009', u'tzname': u'Europe/Paris'}",57.2,14.0,0,0,-9999,-9999,77,clear,METAR LFPB 060600Z 03002KT CAVOK 18/14 Q1017 NOSIG,-9999.00,-9999.00,30.04,1017,0,0,64.4,18.0,0,0,"{u'mday': u'06', u'hour': u'06', u'min': u'00', u'mon': u'08', u'pretty': u'6:00 AM GMT on August 06, 2009', u'year': u'2009', u'tzname': u'UTC'}",-9999.0,-9999.0,30,NNE,-9999.0,-9999.0,-999,-999,2.3,3.7
17,Clear,"{u'mday': u'06', u'hour': u'08', u'min': u'30', u'mon': u'08', u'pretty': u'8:30 AM CEST on August 06, 2009', u'year': u'2009', u'tzname': u'Europe/Paris'}",55.4,13.0,0,0,-9999,-9999,68,clear,METAR LFPB 060630Z 03003KT CAVOK 19/13 Q1017 NOSIG,-9999.00,-9999.00,30.04,1017,0,0,66.2,19.0,0,0,"{u'mday': u'06', u'hour': u'06', u'min': u'30', u'mon': u'08', u'pretty': u'6:30 AM GMT on August 06, 2009', u'year': u'2009', u'tzname': u'UTC'}",-9999.0,-9999.0,30,NNE,-9999.0,-9999.0,-999,-999,3.5,5.6
18,Clear,"{u'mday': u'06', u'hour': u'09', u'min': u'00', u'mon': u'08', u'pretty': u'9:00 AM CEST on August 06, 2009', u'year': u'2009', u'tzname': u'Europe/Paris'}",55.4,13.0,0,0,-9999,-9999,60,clear,METAR LFPB 060700Z VRB02KT CAVOK 21/13 Q1018 NOSIG,-9999.00,-9999.00,30.06,1018,0,0,69.8,21.0,0,0,"{u'mday': u'06', u'hour': u'07', u'min': u'00', u'mon': u'08', u'pretty': u'7:00 AM GMT on August 06, 2009', u'year': u'2009', u'tzname': u'UTC'}",-9999.0,-9999.0,0,Variable,-9999.0,-9999.0,-999,-999,2.3,3.7
19,Clear,"{u'mday': u'06', u'hour': u'09', u'min': u'30', u'mon': u'08', u'pretty': u'9:30 AM CEST on August 06, 2009', u'year': u'2009', u'tzname': u'Europe/Paris'}",57.2,14.0,0,0,-9999,-9999,60,clear,METAR LFPB 060730Z 05003KT 020V080 CAVOK 22/14 Q1017 NOSIG,-9999.00,-9999.00,30.04,1017,0,0,71.6,22.0,0,0,"{u'mday': u'06', u'hour': u'07', u'min': u'30', u'mon': u'08', u'pretty': u'7:30 AM GMT on August 06, 2009', u'year': u'2009', u'tzname': u'UTC'}",-9999.0,-9999.0,50,NE,-9999.0,-9999.0,-999,-999,3.5,5.6
20,Clear,"{u'mday': u'06', u'hour': u'10', u'min': u'00', u'mon': u'08', u'pretty': u'10:00 AM CEST on August 06, 2009', u'year': u'2009', u'tzname': u'Europe/Paris'}",55.4,13.0,0,0,-9999,-9999,50,clear,METAR LFPB 060800Z 08004KT 030V110 CAVOK 24/13 Q1017 NOSIG,-9999.00,-9999.00,30.04,1017,0,0,75.2,24.0,0,0,"{u'mday': u'06', u'hour': u'08', u'min': u'00', u'mon': u'08', u'pretty': u'8:00 AM GMT on August 06, 2009', u'year': u'2009', u'tzname': u'UTC'}",-9999.0,-9999.0,80,East,-9999.0,-9999.0,-999,-999,4.6,7.4
21,Clear,"{u'mday': u'06', u'hour': u'10', u'min': u'30', u'mon': u'08', u'pretty': u'10:30 AM CEST on August 06, 2009', u'year': u'2009', u'tzname': u'Europe/Paris'}",55.4,13.0,0,0,-9999,-9999,44,clear,METAR LFPB 060830Z 09004KT 040V130 CAVOK 26/13 Q1017 NOSIG,-9999.00,-9999.00,30.04,1017,0,0,78.8,26.0,0,0,"{u'mday': u'06', u'hour': u'08', u'min': u'30', u'mon': u'08', u'pretty': u'8:30 AM GMT on August 06, 2009', u'year': u'2009', u'tzname': u'UTC'}",-9999.0,-9999.0,90,East,-9999.0,-9999.0,-999,-999,4.6,7.4
22,Clear,"{u'mday': u'06', u'hour': u'11', u'min': u'00', u'mon': u'08', u'pretty': u'11:00 AM CEST on August 06, 2009', u'year': u'2009', u'tzname': u'Europe/Paris'}",55.4,13.0,0,0,80.5,27.0,42,clear,METAR LFPB 060900Z 08005KT 040V140 CAVOK 27/13 Q1017 NOSIG,-9999.00,-9999.00,30.04,1017,0,0,80.6,27.0,0,0,"{u'mday': u'06', u'hour': u'09', u'min': u'00', u'mon': u'08', u'pretty': u'9:00 AM GMT on August 06, 2009', u'year': u'2009', u'tzname': u'UTC'}",-9999.0,-9999.0,80,East,-9999.0,-9999.0,-999,-999,5.8,9.3
23,Clear,"{u'mday': u'06', u'hour': u'11', u'min': u'05', u'mon': u'08', u'pretty': u'11:05 AM CEST on August 06, 2009', u'year': u'2009', u'tzname': u'Europe/Paris'}",55.4,13.0,0,0,80.5,27.0,42,clear,METAR LFPB 060905Z 09005KT 060V140 CAVOK 27/13 Q1017 NOSIG,-9999.00,-9999.00,30.04,1017,0,0,80.6,27.0,0,0,"{u'mday': u'06', u'hour': u'09', u'min': u'05', u'mon': u'08', u'pretty': u'9:05 AM GMT on August 06, 2009', u'year': u'2009', u'tzname': u'UTC'}",-9999.0,-9999.0,90,East,-9999.0,-9999.0,-999,-999,5.8,9.3
24,Clear,"{u'mday': u'06', u'hour': u'11', u'min': u'30', u'mon': u'08', u'pretty': u'11:30 AM CEST on August 06, 2009', u'year': u'2009', u'tzname': u'Europe/Paris'}",55.4,13.0,0,0,81.7,27.6,39,clear,METAR LFPB 060930Z 11005KT 080V150 CAVOK 28/13 Q1017 NOSIG,-9999.00,-9999.00,30.04,1017,0,0,82.4,28.0,0,0,"{u'mday': u'06', u'hour': u'09', u'min': u'30', u'mon': u'08', u'pretty': u'9:30 AM GMT on August 06, 2009', u'year': u'2009', u'tzname': u'UTC'}",-9999.0,-9999.0,110,ESE,-9999.0,-9999.0,-999,-999,5.8,9.3
25,Clear,"{u'mday': u'06', u'hour': u'12', u'min': u'00', u'mon': u'08', u'pretty': u'12:00 PM CEST on August 06, 2009', u'year': u'2009', u'tzname': u'Europe/Paris'}",53.6,12.0,0,0,82.8,28.2,35,clear,METAR LFPB 061000Z 09007KT 050V130 CAVOK 29/12 Q1017 NOSIG,-9999.00,-9999.00,30.04,1017,0,0,84.2,29.0,0,0,"{u'mday': u'06', u'hour': u'10', u'min': u'00', u'mon': u'08', u'pretty': u'10:00 AM GMT on August 06, 2009', u'year': u'2009', u'tzname': u'UTC'}",-9999.0,-9999.0,90,East,-9999.0,-9999.0,-999,-999,8.1,13.0
26,Unknown,"{u'mday': u'06', u'hour': u'12', u'min': u'30', u'mon': u'08', u'pretty': u'12:30 PM CEST on August 06, 2009', u'year': u'2009', u'tzname': u'Europe/Paris'}",51.8,11.0,0,0,-9999,-9999,33,unknown,METAR LFPB 061030Z AUTO 07008KT 040V120 9999NDV NSC 29/11 Q1017,-9999.00,-9999.00,30.04,1017,0,0,84.2,29.0,0,0,"{u'mday': u'06', u'hour': u'10', u'min': u'30', u'mon': u'08', u'pretty': u'10:30 AM GMT on August 06, 2009', u'year': u'2009', u'tzname': u'UTC'}",6.2,10.0,70,ENE,-9999.0,-9999.0,-999,-999,9.2,14.8
27,Clear,"{u'mday': u'06', u'hour': u'13', u'min': u'00', u'mon': u'08', u'pretty': u'1:00 PM CEST on August 06, 2009', u'year': u'2009', u'tzname': u'Europe/Paris'}",51.8,11.0,0,0,-9999,-9999,33,clear,METAR LFPB 061100Z 08006KT 030V130 CAVOK 29/11 Q1016 NOSIG,-9999.00,-9999.00,30.01,1016,0,0,84.2,29.0,0,0,"{u'mday': u'06', u'hour': u'11', u'min': u'00', u'mon': u'08', u'pretty': u'11:00 AM GMT on August 06, 2009', u'year': u'2009', u'tzname': u'UTC'}",-9999.0,-9999.0,80,East,-9999.0,-9999.0,-999,-999,6.9,11.1
28,Clear,"{u'mday': u'06', u'hour': u'13', u'min': u'30', u'mon': u'08', u'pretty': u'1:30 PM CEST on August 06, 2009', u'year': u'2009', u'tzname': u'Europe/Paris'}",50.0,10.0,0,0,-9999,-9999,30,clear,METAR LFPB 061130Z 07006KT 030V120 CAVOK 29/10 Q1016 NOSIG,-9999.00,-9999.00,30.01,1016,0,0,84.2,29.0,0,0,"{u'mday': u'06', u'hour': u'11', u'min': u'30', u'mon': u'08', u'pretty': u'11:30 AM GMT on August 06, 2009', u'year': u'2009', u'tzname': u'UTC'}",-9999.0,-9999.0,70,ENE,-9999.0,-9999.0,-999,-999,6.9,11.1
29,Clear,"{u'mday': u'06', u'hour': u'14', u'min': u'00', u'mon': u'08', u'pretty': u'2:00 PM CEST on August 06, 2009', u'year': u'2009', u'tzname': u'Europe/Paris'}",51.8,11.0,0,0,-9999,-9999,31,clear,METAR LFPB 061200Z VRB05KT CAVOK 30/11 Q1016 NOSIG,-9999.00,-9999.00,30.01,1016,0,0,86.0,30.0,0,0,"{u'mday': u'06', u'hour': u'12', u'min': u'00', u'mon': u'08', u'pretty': u'12:00 PM GMT on August 06, 2009', u'year': u'2009', u'tzname': u'UTC'}",-9999.0,-9999.0,0,Variable,-9999.0,-9999.0,-999,-999,5.8,9.3
30,Clear,"{u'mday': u'06', u'hour': u'14', u'min': u'30', u'mon': u'08', u'pretty': u'2:30 PM CEST on August 06, 2009', u'year': u'2009', u'tzname': u'Europe/Paris'}",51.8,11.0,0,0,-9999,-9999,31,clear,METAR LFPB 061230Z 04008KT 350V100 CAVOK 30/11 Q1016 NOSIG,-9999.00,-9999.00,30.01,1016,0,0,86.0,30.0,0,0,"{u'mday': u'06', u'hour': u'12', u'min': u'30', u'mon': u'08', u'pretty': u'12:30 PM GMT on August 06, 2009', u'year': u'2009', u'tzname': u'UTC'}",-9999.0,-9999.0,40,NE,-9999.0,-9999.0,-999,-999,9.2,14.8
31,Clear,"{u'mday': u'06', u'hour': u'15', u'min': u'00', u'mon': u'08', u'pretty': u'3:00 PM CEST on August 06, 2009', u'year': u'2009', u'tzname': u'Europe/Paris'}",50.0,10.0,0,0,-9999,-9999,27,clear,METAR LFPB 061300Z 08006KT 040V140 CAVOK 31/10 Q1016 NOSIG,-9999.00,-9999.00,30.01,1016,0,0,87.8,31.0,0,0,"{u'mday': u'06', u'hour': u'13', u'min': u'00', u'mon': u'08', u'pretty': u'1:00 PM GMT on August 06, 2009', u'year': u'2009', u'tzname': u'UTC'}",-9999.0,-9999.0,80,East,-9999.0,-9999.0,-999,-999,6.9,11.1
32,Clear,"{u'mday': u'06', u'hour': u'15', u'min': u'30', u'mon': u'08', u'pretty': u'3:30 PM CEST on August 06, 2009', u'year': u'2009', u'tzname': u'Europe/Paris'}",51.8,11.0,0,0,-9999,-9999,29,clear,METAR LFPB 061330Z 10007KT 030V150 CAVOK 31/11 Q1015 NOSIG,-9999.00,-9999.00,29.98,1015,0,0,87.8,31.0,0,0,"{u'mday': u'06', u'hour': u'13', u'min': u'30', u'mon': u'08', u'pretty': u'1:30 PM GMT on August 06, 2009', u'year': u'2009', u'tzname': u'UTC'}",-9999.0,-9999.0,100,East,-9999.0,-9999.0,-999,-999,8.1,13.0
33,Clear,"{u'mday': u'06', u'hour': u'16', u'min': u'00', u'mon': u'08', u'pretty': u'4:00 PM CEST on August 06, 2009', u'year': u'2009', u'tzname': u'Europe/Paris'}",50.0,10.0,0,0,-9999,-9999,27,clear,METAR LFPB 061400Z 12005KT 080V180 CAVOK 31/10 Q1015 NOSIG,-9999.00,-9999.00,29.98,1015,0,0,87.8,31.0,0,0,"{u'mday': u'06', u'hour': u'14', u'min': u'00', u'mon': u'08', u'pretty': u'2:00 PM GMT on August 06, 2009', u'year': u'2009', u'tzname': u'UTC'}",-9999.0,-9999.0,120,ESE,-9999.0,-9999.0,-999,-999,5.8,9.3
34,Clear,"{u'mday': u'06', u'hour': u'16', u'min': u'30', u'mon': u'08', u'pretty': u'4:30 PM CEST on August 06, 2009', u'year': u'2009', u'tzname': u'Europe/Paris'}",50.0,10.0,0,0,-9999,-9999,26,clear,METAR LFPB 061430Z 11006KT 010V160 CAVOK 32/10 Q1015 NOSIG,-9999.00,-9999.00,29.98,1015,0,0,89.6,32.0,0,0,"{u'mday': u'06', u'hour': u'14', u'min': u'30', u'mon': u'08', u'pretty': u'2:30 PM GMT on August 06, 2009', u'year': u'2009', u'tzname': u'UTC'}",-9999.0,-9999.0,110,ESE,-9999.0,-9999.0,-999,-999,6.9,11.1
35,Clear,"{u'mday': u'06', u'hour': u'17', u'min': u'00', u'mon': u'08', u'pretty': u'5:00 PM CEST on August 06, 2009', u'year': u'2009', u'tzname': u'Europe/Paris'}",51.8,11.0,0,0,-9999,-9999,27,clear,METAR LFPB 061500Z VRB02KT CAVOK 32/11 Q1015 NOSIG,-9999.00,-9999.00,29.98,1015,0,0,89.6,32.0,0,0,"{u'mday': u'06', u'hour': u'15', u'min': u'00', u'mon': u'08', u'pretty': u'3:00 PM GMT on August 06, 2009', u'year': u'2009', u'tzname': u'UTC'}",-9999.0,-9999.0,0,Variable,-9999.0,-9999.0,-999,-999,2.3,3.7
36,Clear,"{u'mday': u'06', u'hour': u'17', u'min': u'30', u'mon': u'08', u'pretty': u'5:30 PM CEST on August 06, 2009', u'year': u'2009', u'tzname': u'Europe/Paris'}",51.8,11.0,0,0,-9999,-9999,27,clear,METAR LFPB 061530Z VRB03KT CAVOK 32/11 Q1015 NOSIG,-9999.00,-9999.00,29.98,1015,0,0,89.6,32.0,0,0,"{u'mday': u'06', u'hour': u'15', u'min': u'30', u'mon': u'08', u'pretty': u'3:30 PM GMT on August 06, 2009', u'year': u'2009', u'tzname': u'UTC'}",-9999.0,-9999.0,0,Variable,-9999.0,-9999.0,-999,-999,3.5,5.6
37,Clear,"{u'mday': u'06', u'hour': u'18', u'min': u'00', u'mon': u'08', u'pretty': u'6:00 PM CEST on August 06, 2009', u'year': u'2009', u'tzname': u'Europe/Paris'}",51.8,11.0,0,0,-9999,-9999,27,clear,METAR LFPB 061600Z 20004KT 140V270 CAVOK 32/11 Q1015 NOSIG,-9999.00,-9999.00,29.98,1015,0,0,89.6,32.0,0,0,"{u'mday': u'06', u'hour': u'16', u'min': u'00', u'mon': u'08', u'pretty': u'4:00 PM GMT on August 06, 2009', u'year': u'2009', u'tzname': u'UTC'}",-9999.0,-9999.0,200,SSW,-9999.0,-9999.0,-999,-999,4.6,7.4
38,Clear,"{u'mday': u'06', u'hour': u'18', u'min': u'30', u'mon': u'08', u'pretty': u'6:30 PM CEST on August 06, 2009', u'year': u'2009', u'tzname': u'Europe/Paris'}",51.8,11.0,0,0,-9999,-9999,27,clear,METAR LFPB 061630Z 35004KT 320V030 CAVOK 32/11 Q1015 NOSIG,-9999.00,-9999.00,29.98,1015,0,0,89.6,32.0,0,0,"{u'mday': u'06', u'hour': u'16', u'min': u'30', u'mon': u'08', u'pretty': u'4:30 PM GMT on August 06, 2009', u'year': u'2009', u'tzname': u'UTC'}",-9999.0,-9999.0,350,North,-9999.0,-9999.0,-999,-999,4.6,7.4
39,Unknown,"{u'mday': u'06', u'hour': u'19', u'min': u'00', u'mon': u'08', u'pretty': u'7:00 PM CEST on August 06, 2009', u'year': u'2009', u'tzname': u'Europe/Paris'}",51.8,11.0,0,0,-9999,-9999,29,unknown,METAR LFPB 061700Z AUTO VRB05KT 9999NDV NSC 31/11 Q1015,-9999.00,-9999.00,29.98,1015,0,0,87.8,31.0,0,0,"{u'mday': u'06', u'hour': u'17', u'min': u'00', u'mon': u'08', u'pretty': u'5:00 PM GMT on August 06, 2009', u'year': u'2009', u'tzname': u'UTC'}",6.2,10.0,0,Variable,-9999.0,-9999.0,-999,-999,5.8,9.3
40,Unknown,"{u'mday': u'06', u'hour': u'19', u'min': u'30', u'mon': u'08', u'pretty': u'7:30 PM CEST on August 06, 2009', u'year': u'2009', u'tzname': u'Europe/Paris'}",51.8,11.0,0,0,-9999,-9999,29,unknown,METAR LFPB 061730Z AUTO 02005KT 340V070 9999NDV NSC 31/11 Q1014,-9999.00,-9999.00,29.95,1014,0,0,87.8,31.0,0,0,"{u'mday': u'06', u'hour': u'17', u'min': u'30', u'mon': u'08', u'pretty': u'5:30 PM GMT on August 06, 2009', u'year': u'2009', u'tzname': u'UTC'}",6.2,10.0,20,NNE,-9999.0,-9999.0,-999,-999,5.8,9.3
41,Unknown,"{u'mday': u'06', u'hour': u'20', u'min': u'00', u'mon': u'08', u'pretty': u'8:00 PM CEST on August 06, 2009', u'year': u'2009', u'tzname': u'Europe/Paris'}",53.6,12.0,0,0,85.7,29.8,31,unknown,METAR LFPB 061800Z AUTO 03003KT 350V070 9999NDV NSC 31/12 Q1015,-9999.00,-9999.00,29.98,1015,0,0,87.8,31.0,0,0,"{u'mday': u'06', u'hour': u'18', u'min': u'00', u'mon': u'08', u'pretty': u'6:00 PM GMT on August 06, 2009', u'year': u'2009', u'tzname': u'UTC'}",6.2,10.0,30,NNE,-9999.0,-9999.0,-999,-999,3.5,5.6
42,Unknown,"{u'mday': u'06', u'hour': u'20', u'min': u'30', u'mon': u'08', u'pretty': u'8:30 PM CEST on August 06, 2009', u'year': u'2009', u'tzname': u'Europe/Paris'}",51.8,11.0,0,0,-9999,-9999,31,unknown,METAR LFPB 061830Z AUTO 01005KT 9999NDV NSC 30/11 Q1015,-9999.00,-9999.00,29.98,1015,0,0,86.0,30.0,0,0,"{u'mday': u'06', u'hour': u'18', u'min': u'30', u'mon': u'08', u'pretty': u'6:30 PM GMT on August 06, 2009', u'year': u'2009', u'tzname': u'UTC'}",6.2,10.0,10,North,-9999.0,-9999.0,-999,-999,5.8,9.3
43,Unknown,"{u'mday': u'06', u'hour': u'21', u'min': u'00', u'mon': u'08', u'pretty': u'9:00 PM CEST on August 06, 2009', u'year': u'2009', u'tzname': u'Europe/Paris'}",51.8,11.0,0,0,-9999,-9999,33,unknown,METAR LFPB 061900Z AUTO 01004KT 9999NDV NSC 29/11 Q1015,-9999.00,-9999.00,29.98,1015,0,0,84.2,29.0,0,0,"{u'mday': u'06', u'hour': u'19', u'min': u'00', u'mon': u'08', u'pretty': u'7:00 PM GMT on August 06, 2009', u'year': u'2009', u'tzname': u'UTC'}",6.2,10.0,10,North,-9999.0,-9999.0,-999,-999,4.6,7.4
44,Unknown,"{u'mday': u'06', u'hour': u'21', u'min': u'30', u'mon': u'08', u'pretty': u'9:30 PM CEST on August 06, 2009', u'year': u'2009', u'tzname': u'Europe/Paris'}",55.4,13.0,0,0,81.7,27.6,39,unknown,METAR LFPB 061930Z AUTO 02005KT 9999NDV NCD 28/13 Q1015,-9999.00,-9999.00,29.98,1015,0,0,82.4,28.0,0,0,"{u'mday': u'06', u'hour': u'19', u'min': u'30', u'mon': u'08', u'pretty': u'7:30 PM GMT on August 06, 2009', u'year': u'2009', u'tzname': u'UTC'}",6.2,10.0,20,NNE,-9999.0,-9999.0,-999,-999,5.8,9.3
45,Unknown,"{u'mday': u'06', u'hour': u'22', u'min': u'00', u'mon': u'08', u'pretty': u'10:00 PM CEST on August 06, 2009', u'year': u'2009', u'tzname': u'Europe/Paris'}",57.2,14.0,0,0,-9999,-9999,47,unknown,METAR LFPB 062000Z AUTO 34007KT 300V360 9999NDV NSC 26/14 Q1015,-9999.00,-9999.00,29.98,1015,0,0,78.8,26.0,0,0,"{u'mday': u'06', u'hour': u'20', u'min': u'00', u'mon': u'08', u'pretty': u'8:00 PM GMT on August 06, 2009', u'year': u'2009', u'tzname': u'UTC'}",6.2,10.0,340,NNW,-9999.0,-9999.0,-999,-999,8.1,13.0
46,Unknown,"{u'mday': u'06', u'hour': u'22', u'min': u'30', u'mon': u'08', u'pretty': u'10:30 PM CEST on August 06, 2009', u'year': u'2009', u'tzname': u'Europe/Paris'}",57.2,14.0,0,0,-9999,-9999,57,unknown,METAR LFPB 062030Z AUTO 34010KT 9999NDV NSC 23/14 Q1016,-9999.00,-9999.00,30.01,1016,0,0,73.4,23.0,0,0,"{u'mday': u'06', u'hour': u'20', u'min': u'30', u'mon': u'08', u'pretty': u'8:30 PM GMT on August 06, 2009', u'year': u'2009', u'tzname': u'UTC'}",6.2,10.0,340,NNW,-9999.0,-9999.0,-999,-999,11.5,18.5
47,Unknown,"{u'mday': u'06', u'hour': u'23', u'min': u'00', u'mon': u'08', u'pretty': u'11:00 PM CEST on August 06, 2009', u'year': u'2009', u'tzname': u'Europe/Paris'}",55.4,13.0,0,0,-9999,-9999,57,unknown,METAR LFPB 062100Z AUTO 33008KT 280V030 9999NDV NSC 22/13 Q1016,-9999.00,-9999.00,30.01,1016,0,0,71.6,22.0,0,0,"{u'mday': u'06', u'hour': u'21', u'min': u'00', u'mon': u'08', u'pretty': u'9:00 PM GMT on August 06, 2009', u'year': u'2009', u'tzname': u'UTC'}",6.2,10.0,330,NNW,-9999.0,-9999.0,-999,-999,9.2,14.8
48,Unknown,"{u'mday': u'06', u'hour': u'23', u'min': u'30', u'mon': u'08', u'pretty': u'11:30 PM CEST on August 06, 2009', u'year': u'2009', u'tzname': u'Europe/Paris'}",55.4,13.0,0,0,-9999,-9999,60,unknown,METAR LFPB 062130Z AUTO 34007KT 290V020 9999NDV NSC 21/13 Q1017,-9999.00,-9999.00,30.04,1017,0,0,69.8,21.0,0,0,"{u'mday': u'06', u'hour': u'21', u'min': u'30', u'mon': u'08', u'pretty': u'9:30 PM GMT on August 06, 2009', u'year': u'2009', u'tzname': u'UTC'}",6.2,10.0,340,NNW,-9999.0,-9999.0,-999,-999,8.1,13.0
0,Unknown,"{u'mday': u'07', u'hour': u'00', u'min': u'00', u'mon': u'08', u'pretty': u'12:00 AM CEST on August 07, 2009', u'year': u'2009', u'tzname': u'Europe/Paris'}",57.2,14.0,0,0,-9999,-9999,64,unknown,METAR LFPB 062200Z AUTO 34006KT 270V010 9999NDV NSC 21/14 Q1017,-9999.00,-9999.00,30.04,1017,0,0,69.8,21.0,0,0,"{u'mday': u'06', u'hour': u'22', u'min': u'00', u'mon': u'08', u'pretty': u'10:00 PM GMT on August 06, 2009', u'year': u'2009', u'tzname': u'UTC'}",6.2,10.0,340,NNW,-9999.0,-9999.0,-999,-999,6.9,11.1
1,Unknown,"{u'mday': u'07', u'hour': u'00', u'min': u'30', u'mon': u'08', u'pretty': u'12:30 AM CEST on August 07, 2009', u'year': u'2009', u'tzname': u'Europe/Paris'}",57.2,14.0,0,0,-9999,-9999,64,unknown,METAR LFPB 062230Z AUTO 33005KT 280V360 9999NDV NSC 21/14 Q1017,-9999.00,-9999.00,30.04,1017,0,0,69.8,21.0,0,0,"{u'mday': u'06', u'hour': u'22', u'min': u'30', u'mon': u'08', u'pretty': u'10:30 PM GMT on August 06, 2009', u'year': u'2009', u'tzname': u'UTC'}",6.2,10.0,330,NNW,-9999.0,-9999.0,-999,-999,5.8,9.3
2,Unknown,"{u'mday': u'07', u'hour': u'01', u'min': u'00', u'mon': u'08', u'pretty': u'1:00 AM CEST on August 07, 2009', u'year': u'2009', u'tzname': u'Europe/Paris'}",57.2,14.0,0,0,-9999,-9999,64,unknown,METAR LFPB 062300Z AUTO 33004KT 290V360 9999NDV NSC 21/14 Q1017,-9999.00,-9999.00,30.04,1017,0,0,69.8,21.0,0,0,"{u'mday': u'06', u'hour': u'23', u'min': u'00', u'mon': u'08', u'pretty': u'11:00 PM GMT on August 06, 2009', u'year': u'2009', u'tzname': u'UTC'}",6.2,10.0,330,NNW,-9999.0,-9999.0,-999,-999,4.6,7.4
3,Unknown,"{u'mday': u'07', u'hour': u'01', u'min': u'30', u'mon': u'08', u'pretty': u'1:30 AM CEST on August 07, 2009', u'year': u'2009', u'tzname': u'Europe/Paris'}",57.2,14.0,0,0,-9999,-9999,68,unknown,METAR LFPB 062330Z AUTO 31005KT 270V010 9999NDV NSC 20/14 Q1017,-9999.00,-9999.00,30.04,1017,0,0,68.0,20.0,0,0,"{u'mday': u'06', u'hour': u'23', u'min': u'30', u'mon': u'08', u'pretty': u'11:30 PM GMT on August 06, 2009', u'year': u'2009', u'tzname': u'UTC'}",6.2,10.0,310,NW,-9999.0,-9999.0,-999,-999,5.8,9.3
4,Unknown,"{u'mday': u'07', u'hour': u'02', u'min': u'00', u'mon': u'08', u'pretty': u'2:00 AM CEST on August 07, 2009', u'year': u'2009', u'tzname': u'Europe/Paris'}",59.0,15.0,0,0,-9999,-9999,73,unknown,METAR LFPB 070000Z AUTO 30005KT 270V340 9999NDV NSC 20/15 Q1017,-9999.00,-9999.00,30.04,1017,0,0,68.0,20.0,0,0,"{u'mday': u'07', u'hour': u'00', u'min': u'00', u'mon': u'08', u'pretty': u'12:00 AM GMT on August 07, 2009', u'year': u'2009', u'tzname': u'UTC'}",6.2,10.0,300,WNW,-9999.0,-9999.0,-999,-999,5.8,9.3
5,Unknown,"{u'mday': u'07', u'hour': u'02', u'min': u'30', u'mon': u'08', u'pretty': u'2:30 AM CEST on August 07, 2009', u'year': u'2009', u'tzname': u'Europe/Paris'}",59.0,15.0,0,0,-9999,-9999,73,unknown,METAR LFPB 070030Z AUTO 31004KT 270V350 9999NDV NSC 20/15 Q1017,-9999.00,-9999.00,30.04,1017,0,0,68.0,20.0,0,0,"{u'mday': u'07', u'hour': u'00', u'min': u'30', u'mon': u'08', u'pretty': u'12:30 AM GMT on August 07, 2009', u'year': u'2009', u'tzname': u'UTC'}",6.2,10.0,310,NW,-9999.0,-9999.0,-999,-999,4.6,7.4
6,Rain,"{u'mday': u'07', u'hour': u'03', u'min': u'00', u'mon': u'08', u'pretty': u'3:00 AM CEST on August 07, 2009', u'year': u'2009', u'tzname': u'Europe/Paris'}",59.0,15.0,0,0,-9999,-9999,78,rain,METAR LFPB 070100Z AUTO 32005KT 280V350 9999NDV RA NSC 19/15 Q1017,-9999.00,-9999.00,30.04,1017,1,0,66.2,19.0,0,0,"{u'mday': u'07', u'hour': u'01', u'min': u'00', u'mon': u'08', u'pretty': u'1:00 AM GMT on August 07, 2009', u'year': u'2009', u'tzname': u'UTC'}",6.2,10.0,320,NW,-9999.0,-9999.0,-999,-999,5.8,9.3
7,Unknown,"{u'mday': u'07', u'hour': u'03', u'min': u'30', u'mon': u'08', u'pretty': u'3:30 AM CEST on August 07, 2009', u'year': u'2009', u'tzname': u'Europe/Paris'}",60.8,16.0,0,0,-9999,-9999,83,unknown,METAR LFPB 070130Z AUTO 33003KT 270V040 9999NDV NSC 19/16 Q1016,-9999.00,-9999.00,30.01,1016,0,0,66.2,19.0,0,0,"{u'mday': u'07', u'hour': u'01', u'min': u'30', u'mon': u'08', u'pretty': u'1:30 AM GMT on August 07, 2009', u'year': u'2009', u'tzname': u'UTC'}",6.2,10.0,330,NNW,-9999.0,-9999.0,-999,-999,3.5,5.6
8,Unknown,"{u'mday': u'07', u'hour': u'04', u'min': u'00', u'mon': u'08', u'pretty': u'4:00 AM CEST on August 07, 2009', u'year': u'2009', u'tzname': u'Europe/Paris'}",59.0,15.0,0,0,-9999,-9999,78,unknown,METAR LFPB 070200Z AUTO 30004KT 270V350 9999NDV NSC 19/15 Q1017,-9999.00,-9999.00,30.04,1017,0,0,66.2,19.0,0,0,"{u'mday': u'07', u'hour': u'02', u'min': u'00', u'mon': u'08', u'pretty': u'2:00 AM GMT on August 07, 2009', u'year': u'2009', u'tzname': u'UTC'}",6.2,10.0,300,WNW,-9999.0,-9999.0,-999,-999,4.6,7.4
9,Unknown,"{u'mday': u'07', u'hour': u'04', u'min': u'30', u'mon': u'08', u'pretty': u'4:30 AM CEST on August 07, 2009', u'year': u'2009', u'tzname': u'Europe/Paris'}",59.0,15.0,0,0,-9999,-9999,78,unknown,METAR LFPB 070230Z AUTO VRB03KT 9999NDV NSC 19/15 Q1017,-9999.00,-9999.00,30.04,1017,0,0,66.2,19.0,0,0,"{u'mday': u'07', u'hour': u'02', u'min': u'30', u'mon': u'08', u'pretty': u'2:30 AM GMT on August 07, 2009', u'year': u'2009', u'tzname': u'UTC'}",6.2,10.0,0,Variable,-9999.0,-9999.0,-999,-999,3.5,5.6
10,Unknown,"{u'mday': u'07', u'hour': u'05', u'min': u'00', u'mon': u'08', u'pretty': u'5:00 AM CEST on August 07, 2009', u'year': u'2009', u'tzname': u'Europe/Paris'}",59.0,15.0,0,0,-9999,-9999,78,unknown,METAR LFPB 070300Z AUTO 33003KT 290V010 9999NDV NSC 19/15 Q1017,-9999.00,-9999.00,30.04,1017,0,0,66.2,19.0,0,0,"{u'mday': u'07', u'hour': u'03', u'min': u'00', u'mon': u'08', u'pretty': u'3:00 AM GMT on August 07, 2009', u'year': u'2009', u'tzname': u'UTC'}",6.2,10.0,330,NNW,-9999.0,-9999.0,-999,-999,3.5,5.6
11,Unknown,"{u'mday': u'07', u'hour': u'05', u'min': u'30', u'mon': u'08', u'pretty': u'5:30 AM CEST on August 07, 2009', u'year': u'2009', u'tzname': u'Europe/Paris'}",59.0,15.0,0,0,-9999,-9999,78,unknown,METAR LFPB 070330Z AUTO VRB02KT 9999NDV NCD 19/15 Q1016,-9999.00,-9999.00,30.01,1016,0,0,66.2,19.0,0,0,"{u'mday': u'07', u'hour': u'03', u'min': u'30', u'mon': u'08', u'pretty': u'3:30 AM GMT on August 07, 2009', u'year': u'2009', u'tzname': u'UTC'}",6.2,10.0,0,Variable,-9999.0,-9999.0,-999,-999,2.3,3.7
12,Unknown,"{u'mday': u'07', u'hour': u'06', u'min': u'00', u'mon': u'08', u'pretty': u'6:00 AM CEST on August 07, 2009', u'year': u'2009', u'tzname': u'Europe/Paris'}",59.0,15.0,0,0,-9999,-9999,78,unknown,METAR LFPB 070400Z AUTO VRB03KT 9999NDV NSC 19/15 Q1017,-9999.00,-9999.00,30.04,1017,0,0,66.2,19.0,0,0,"{u'mday': u'07', u'hour': u'04', u'min': u'00', u'mon': u'08', u'pretty': u'4:00 AM GMT on August 07, 2009', u'year': u'2009', u'tzname': u'UTC'}",6.2,10.0,0,Variable,-9999.0,-9999.0,-999,-999,3.5,5.6
13,Clear,"{u'mday': u'07', u'hour': u'06', u'min': u'30', u'mon': u'08', u'pretty': u'6:30 AM CEST on August 07, 2009', u'year': u'2009', u'tzname': u'Europe/Paris'}",59.0,15.0,0,0,-9999,-9999,78,clear,METAR LFPB 070430Z VRB03KT CAVOK 19/15 Q1017,-9999.00,-9999.00,30.04,1017,0,0,66.2,19.0,0,0,"{u'mday': u'07', u'hour': u'04', u'min': u'30', u'mon': u'08', u'pretty': u'4:30 AM GMT on August 07, 2009', u'year': u'2009', u'tzname': u'UTC'}",-9999.0,-9999.0,0,Variable,-9999.0,-9999.0,-999,-999,3.5,5.6
14,Clear,"{u'mday': u'07', u'hour': u'06', u'min': u'35', u'mon': u'08', u'pretty': u'6:35 AM CEST on August 07, 2009', u'year': u'2009', u'tzname': u'Europe/Paris'}",59.0,15.0,0,0,-9999,-9999,78,clear,METAR LFPB 070435Z 32003KT 260V020 CAVOK 19/15 Q1017 NOSIG,-9999.00,-9999.00,30.04,1017,0,0,66.2,19.0,0,0,"{u'mday': u'07', u'hour': u'04', u'min': u'35', u'mon': u'08', u'pretty': u'4:35 AM GMT on August 07, 2009', u'year': u'2009', u'tzname': u'UTC'}",-9999.0,-9999.0,320,NW,-9999.0,-9999.0,-999,-999,3.5,5.6
15,Clear,"{u'mday': u'07', u'hour': u'07', u'min': u'04', u'mon': u'08', u'pretty': u'7:04 AM CEST on August 07, 2009', u'year': u'2009', u'tzname': u'Europe/Paris'}",59.0,15.0,0,0,-9999,-9999,78,clear,METAR LFPB 070504Z 31004KT 270V350 CAVOK 19/15 Q1017 NOSIG,-9999.00,-9999.00,30.04,1017,0,0,66.2,19.0,0,0,"{u'mday': u'07', u'hour': u'05', u'min': u'04', u'mon': u'08', u'pretty': u'5:04 AM GMT on August 07, 2009', u'year': u'2009', u'tzname': u'UTC'}",-9999.0,-9999.0,310,NW,-9999.0,-9999.0,-999,-999,4.6,7.4
16,Clear,"{u'mday': u'07', u'hour': u'07', u'min': u'30', u'mon': u'08', u'pretty': u'7:30 AM CEST on August 07, 2009', u'year': u'2009', u'tzname': u'Europe/Paris'}",59.0,15.0,0,0,-9999,-9999,78,clear,METAR LFPB 070530Z 32006KT 280V360 CAVOK 19/15 Q1017 NOSIG,-9999.00,-9999.00,30.04,1017,0,0,66.2,19.0,0,0,"{u'mday': u'07', u'hour': u'05', u'min': u'30', u'mon': u'08', u'pretty': u'5:30 AM GMT on August 07, 2009', u'year': u'2009', u'tzname': u'UTC'}",-9999.0,-9999.0,320,NW,-9999.0,-9999.0,-999,-999,6.9,11.1
17,Clear,"{u'mday': u'07', u'hour': u'08', u'min': u'00', u'mon': u'08', u'pretty': u'8:00 AM CEST on August 07, 2009', u'year': u'2009', u'tzname': u'Europe/Paris'}",60.8,16.0,0,0,-9999,-9999,83,clear,METAR LFPB 070600Z 30006KT 270V340 CAVOK 19/16 Q1018 NOSIG,-9999.00,-9999.00,30.06,1018,0,0,66.2,19.0,0,0,"{u'mday': u'07', u'hour': u'06', u'min': u'00', u'mon': u'08', u'pretty': u'6:00 AM GMT on August 07, 2009', u'year': u'2009', u'tzname': u'UTC'}",-9999.0,-9999.0,300,WNW,-9999.0,-9999.0,-999,-999,6.9,11.1
18,Clear,"{u'mday': u'07', u'hour': u'08', u'min': u'30', u'mon': u'08', u'pretty': u'8:30 AM CEST on August 07, 2009', u'year': u'2009', u'tzname': u'Europe/Paris'}",60.8,16.0,0,0,-9999,-9999,83,clear,METAR LFPB 070630Z 30007KT 280V340 CAVOK 19/16 Q1018 NOSIG,-9999.00,-9999.00,30.06,1018,0,0,66.2,19.0,0,0,"{u'mday': u'07', u'hour': u'06', u'min': u'30', u'mon': u'08', u'pretty': u'6:30 AM GMT on August 07, 2009', u'year': u'2009', u'tzname': u'UTC'}",-9999.0,-9999.0,300,WNW,-9999.0,-9999.0,-999,-999,8.1,13.0
19,Scattered Clouds,"{u'mday': u'07', u'hour': u'09', u'min': u'00', u'mon': u'08', u'pretty': u'9:00 AM CEST on August 07, 2009', u'year': u'2009', u'tzname': u'Europe/Paris'}",60.8,16.0,0,0,-9999,-9999,78,partlycloudy,METAR LFPB 070700Z 31006KT 260V360 9999 SCT013 20/16 Q1018 NOSIG,-9999.00,-9999.00,30.06,1018,0,0,68.0,20.0,0,0,"{u'mday': u'07', u'hour': u'07', u'min': u'00', u'mon': u'08', u'pretty': u'7:00 AM GMT on August 07, 2009', u'year': u'2009', u'tzname': u'UTC'}",6.2,10.0,310,NW,-9999.0,-9999.0,-999,-999,6.9,11.1
20,Scattered Clouds,"{u'mday': u'07', u'hour': u'09', u'min': u'30', u'mon': u'08', u'pretty': u'9:30 AM CEST on August 07, 2009', u'year': u'2009', u'tzname': u'Europe/Paris'}",60.8,16.0,0,0,-9999,-9999,78,partlycloudy,METAR LFPB 070730Z 32006KT 290V360 9999 SCT015 20/16 Q1018 NOSIG,-9999.00,-9999.00,30.06,1018,0,0,68.0,20.0,0,0,"{u'mday': u'07', u'hour': u'07', u'min': u'30', u'mon': u'08', u'pretty': u'7:30 AM GMT on August 07, 2009', u'year': u'2009', u'tzname': u'UTC'}",6.2,10.0,320,NW,-9999.0,-9999.0,-999,-999,6.9,11.1
21,Mostly Cloudy,"{u'mday': u'07', u'hour': u'10', u'min': u'00', u'mon': u'08', u'pretty': u'10:00 AM CEST on August 07, 2009', u'year': u'2009', u'tzname': u'Europe/Paris'}",60.8,16.0,0,0,-9999,-9999,73,mostlycloudy,METAR LFPB 070800Z 32008KT 280V350 9999 BKN017 21/16 Q1018 NOSIG,-9999.00,-9999.00,30.06,1018,0,0,69.8,21.0,0,0,"{u'mday': u'07', u'hour': u'08', u'min': u'00', u'mon': u'08', u'pretty': u'8:00 AM GMT on August 07, 2009', u'year': u'2009', u'tzname': u'UTC'}",6.2,10.0,320,NW,-9999.0,-9999.0,-999,-999,9.2,14.8
22,Mostly Cloudy,"{u'mday': u'07', u'hour': u'10', u'min': u'30', u'mon': u'08', u'pretty': u'10:30 AM CEST on August 07, 2009', u'year': u'2009', u'tzname': u'Europe/Paris'}",60.8,16.0,0,0,-9999,-9999,73,mostlycloudy,METAR LFPB 070830Z 30009KT 250V340 9999 BKN017 21/16 Q1018 NOSIG,-9999.00,-9999.00,30.06,1018,0,0,69.8,21.0,0,0,"{u'mday': u'07', u'hour': u'08', u'min': u'30', u'mon': u'08', u'pretty': u'8:30 AM GMT on August 07, 2009', u'year': u'2009', u'tzname': u'UTC'}",6.2,10.0,300,WNW,-9999.0,-9999.0,-999,-999,10.4,16.7
23,Mostly Cloudy,"{u'mday': u'07', u'hour': u'11', u'min': u'00', u'mon': u'08', u'pretty': u'11:00 AM CEST on August 07, 2009', u'year': u'2009', u'tzname': u'Europe/Paris'}",60.8,16.0,0,0,-9999,-9999,69,mostlycloudy,METAR LFPB 070900Z 30007KT 260V360 9999 BKN020 22/16 Q1019 NOSIG,-9999.00,-9999.00,30.09,1019,0,0,71.6,22.0,0,0,"{u'mday': u'07', u'hour': u'09', u'min': u'00', u'mon': u'08', u'pretty': u'9:00 AM GMT on August 07, 2009', u'year': u'2009', u'tzname': u'UTC'}",6.2,10.0,300,WNW,-9999.0,-9999.0,-999,-999,8.1,13.0
24,Mostly Cloudy,"{u'mday': u'07', u'hour': u'11', u'min': u'30', u'mon': u'08', u'pretty': u'11:30 AM CEST on August 07, 2009', u'year': u'2009', u'tzname': u'Europe/Paris'}",60.8,16.0,0,0,-9999,-9999,69,mostlycloudy,METAR LFPB 070930Z 29009KT 9999 BKN021 22/16 Q1019 NOSIG,-9999.00,-9999.00,30.09,1019,0,0,71.6,22.0,0,0,"{u'mday': u'07', u'hour': u'09', u'min': u'30', u'mon': u'08', u'pretty': u'9:30 AM GMT on August 07, 2009', u'year': u'2009', u'tzname': u'UTC'}",6.2,10.0,290,WNW,-9999.0,-9999.0,-999,-999,10.4,16.7
25,Mostly Cloudy,"{u'mday': u'07', u'hour': u'12', u'min': u'00', u'mon': u'08', u'pretty': u'12:00 PM CEST on August 07, 2009', u'year': u'2009', u'tzname': u'Europe/Paris'}",60.8,16.0,0,0,-9999,-9999,73,mostlycloudy,METAR LFPB 071000Z 30008KT 270V340 9999 BKN021 21/16 Q1019 NOSIG,-9999.00,-9999.00,30.09,1019,0,0,69.8,21.0,0,0,"{u'mday': u'07', u'hour': u'10', u'min': u'00', u'mon': u'08', u'pretty': u'10:00 AM GMT on August 07, 2009', u'year': u'2009', u'tzname': u'UTC'}",6.2,10.0,300,WNW,-9999.0,-9999.0,-999,-999,9.2,14.8
26,Overcast,"{u'mday': u'07', u'hour': u'12', u'min': u'30', u'mon': u'08', u'pretty': u'12:30 PM CEST on August 07, 2009', u'year': u'2009', u'tzname': u'Europe/Paris'}",60.8,16.0,0,0,-9999,-9999,73,cloudy,METAR LFPB 071030Z AUTO 29009KT 260V320 9999NDV OVC019 21/16 Q1019,-9999.00,-9999.00,30.09,1019,0,0,69.8,21.0,0,0,"{u'mday': u'07', u'hour': u'10', u'min': u'30', u'mon': u'08', u'pretty': u'10:30 AM GMT on August 07, 2009', u'year': u'2009', u'tzname': u'UTC'}",6.2,10.0,290,WNW,-9999.0,-9999.0,-999,-999,10.4,16.7
27,Overcast,"{u'mday': u'07', u'hour': u'13', u'min': u'00', u'mon': u'08', u'pretty': u'1:00 PM CEST on August 07, 2009', u'year': u'2009', u'tzname': u'Europe/Paris'}",60.8,16.0,0,0,-9999,-9999,73,cloudy,METAR LFPB 071100Z 29007KT 240V330 9999 OVC020 21/16 Q1019 NOSIG,-9999.00,-9999.00,30.09,1019,0,0,69.8,21.0,0,0,"{u'mday': u'07', u'hour': u'11', u'min': u'00', u'mon': u'08', u'pretty': u'11:00 AM GMT on August 07, 2009', u'year': u'2009', u'tzname': u'UTC'}",6.2,10.0,290,WNW,-9999.0,-9999.0,-999,-999,8.1,13.0
28,Overcast,"{u'mday': u'07', u'hour': u'13', u'min': u'18', u'mon': u'08', u'pretty': u'1:18 PM CEST on August 07, 2009', u'year': u'2009', u'tzname': u'Europe/Paris'}",60.8,16.0,0,0,-9999,-9999,73,cloudy,METAR LFPB 071118Z 29007KT 260V320 9999 OVC020 21/16 Q1019 NOSIG,-9999.00,-9999.00,30.09,1019,0,0,69.8,21.0,0,0,"{u'mday': u'07', u'hour': u'11', u'min': u'18', u'mon': u'08', u'pretty': u'11:18 AM GMT on August 07, 2009', u'year': u'2009', u'tzname': u'UTC'}",6.2,10.0,290,WNW,-9999.0,-9999.0,-999,-999,8.1,13.0
29,Overcast,"{u'mday': u'07', u'hour': u'13', u'min': u'30', u'mon': u'08', u'pretty': u'1:30 PM CEST on August 07, 2009', u'year': u'2009', u'tzname': u'Europe/Paris'}",60.8,16.0,0,0,-9999,-9999,69,cloudy,METAR LFPB 071130Z 32008KT 270V360 9999 OVC020 22/16 Q1019 NOSIG,-9999.00,-9999.00,30.09,1019,0,0,71.6,22.0,0,0,"{u'mday': u'07', u'hour': u'11', u'min': u'30', u'mon': u'08', u'pretty': u'11:30 AM GMT on August 07, 2009', u'year': u'2009', u'tzname': u'UTC'}",6.2,10.0,320,NW,-9999.0,-9999.0,-999,-999,9.2,14.8
30,Overcast,"{u'mday': u'07', u'hour': u'14', u'min': u'05', u'mon': u'08', u'pretty': u'2:05 PM CEST on August 07, 2009', u'year': u'2009', u'tzname': u'Europe/Paris'}",60.8,16.0,0,0,-9999,-9999,69,cloudy,METAR LFPB 071205Z 31008KT 280V350 9999 OVC020 22/16 Q1019 NOSIG,-9999.00,-9999.00,30.09,1019,0,0,71.6,22.0,0,0,"{u'mday': u'07', u'hour': u'12', u'min': u'05', u'mon': u'08', u'pretty': u'12:05 PM GMT on August 07, 2009', u'year': u'2009', u'tzname': u'UTC'}",6.2,10.0,310,NW,-9999.0,-9999.0,-999,-999,9.2,14.8
31,Mostly Cloudy,"{u'mday': u'07', u'hour': u'14', u'min': u'30', u'mon': u'08', u'pretty': u'2:30 PM CEST on August 07, 2009', u'year': u'2009', u'tzname': u'Europe/Paris'}",60.8,16.0,0,0,-9999,-9999,69,mostlycloudy,METAR LFPB 071230Z 33008KT 270V360 9999 BKN021 22/16 Q1019 NOSIG,-9999.00,-9999.00,30.09,1019,0,0,71.6,22.0,0,0,"{u'mday': u'07', u'hour': u'12', u'min': u'30', u'mon': u'08', u'pretty': u'12:30 PM GMT on August 07, 2009', u'year': u'2009', u'tzname': u'UTC'}",6.2,10.0,330,NNW,-9999.0,-9999.0,-999,-999,9.2,14.8
32,Mostly Cloudy,"{u'mday': u'07', u'hour': u'15', u'min': u'00', u'mon': u'08', u'pretty': u'3:00 PM CEST on August 07, 2009', u'year': u'2009', u'tzname': u'Europe/Paris'}",60.8,16.0,0,0,-9999,-9999,65,mostlycloudy,METAR LFPB 071300Z 31009KT 270V350 9999 BKN021 23/16 Q1019 NOSIG,-9999.00,-9999.00,30.09,1019,0,0,73.4,23.0,0,0,"{u'mday': u'07', u'hour': u'13', u'min': u'00', u'mon': u'08', u'pretty': u'1:00 PM GMT on August 07, 2009', u'year': u'2009', u'tzname': u'UTC'}",6.2,10.0,310,NW,-9999.0,-9999.0,-999,-999,10.4,16.7
33,Mostly Cloudy,"{u'mday': u'07', u'hour': u'15', u'min': u'30', u'mon': u'08', u'pretty': u'3:30 PM CEST on August 07, 2009', u'year': u'2009', u'tzname': u'Europe/Paris'}",60.8,16.0,0,0,-9999,-9999,65,mostlycloudy,METAR LFPB 071330Z 33007KT 290V020 9999 BKN024 23/16 Q1019 NOSIG,-9999.00,-9999.00,30.09,1019,0,0,73.4,23.0,0,0,"{u'mday': u'07', u'hour': u'13', u'min': u'30', u'mon': u'08', u'pretty': u'1:30 PM GMT on August 07, 2009', u'year': u'2009', u'tzname': u'UTC'}",6.2,10.0,330,NNW,-9999.0,-9999.0,-999,-999,8.1,13.0
34,Mostly Cloudy,"{u'mday': u'07', u'hour': u'16', u'min': u'00', u'mon': u'08', u'pretty': u'4:00 PM CEST on August 07, 2009', u'year': u'2009', u'tzname': u'Europe/Paris'}",60.8,16.0,0,0,-9999,-9999,65,mostlycloudy,METAR LFPB 071400Z 31006KT 260V350 9999 BKN024 23/16 Q1019 NOSIG,-9999.00,-9999.00,30.09,1019,0,0,73.4,23.0,0,0,"{u'mday': u'07', u'hour': u'14', u'min': u'00', u'mon': u'08', u'pretty': u'2:00 PM GMT on August 07, 2009', u'year': u'2009', u'tzname': u'UTC'}",6.2,10.0,310,NW,-9999.0,-9999.0,-999,-999,6.9,11.1
35,Mostly Cloudy,"{u'mday': u'07', u'hour': u'16', u'min': u'30', u'mon': u'08', u'pretty': u'4:30 PM CEST on August 07, 2009', u'year': u'2009', u'tzname': u'Europe/Paris'}",60.8,16.0,0,0,-9999,-9999,61,mostlycloudy,METAR LFPB 071430Z 33006KT 270V010 9999 SCT026 BKN100 24/16 Q1019 NOSIG,-9999.00,-9999.00,30.09,1019,0,0,75.2,24.0,0,0,"{u'mday': u'07', u'hour': u'14', u'min': u'30', u'mon': u'08', u'pretty': u'2:30 PM GMT on August 07, 2009', u'year': u'2009', u'tzname': u'UTC'}",6.2,10.0,330,NNW,-9999.0,-9999.0,-999,-999,6.9,11.1
36,Mostly Cloudy,"{u'mday': u'07', u'hour': u'17', u'min': u'17', u'mon': u'08', u'pretty': u'5:17 PM CEST on August 07, 2009', u'year': u'2009', u'tzname': u'Europe/Paris'}",59.0,15.0,0,0,-9999,-9999,57,mostlycloudy,METAR LFPB 071517Z 32006KT 280V360 9999 SCT026 BKN100 24/15 Q1019 NOSIG,-9999.00,-9999.00,30.09,1019,0,0,75.2,24.0,0,0,"{u'mday': u'07', u'hour': u'15', u'min': u'17', u'mon': u'08', u'pretty': u'3:17 PM GMT on August 07, 2009', u'year': u'2009', u'tzname': u'UTC'}",6.2,10.0,320,NW,-9999.0,-9999.0,-999,-999,6.9,11.1
37,Mostly Cloudy,"{u'mday': u'07', u'hour': u'17', u'min': u'30', u'mon': u'08', u'pretty': u'5:30 PM CEST on August 07, 2009', u'year': u'2009', u'tzname': u'Europe/Paris'}",60.8,16.0,0,0,-9999,-9999,61,mostlycloudy,METAR LFPB 071530Z 34008KT 270V020 9999 SCT026 BKN100 24/16 Q1019 NOSIG,-9999.00,-9999.00,30.09,1019,0,0,75.2,24.0,0,0,"{u'mday': u'07', u'hour': u'15', u'min': u'30', u'mon': u'08', u'pretty': u'3:30 PM GMT on August 07, 2009', u'year': u'2009', u'tzname': u'UTC'}",6.2,10.0,340,NNW,-9999.0,-9999.0,-999,-999,9.2,14.8
38,Mostly Cloudy,"{u'mday': u'07', u'hour': u'18', u'min': u'00', u'mon': u'08', u'pretty': u'6:00 PM CEST on August 07, 2009', u'year': u'2009', u'tzname': u'Europe/Paris'}",60.8,16.0,0,0,-9999,-9999,61,mostlycloudy,METAR LFPB 071600Z 32007KT 270V360 9999 SCT026 BKN100 24/16 Q1019 NOSIG,-9999.00,-9999.00,30.09,1019,0,0,75.2,24.0,0,0,"{u'mday': u'07', u'hour': u'16', u'min': u'00', u'mon': u'08', u'pretty': u'4:00 PM GMT on August 07, 2009', u'year': u'2009', u'tzname': u'UTC'}",6.2,10.0,320,NW,-9999.0,-9999.0,-999,-999,8.1,13.0
39,Mostly Cloudy,"{u'mday': u'07', u'hour': u'18', u'min': u'30', u'mon': u'08', u'pretty': u'6:30 PM CEST on August 07, 2009', u'year': u'2009', u'tzname': u'Europe/Paris'}",60.8,16.0,0,0,-9999,-9999,65,mostlycloudy,METAR LFPB 071630Z 31009KT 270V350 9999 SCT030 BKN230 23/16 Q1019 NOSIG,-9999.00,-9999.00,30.09,1019,0,0,73.4,23.0,0,0,"{u'mday': u'07', u'hour': u'16', u'min': u'30', u'mon': u'08', u'pretty': u'4:30 PM GMT on August 07, 2009', u'year': u'2009', u'tzname': u'UTC'}",6.2,10.0,310,NW,-9999.0,-9999.0,-999,-999,10.4,16.7
40,Partly Cloudy,"{u'mday': u'07', u'hour': u'19', u'min': u'00', u'mon': u'08', u'pretty': u'7:00 PM CEST on August 07, 2009', u'year': u'2009', u'tzname': u'Europe/Paris'}",59.0,15.0,0,0,-9999,-9999,61,partlycloudy,METAR LFPB 071700Z AUTO 31008KT 270V360 9999NDV FEW032 23/15 Q1019,-9999.00,-9999.00,30.09,1019,0,0,73.4,23.0,0,0,"{u'mday': u'07', u'hour': u'17', u'min': u'00', u'mon': u'08', u'pretty': u'5:00 PM GMT on August 07, 2009', u'year': u'2009', u'tzname': u'UTC'}",6.2,10.0,310,NW,-9999.0,-9999.0,-999,-999,9.2,14.8
41,Unknown,"{u'mday': u'07', u'hour': u'19', u'min': u'30', u'mon': u'08', u'pretty': u'7:30 PM CEST on August 07, 2009', u'year': u'2009', u'tzname': u'Europe/Paris'}",60.8,16.0,0,0,-9999,-9999,65,unknown,METAR LFPB 071730Z AUTO 30009KT 270V340 9999NDV NSC 23/16 Q1019,-9999.00,-9999.00,30.09,1019,0,0,73.4,23.0,0,0,"{u'mday': u'07', u'hour': u'17', u'min': u'30', u'mon': u'08', u'pretty': u'5:30 PM GMT on August 07, 2009', u'year': u'2009', u'tzname': u'UTC'}",6.2,10.0,300,WNW,-9999.0,-9999.0,-999,-999,10.4,16.7
42,Scattered Clouds,"{u'mday': u'07', u'hour': u'20', u'min': u'00', u'mon': u'08', u'pretty': u'8:00 PM CEST on August 07, 2009', u'year': u'2009', u'tzname': u'Europe/Paris'}",60.8,16.0,0,0,-9999,-9999,69,partlycloudy,METAR LFPB 071800Z AUTO 30008KT 270V330 9999NDV SCT032 22/16 Q1019,-9999.00,-9999.00,30.09,1019,0,0,71.6,22.0,0,0,"{u'mday': u'07', u'hour': u'18', u'min': u'00', u'mon': u'08', u'pretty': u'6:00 PM GMT on August 07, 2009', u'year': u'2009', u'tzname': u'UTC'}",6.2,10.0,300,WNW,-9999.0,-9999.0,-999,-999,9.2,14.8
43,Partly Cloudy,"{u'mday': u'07', u'hour': u'20', u'min': u'30', u'mon': u'08', u'pretty': u'8:30 PM CEST on August 07, 2009', u'year': u'2009', u'tzname': u'Europe/Paris'}",60.8,16.0,0,0,-9999,-9999,73,partlycloudy,METAR LFPB 071830Z AUTO 31009KT 280V340 9999NDV FEW033 21/16 Q1020,-9999.00,-9999.00,30.12,1020,0,0,69.8,21.0,0,0,"{u'mday': u'07', u'hour': u'18', u'min': u'30', u'mon': u'08', u'pretty': u'6:30 PM GMT on August 07, 2009', u'year': u'2009', u'tzname': u'UTC'}",6.2,10.0,310,NW,-9999.0,-9999.0,-999,-999,10.4,16.7
44,Unknown,"{u'mday': u'07', u'hour': u'21', u'min': u'00', u'mon': u'08', u'pretty': u'9:00 PM CEST on August 07, 2009', u'year': u'2009', u'tzname': u'Europe/Paris'}",59.0,15.0,0,0,-9999,-9999,68,unknown,METAR LFPB 071900Z AUTO 32008KT 290V360 9999NDV NSC 21/15 Q1020,-9999.00,-9999.00,30.12,1020,0,0,69.8,21.0,0,0,"{u'mday': u'07', u'hour': u'19', u'min': u'00', u'mon': u'08', u'pretty': u'7:00 PM GMT on August 07, 2009', u'year': u'2009', u'tzname': u'UTC'}",6.2,10.0,320,NW,-9999.0,-9999.0,-999,-999,9.2,14.8
45,Unknown,"{u'mday': u'07', u'hour': u'21', u'min': u'30', u'mon': u'08', u'pretty': u'9:30 PM CEST on August 07, 2009', u'year': u'2009', u'tzname': u'Europe/Paris'}",59.0,15.0,0,0,-9999,-9999,73,unknown,METAR LFPB 071930Z AUTO 31007KT 280V360 9999NDV NSC 20/15 Q1020,-9999.00,-9999.00,30.12,1020,0,0,68.0,20.0,0,0,"{u'mday': u'07', u'hour': u'19', u'min': u'30', u'mon': u'08', u'pretty': u'7:30 PM GMT on August 07, 2009', u'year': u'2009', u'tzname': u'UTC'}",6.2,10.0,310,NW,-9999.0,-9999.0,-999,-999,8.1,13.0
46,Unknown,"{u'mday': u'07', u'hour': u'22', u'min': u'00', u'mon': u'08', u'pretty': u'10:00 PM CEST on August 07, 2009', u'year': u'2009', u'tzname': u'Europe/Paris'}",59.0,15.0,0,0,-9999,-9999,73,unknown,METAR LFPB 072000Z AUTO 32007KT 280V360 9999NDV NSC 20/15 Q1020,-9999.00,-9999.00,30.12,1020,0,0,68.0,20.0,0,0,"{u'mday': u'07', u'hour': u'20', u'min': u'00', u'mon': u'08', u'pretty': u'8:00 PM GMT on August 07, 2009', u'year': u'2009', u'tzname': u'UTC'}",6.2,10.0,320,NW,-9999.0,-9999.0,-999,-999,8.1,13.0
47,Scattered Clouds,"{u'mday': u'07', u'hour': u'22', u'min': u'30', u'mon': u'08', u'pretty': u'10:30 PM CEST on August 07, 2009', u'year': u'2009', u'tzname': u'Europe/Paris'}",59.0,15.0,0,0,-9999,-9999,73,partlycloudy,METAR LFPB 072030Z AUTO 34007KT 270V010 9999NDV SCT036 20/15 Q1020,-9999.00,-9999.00,30.12,1020,0,0,68.0,20.0,0,0,"{u'mday': u'07', u'hour': u'20', u'min': u'30', u'mon': u'08', u'pretty': u'8:30 PM GMT on August 07, 2009', u'year': u'2009', u'tzname': u'UTC'}",6.2,10.0,340,NNW,-9999.0,-9999.0,-999,-999,8.1,13.0
48,Mostly Cloudy,"{u'mday': u'07', u'hour': u'23', u'min': u'00', u'mon': u'08', u'pretty': u'11:00 PM CEST on August 07, 2009', u'year': u'2009', u'tzname': u'Europe/Paris'}",59.0,15.0,0,0,-9999,-9999,78,mostlycloudy,METAR LFPB 072100Z AUTO 34006KT 310V010 9999NDV BKN034 19/15 Q1020,-9999.00,-9999.00,30.12,1020,0,0,66.2,19.0,0,0,"{u'mday': u'07', u'hour': u'21', u'min': u'00', u'mon': u'08', u'pretty': u'9:00 PM GMT on August 07, 2009', u'year': u'2009', u'tzname': u'UTC'}",6.2,10.0,340,NNW,-9999.0,-9999.0,-999,-999,6.9,11.1
49,Mostly Cloudy,"{u'mday': u'07', u'hour': u'23', u'min': u'30', u'mon': u'08', u'pretty': u'11:30 PM CEST on August 07, 2009', u'year': u'2009', u'tzname': u'Europe/Paris'}",59.0,15.0,0,0,-9999,-9999,78,mostlycloudy,METAR LFPB 072130Z AUTO 34006KT 290V010 9999NDV BKN034 19/15 Q1021,-9999.00,-9999.00,30.15,1021,0,0,66.2,19.0,0,0,"{u'mday': u'07', u'hour': u'21', u'min': u'30', u'mon': u'08', u'pretty': u'9:30 PM GMT on August 07, 2009', u'year': u'2009', u'tzname': u'UTC'}",6.2,10.0,340,NNW,-9999.0,-9999.0,-999,-999,6.9,11.1
0,Overcast,"{u'mday': u'08', u'hour': u'00', u'min': u'00', u'mon': u'08', u'pretty': u'12:00 AM CEST on August 08, 2009', u'year': u'2009', u'tzname': u'Europe/Paris'}",57.2,14.0,0,0,-9999,-9999,73,cloudy,METAR LFPB 072200Z AUTO 34005KT 290V010 9999NDV OVC031 19/14 Q1021,-9999.00,-9999.00,30.15,1021,0,0,66.2,19.0,0,0,"{u'mday': u'07', u'hour': u'22', u'min': u'00', u'mon': u'08', u'pretty': u'10:00 PM GMT on August 07, 2009', u'year': u'2009', u'tzname': u'UTC'}",6.2,10.0,340,NNW,-9999.0,-9999.0,-999,-999,5.8,9.3
1,Overcast,"{u'mday': u'08', u'hour': u'00', u'min': u'30', u'mon': u'08', u'pretty': u'12:30 AM CEST on August 08, 2009', u'year': u'2009', u'tzname': u'Europe/Paris'}",57.2,14.0,0,0,-9999,-9999,73,cloudy,METAR LFPB 072230Z AUTO 34006KT 300V010 9999NDV OVC028 19/14 Q1021,-9999.00,-9999.00,30.15,1021,0,0,66.2,19.0,0,0,"{u'mday': u'07', u'hour': u'22', u'min': u'30', u'mon': u'08', u'pretty': u'10:30 PM GMT on August 07, 2009', u'year': u'2009', u'tzname': u'UTC'}",6.2,10.0,340,NNW,-9999.0,-9999.0,-999,-999,6.9,11.1
2,Overcast,"{u'mday': u'08', u'hour': u'01', u'min': u'00', u'mon': u'08', u'pretty': u'1:00 AM CEST on August 08, 2009', u'year': u'2009', u'tzname': u'Europe/Paris'}",57.2,14.0,0,0,-9999,-9999,73,cloudy,METAR LFPB 072300Z AUTO 33006KT 290V010 9999NDV OVC026 19/14 Q1021,-9999.00,-9999.00,30.15,1021,0,0,66.2,19.0,0,0,"{u'mday': u'07', u'hour': u'23', u'min': u'00', u'mon': u'08', u'pretty': u'11:00 PM GMT on August 07, 2009', u'year': u'2009', u'tzname': u'UTC'}",6.2,10.0,330,NNW,-9999.0,-9999.0,-999,-999,6.9,11.1
3,Light Rain,"{u'mday': u'08', u'hour': u'01', u'min': u'30', u'mon': u'08', u'pretty': u'1:30 AM CEST on August 08, 2009', u'year': u'2009', u'tzname': u'Europe/Paris'}",59.0,15.0,0,0,-9999,-9999,83,rain,METAR LFPB 072330Z AUTO 35006KT 320V030 9999NDV -RA OVC022 18/15 Q1021,-9999.00,-9999.00,30.15,1021,1,0,64.4,18.0,0,0,"{u'mday': u'07', u'hour': u'23', u'min': u'30', u'mon': u'08', u'pretty': u'11:30 PM GMT on August 07, 2009', u'year': u'2009', u'tzname': u'UTC'}",6.2,10.0,350,North,-9999.0,-9999.0,-999,-999,6.9,11.1
4,Mostly Cloudy,"{u'mday': u'08', u'hour': u'02', u'min': u'00', u'mon': u'08', u'pretty': u'2:00 AM CEST on August 08, 2009', u'year': u'2009', u'tzname': u'Europe/Paris'}",59.0,15.0,0,0,-9999,-9999,83,mostlycloudy,METAR LFPB 080000Z AUTO 34005KT 310V010 9999NDV BKN022 BKN030 18/15 Q1021,-9999.00,-9999.00,30.15,1021,0,0,64.4,18.0,0,0,"{u'mday': u'08', u'hour': u'00', u'min': u'00', u'mon': u'08', u'pretty': u'12:00 AM GMT on August 08, 2009', u'year': u'2009', u'tzname': u'UTC'}",6.2,10.0,340,NNW,-9999.0,-9999.0,-999,-999,5.8,9.3
5,Mostly Cloudy,"{u'mday': u'08', u'hour': u'02', u'min': u'30', u'mon': u'08', u'pretty': u'2:30 AM CEST on August 08, 2009', u'year': u'2009', u'tzname': u'Europe/Paris'}",59.0,15.0,0,0,-9999,-9999,83,mostlycloudy,METAR LFPB 080030Z AUTO 33005KT 290V010 9999NDV SCT020 BKN029 18/15 Q1020,-9999.00,-9999.00,30.12,1020,0,0,64.4,18.0,0,0,"{u'mday': u'08', u'hour': u'00', u'min': u'30', u'mon': u'08', u'pretty': u'12:30 AM GMT on August 08, 2009', u'year': u'2009', u'tzname': u'UTC'}",6.2,10.0,330,NNW,-9999.0,-9999.0,-999,-999,5.8,9.3
6,Mostly Cloudy,"{u'mday': u'08', u'hour': u'03', u'min': u'00', u'mon': u'08', u'pretty': u'3:00 AM CEST on August 08, 2009', u'year': u'2009', u'tzname': u'Europe/Paris'}",59.0,15.0,0,0,-9999,-9999,88,mostlycloudy,METAR LFPB 080100Z AUTO 33004KT 290V020 9999NDV FEW020 BKN029 17/15 Q1020,-9999.00,-9999.00,30.12,1020,0,0,62.6,17.0,0,0,"{u'mday': u'08', u'hour': u'01', u'min': u'00', u'mon': u'08', u'pretty': u'1:00 AM GMT on August 08, 2009', u'year': u'2009', u'tzname': u'UTC'}",6.2,10.0,330,NNW,-9999.0,-9999.0,-999,-999,4.6,7.4
7,Overcast,"{u'mday': u'08', u'hour': u'03', u'min': u'30', u'mon': u'08', u'pretty': u'3:30 AM CEST on August 08, 2009', u'year': u'2009', u'tzname': u'Europe/Paris'}",57.2,14.0,0,0,-9999,-9999,82,cloudy,METAR LFPB 080130Z AUTO 34005KT 300V360 9999NDV OVC029 17/14 Q1020,-9999.00,-9999.00,30.12,1020,0,0,62.6,17.0,0,0,"{u'mday': u'08', u'hour': u'01', u'min': u'30', u'mon': u'08', u'pretty': u'1:30 AM GMT on August 08, 2009', u'year': u'2009', u'tzname': u'UTC'}",6.2,10.0,340,NNW,-9999.0,-9999.0,-999,-999,5.8,9.3
8,Overcast,"{u'mday': u'08', u'hour': u'04', u'min': u'00', u'mon': u'08', u'pretty': u'4:00 AM CEST on August 08, 2009', u'year': u'2009', u'tzname': u'Europe/Paris'}",59.0,15.0,0,0,-9999,-9999,83,cloudy,METAR LFPB 080200Z AUTO 33004KT 290V360 9999NDV BKN016 OVC029 18/15 Q1020,-9999.00,-9999.00,30.12,1020,0,0,64.4,18.0,0,0,"{u'mday': u'08', u'hour': u'02', u'min': u'00', u'mon': u'08', u'pretty': u'2:00 AM GMT on August 08, 2009', u'year': u'2009', u'tzname': u'UTC'}",6.2,10.0,330,NNW,-9999.0,-9999.0,-999,-999,4.6,7.4
9,Overcast,"{u'mday': u'08', u'hour': u'04', u'min': u'30', u'mon': u'08', u'pretty': u'4:30 AM CEST on August 08, 2009', u'year': u'2009', u'tzname': u'Europe/Paris'}",57.2,14.0,0,0,-9999,-9999,82,cloudy,METAR LFPB 080230Z AUTO 31004KT 280V340 9999NDV OVC015 17/14 Q1020,-9999.00,-9999.00,30.12,1020,0,0,62.6,17.0,0,0,"{u'mday': u'08', u'hour': u'02', u'min': u'30', u'mon': u'08', u'pretty': u'2:30 AM GMT on August 08, 2009', u'year': u'2009', u'tzname': u'UTC'}",6.2,10.0,310,NW,-9999.0,-9999.0,-999,-999,4.6,7.4
10,Mostly Cloudy,"{u'mday': u'08', u'hour': u'05', u'min': u'00', u'mon': u'08', u'pretty': u'5:00 AM CEST on August 08, 2009', u'year': u'2009', u'tzname': u'Europe/Paris'}",57.2,14.0,0,0,-9999,-9999,82,mostlycloudy,METAR LFPB 080300Z AUTO 31004KT 270V350 9999NDV BKN015 BKN032 17/14 Q1020,-9999.00,-9999.00,30.12,1020,0,0,62.6,17.0,0,0,"{u'mday': u'08', u'hour': u'03', u'min': u'00', u'mon': u'08', u'pretty': u'3:00 AM GMT on August 08, 2009', u'year': u'2009', u'tzname': u'UTC'}",6.2,10.0,310,NW,-9999.0,-9999.0,-999,-999,4.6,7.4
11,Mostly Cloudy,"{u'mday': u'08', u'hour': u'05', u'min': u'30', u'mon': u'08', u'pretty': u'5:30 AM CEST on August 08, 2009', u'year': u'2009', u'tzname': u'Europe/Paris'}",57.2,14.0,0,0,-9999,-9999,82,mostlycloudy,METAR LFPB 080330Z AUTO VRB02KT 9999NDV BKN014/// BKN032/// 17/14 Q1020,-9999.00,-9999.00,30.12,1020,0,0,62.6,17.0,0,0,"{u'mday': u'08', u'hour': u'03', u'min': u'30', u'mon': u'08', u'pretty': u'3:30 AM GMT on August 08, 2009', u'year': u'2009', u'tzname': u'UTC'}",6.2,10.0,0,Variable,-9999.0,-9999.0,-999,-999,2.3,3.7
12,Mostly Cloudy,"{u'mday': u'08', u'hour': u'06', u'min': u'00', u'mon': u'08', u'pretty': u'6:00 AM CEST on August 08, 2009', u'year': u'2009', u'tzname': u'Europe/Paris'}",57.2,14.0,0,0,-9999,-9999,82,mostlycloudy,METAR LFPB 080400Z AUTO VRB02KT 9999NDV FEW014 SCT023 BKN032 17/14 Q1020,-9999.00,-9999.00,30.12,1020,0,0,62.6,17.0,0,0,"{u'mday': u'08', u'hour': u'04', u'min': u'00', u'mon': u'08', u'pretty': u'4:00 AM GMT on August 08, 2009', u'year': u'2009', u'tzname': u'UTC'}",6.2,10.0,0,Variable,-9999.0,-9999.0,-999,-999,2.3,3.7
13,Mostly Cloudy,"{u'mday': u'08', u'hour': u'06', u'min': u'30', u'mon': u'08', u'pretty': u'6:30 AM CEST on August 08, 2009', u'year': u'2009', u'tzname': u'Europe/Paris'}",57.2,14.0,0,0,-9999,-9999,82,mostlycloudy,METAR LFPB 080430Z 34003KT 300V020 9999 SCT015 BKN033 17/14 Q1020 NOSIG,-9999.00,-9999.00,30.12,1020,0,0,62.6,17.0,0,0,"{u'mday': u'08', u'hour': u'04', u'min': u'30', u'mon': u'08', u'pretty': u'4:30 AM GMT on August 08, 2009', u'year': u'2009', u'tzname': u'UTC'}",6.2,10.0,340,NNW,-9999.0,-9999.0,-999,-999,3.5,5.6
14,Mostly Cloudy,"{u'mday': u'08', u'hour': u'07', u'min': u'00', u'mon': u'08', u'pretty': u'7:00 AM CEST on August 08, 2009', u'year': u'2009', u'tzname': u'Europe/Paris'}",57.2,14.0,0,0,-9999,-9999,82,mostlycloudy,METAR LFPB 080500Z VRB03KT 9999 SCT015 BKN033 17/14 Q1020 NOSIG,-9999.00,-9999.00,30.12,1020,0,0,62.6,17.0,0,0,"{u'mday': u'08', u'hour': u'05', u'min': u'00', u'mon': u'08', u'pretty': u'5:00 AM GMT on August 08, 2009', u'year': u'2009', u'tzname': u'UTC'}",6.2,10.0,0,Variable,-9999.0,-9999.0,-999,-999,3.5,5.6
15,Mostly Cloudy,"{u'mday': u'08', u'hour': u'07', u'min': u'30', u'mon': u'08', u'pretty': u'7:30 AM CEST on August 08, 2009', u'year': u'2009', u'tzname': u'Europe/Paris'}",57.2,14.0,0,0,-9999,-9999,82,mostlycloudy,METAR LFPB 080530Z 31003KT 260V360 9999 FEW015 BKN040 BKN210 17/14 Q1020 NOSIG,-9999.00,-9999.00,30.12,1020,0,0,62.6,17.0,0,0,"{u'mday': u'08', u'hour': u'05', u'min': u'30', u'mon': u'08', u'pretty': u'5:30 AM GMT on August 08, 2009', u'year': u'2009', u'tzname': u'UTC'}",6.2,10.0,310,NW,-9999.0,-9999.0,-999,-999,3.5,5.6
16,Mostly Cloudy,"{u'mday': u'08', u'hour': u'08', u'min': u'00', u'mon': u'08', u'pretty': u'8:00 AM CEST on August 08, 2009', u'year': u'2009', u'tzname': u'Europe/Paris'}",57.2,14.0,0,0,-9999,-9999,82,mostlycloudy,METAR LFPB 080600Z 31005KT 290V350 9999 FEW015 SCT040 BKN100 17/14 Q1020 NOSIG,-9999.00,-9999.00,30.12,1020,0,0,62.6,17.0,0,0,"{u'mday': u'08', u'hour': u'06', u'min': u'00', u'mon': u'08', u'pretty': u'6:00 AM GMT on August 08, 2009', u'year': u'2009', u'tzname': u'UTC'}",6.2,10.0,310,NW,-9999.0,-9999.0,-999,-999,5.8,9.3
17,Mostly Cloudy,"{u'mday': u'08', u'hour': u'08', u'min': u'30', u'mon': u'08', u'pretty': u'8:30 AM CEST on August 08, 2009', u'year': u'2009', u'tzname': u'Europe/Paris'}",57.2,14.0,0,0,-9999,-9999,82,mostlycloudy,METAR LFPB 080630Z 33004KT 280V350 9999 FEW015 BKN049 BKN100 17/14 Q1020 NOSIG,-9999.00,-9999.00,30.12,1020,0,0,62.6,17.0,0,0,"{u'mday': u'08', u'hour': u'06', u'min': u'30', u'mon': u'08', u'pretty': u'6:30 AM GMT on August 08, 2009', u'year': u'2009', u'tzname': u'UTC'}",6.2,10.0,330,NNW,-9999.0,-9999.0,-999,-999,4.6,7.4
18,Mostly Cloudy,"{u'mday': u'08', u'hour': u'09', u'min': u'00', u'mon': u'08', u'pretty': u'9:00 AM CEST on August 08, 2009', u'year': u'2009', u'tzname': u'Europe/Paris'}",59.0,15.0,0,0,-9999,-9999,83,mostlycloudy,METAR LFPB 080700Z 35003KT 300V020 9999 FEW015 BKN049 BKN100 18/15 Q1020 NOSIG,-9999.00,-9999.00,30.12,1020,0,0,64.4,18.0,0,0,"{u'mday': u'08', u'hour': u'07', u'min': u'00', u'mon': u'08', u'pretty': u'7:00 AM GMT on August 08, 2009', u'year': u'2009', u'tzname': u'UTC'}",6.2,10.0,350,North,-9999.0,-9999.0,-999,-999,3.5,5.6
19,Mostly Cloudy,"{u'mday': u'08', u'hour': u'09', u'min': u'30', u'mon': u'08', u'pretty': u'9:30 AM CEST on August 08, 2009', u'year': u'2009', u'tzname': u'Europe/Paris'}",59.0,15.0,0,0,-9999,-9999,83,mostlycloudy,METAR LFPB 080730Z 35005KT 310V010 9999 BKN049 BKN100 18/15 Q1020 NOSIG,-9999.00,-9999.00,30.12,1020,0,0,64.4,18.0,0,0,"{u'mday': u'08', u'hour': u'07', u'min': u'30', u'mon': u'08', u'pretty': u'7:30 AM GMT on August 08, 2009', u'year': u'2009', u'tzname': u'UTC'}",6.2,10.0,350,North,-9999.0,-9999.0,-999,-999,5.8,9.3
20,Mostly Cloudy,"{u'mday': u'08', u'hour': u'10', u'min': u'00', u'mon': u'08', u'pretty': u'10:00 AM CEST on August 08, 2009', u'year': u'2009', u'tzname': u'Europe/Paris'}",59.0,15.0,0,0,-9999,-9999,83,mostlycloudy,METAR LFPB 080800Z 35004KT 320V030 9999 BKN047 BKN060 18/15 Q1020 NOSIG,-9999.00,-9999.00,30.12,1020,0,0,64.4,18.0,0,0,"{u'mday': u'08', u'hour': u'08', u'min': u'00', u'mon': u'08', u'pretty': u'8:00 AM GMT on August 08, 2009', u'year': u'2009', u'tzname': u'UTC'}",6.2,10.0,350,North,-9999.0,-9999.0,-999,-999,4.6,7.4
21,Mostly Cloudy,"{u'mday': u'08', u'hour': u'10', u'min': u'30', u'mon': u'08', u'pretty': u'10:30 AM CEST on August 08, 2009', u'year': u'2009', u'tzname': u'Europe/Paris'}",60.8,16.0,0,0,-9999,-9999,78,mostlycloudy,METAR LFPB 080830Z 03004KT 320V070 9999 BKN049 BKN060 20/16 Q1020 NOSIG,-9999.00,-9999.00,30.12,1020,0,0,68.0,20.0,0,0,"{u'mday': u'08', u'hour': u'08', u'min': u'30', u'mon': u'08', u'pretty': u'8:30 AM GMT on August 08, 2009', u'year': u'2009', u'tzname': u'UTC'}",6.2,10.0,30,NNE,-9999.0,-9999.0,-999,-999,4.6,7.4
22,Mostly Cloudy,"{u'mday': u'08', u'hour': u'11', u'min': u'00', u'mon': u'08', u'pretty': u'11:00 AM CEST on August 08, 2009', u'year': u'2009', u'tzname': u'Europe/Paris'}",59.0,15.0,0,0,-9999,-9999,73,mostlycloudy,METAR LFPB 080900Z 01004KT 310V060 9999 FEW015 SCT048 BKN070 20/15 Q1020 NOSIG,-9999.00,-9999.00,30.12,1020,0,0,68.0,20.0,0,0,"{u'mday': u'08', u'hour': u'09', u'min': u'00', u'mon': u'08', u'pretty': u'9:00 AM GMT on August 08, 2009', u'year': u'2009', u'tzname': u'UTC'}",6.2,10.0,10,North,-9999.0,-9999.0,-999,-999,4.6,7.4
23,Mostly Cloudy,"{u'mday': u'08', u'hour': u'11', u'min': u'30', u'mon': u'08', u'pretty': u'11:30 AM CEST on August 08, 2009', u'year': u'2009', u'tzname': u'Europe/Paris'}",59.0,15.0,0,0,-9999,-9999,73,mostlycloudy,METAR LFPB 080930Z 32003KT 270V020 9999 FEW015 SCT048 BKN070 20/15 Q1020 NOSIG,-9999.00,-9999.00,30.12,1020,0,0,68.0,20.0,0,0,"{u'mday': u'08', u'hour': u'09', u'min': u'30', u'mon': u'08', u'pretty': u'9:30 AM GMT on August 08, 2009', u'year': u'2009', u'tzname': u'UTC'}",6.2,10.0,320,NW,-9999.0,-9999.0,-999,-999,3.5,5.6
24,Mostly Cloudy,"{u'mday': u'08', u'hour': u'12', u'min': u'00', u'mon': u'08', u'pretty': u'12:00 PM CEST on August 08, 2009', u'year': u'2009', u'tzname': u'Europe/Paris'}",59.0,15.0,0,0,-9999,-9999,68,mostlycloudy,METAR LFPB 081000Z VRB03KT 9999 FEW015 SCT048 BKN070 21/15 Q1020 NOSIG,-9999.00,-9999.00,30.12,1020,0,0,69.8,21.0,0,0,"{u'mday': u'08', u'hour': u'10', u'min': u'00', u'mon': u'08', u'pretty': u'10:00 AM GMT on August 08, 2009', u'year': u'2009', u'tzname': u'UTC'}",6.2,10.0,0,Variable,-9999.0,-9999.0,-999,-999,3.5,5.6
25,Mostly Cloudy,"{u'mday': u'08', u'hour': u'12', u'min': u'30', u'mon': u'08', u'pretty': u'12:30 PM CEST on August 08, 2009', u'year': u'2009', u'tzname': u'Europe/Paris'}",60.8,16.0,0,0,-9999,-9999,69,mostlycloudy,METAR LFPB 081030Z 33004KT 270V020 9999 FEW020 BKN070 22/16 Q1020 NOSIG,-9999.00,-9999.00,30.12,1020,0,0,71.6,22.0,0,0,"{u'mday': u'08', u'hour': u'10', u'min': u'30', u'mon': u'08', u'pretty': u'10:30 AM GMT on August 08, 2009', u'year': u'2009', u'tzname': u'UTC'}",6.2,10.0,330,NNW,-9999.0,-9999.0,-999,-999,4.6,7.4
26,Mostly Cloudy,"{u'mday': u'08', u'hour': u'13', u'min': u'00', u'mon': u'08', u'pretty': u'1:00 PM CEST on August 08, 2009', u'year': u'2009', u'tzname': u'Europe/Paris'}",60.8,16.0,0,0,-9999,-9999,69,mostlycloudy,METAR LFPB 081100Z 31004KT 270V010 9999 FEW020 BKN070 22/16 Q1020 NOSIG,-9999.00,-9999.00,30.12,1020,0,0,71.6,22.0,0,0,"{u'mday': u'08', u'hour': u'11', u'min': u'00', u'mon': u'08', u'pretty': u'11:00 AM GMT on August 08, 2009', u'year': u'2009', u'tzname': u'UTC'}",6.2,10.0,310,NW,-9999.0,-9999.0,-999,-999,4.6,7.4
27,Mostly Cloudy,"{u'mday': u'08', u'hour': u'13', u'min': u'49', u'mon': u'08', u'pretty': u'1:49 PM CEST on August 08, 2009', u'year': u'2009', u'tzname': u'Europe/Paris'}",60.8,16.0,0,0,-9999,-9999,65,mostlycloudy,METAR LFPB 081149Z 32004KT 260V010 9999 FEW020 BKN070 23/16 Q1020 NOSIG,-9999.00,-9999.00,30.12,1020,0,0,73.4,23.0,0,0,"{u'mday': u'08', u'hour': u'11', u'min': u'49', u'mon': u'08', u'pretty': u'11:49 AM GMT on August 08, 2009', u'year': u'2009', u'tzname': u'UTC'}",6.2,10.0,320,NW,-9999.0,-9999.0,-999,-999,4.6,7.4
28,Mostly Cloudy,"{u'mday': u'08', u'hour': u'14', u'min': u'00', u'mon': u'08', u'pretty': u'2:00 PM CEST on August 08, 2009', u'year': u'2009', u'tzname': u'Europe/Paris'}",59.0,15.0,0,0,-9999,-9999,61,mostlycloudy,METAR LFPB 081200Z 31005KT 250V020 9999 FEW020 BKN070 23/15 Q1019 NOSIG,-9999.00,-9999.00,30.09,1019,0,0,73.4,23.0,0,0,"{u'mday': u'08', u'hour': u'12', u'min': u'00', u'mon': u'08', u'pretty': u'12:00 PM GMT on August 08, 2009', u'year': u'2009', u'tzname': u'UTC'}",6.2,10.0,310,NW,-9999.0,-9999.0,-999,-999,5.8,9.3
29,Mostly Cloudy,"{u'mday': u'08', u'hour': u'14', u'min': u'30', u'mon': u'08', u'pretty': u'2:30 PM CEST on August 08, 2009', u'year': u'2009', u'tzname': u'Europe/Paris'}",57.2,14.0,0,0,-9999,-9999,57,mostlycloudy,METAR LFPB 081230Z 36004KT 240V050 9999 SCT032 BKN070 23/14 Q1019 NOSIG,-9999.00,-9999.00,30.09,1019,0,0,73.4,23.0,0,0,"{u'mday': u'08', u'hour': u'12', u'min': u'30', u'mon': u'08', u'pretty': u'12:30 PM GMT on August 08, 2009', u'year': u'2009', u'tzname': u'UTC'}",6.2,10.0,360,North,-9999.0,-9999.0,-999,-999,4.6,7.4
30,Overcast,"{u'mday': u'08', u'hour': u'15', u'min': u'00', u'mon': u'08', u'pretty': u'3:00 PM CEST on August 08, 2009', u'year': u'2009', u'tzname': u'Europe/Paris'}",59.0,15.0,0,0,-9999,-9999,61,cloudy,METAR LFPB 081300Z VRB02KT 9999 SCT036 OVC070 23/15 Q1019 NOSIG,-9999.00,-9999.00,30.09,1019,0,0,73.4,23.0,0,0,"{u'mday': u'08', u'hour': u'13', u'min': u'00', u'mon': u'08', u'pretty': u'1:00 PM GMT on August 08, 2009', u'year': u'2009', u'tzname': u'UTC'}",6.2,10.0,0,Variable,-9999.0,-9999.0,-999,-999,2.3,3.7
31,Overcast,"{u'mday': u'08', u'hour': u'15', u'min': u'30', u'mon': u'08', u'pretty': u'3:30 PM CEST on August 08, 2009', u'year': u'2009', u'tzname': u'Europe/Paris'}",59.0,15.0,0,0,-9999,-9999,61,cloudy,METAR LFPB 081330Z VRB02KT 9999 BKN036 OVC070 23/15 Q1019 NOSIG,-9999.00,-9999.00,30.09,1019,0,0,73.4,23.0,0,0,"{u'mday': u'08', u'hour': u'13', u'min': u'30', u'mon': u'08', u'pretty': u'1:30 PM GMT on August 08, 2009', u'year': u'2009', u'tzname': u'UTC'}",6.2,10.0,0,Variable,-9999.0,-9999.0,-999,-999,2.3,3.7
32,Overcast,"{u'mday': u'08', u'hour': u'16', u'min': u'00', u'mon': u'08', u'pretty': u'4:00 PM CEST on August 08, 2009', u'year': u'2009', u'tzname': u'Europe/Paris'}",59.0,15.0,0,0,-9999,-9999,61,cloudy,METAR LFPB 081400Z VRB01KT 9999 FEW036 BKN070 OVC120 23/15 Q1019 NOSIG,-9999.00,-9999.00,30.09,1019,0,0,73.4,23.0,0,0,"{u'mday': u'08', u'hour': u'14', u'min': u'00', u'mon': u'08', u'pretty': u'2:00 PM GMT on August 08, 2009', u'year': u'2009', u'tzname': u'UTC'}",6.2,10.0,0,Variable,-9999.0,-9999.0,-999,-999,1.2,1.9
33,Overcast,"{u'mday': u'08', u'hour': u'16', u'min': u'30', u'mon': u'08', u'pretty': u'4:30 PM CEST on August 08, 2009', u'year': u'2009', u'tzname': u'Europe/Paris'}",59.0,15.0,0,0,-9999,-9999,61,cloudy,METAR LFPB 081430Z 36003KT 310V040 9999 FEW038 BKN070 OVC120 23/15 Q1019 NOSIG,-9999.00,-9999.00,30.09,1019,0,0,73.4,23.0,0,0,"{u'mday': u'08', u'hour': u'14', u'min': u'30', u'mon': u'08', u'pretty': u'2:30 PM GMT on August 08, 2009', u'year': u'2009', u'tzname': u'UTC'}",6.2,10.0,360,North,-9999.0,-9999.0,-999,-999,3.5,5.6
34,Overcast,"{u'mday': u'08', u'hour': u'17', u'min': u'00', u'mon': u'08', u'pretty': u'5:00 PM CEST on August 08, 2009', u'year': u'2009', u'tzname': u'Europe/Paris'}",57.2,14.0,0,0,-9999,-9999,57,cloudy,METAR LFPB 081500Z 35004KT 9999 FEW038 SCT070 OVC120 23/14 Q1019 NOSIG,-9999.00,-9999.00,30.09,1019,0,0,73.4,23.0,0,0,"{u'mday': u'08', u'hour': u'15', u'min': u'00', u'mon': u'08', u'pretty': u'3:00 PM GMT on August 08, 2009', u'year': u'2009', u'tzname': u'UTC'}",6.2,10.0,350,North,-9999.0,-9999.0,-999,-999,4.6,7.4
35,Overcast,"{u'mday': u'08', u'hour': u'17', u'min': u'30', u'mon': u'08', u'pretty': u'5:30 PM CEST on August 08, 2009', u'year': u'2009', u'tzname': u'Europe/Paris'}",57.2,14.0,0,0,-9999,-9999,57,cloudy,METAR LFPB 081530Z 33004KT 290V360 9999 FEW038 SCT070 OVC120 23/14 Q1019 NOSIG,-9999.00,-9999.00,30.09,1019,0,0,73.4,23.0,0,0,"{u'mday': u'08', u'hour': u'15', u'min': u'30', u'mon': u'08', u'pretty': u'3:30 PM GMT on August 08, 2009', u'year': u'2009', u'tzname': u'UTC'}",6.2,10.0,330,NNW,-9999.0,-9999.0,-999,-999,4.6,7.4
36,Mostly Cloudy,"{u'mday': u'08', u'hour': u'18', u'min': u'00', u'mon': u'08', u'pretty': u'6:00 PM CEST on August 08, 2009', u'year': u'2009', u'tzname': u'Europe/Paris'}",57.2,14.0,0,0,-9999,-9999,53,mostlycloudy,METAR LFPB 081600Z 33003KT 270V010 9999 FEW038 SCT070 BKN120 24/14 Q1018 NOSIG,-9999.00,-9999.00,30.06,1018,0,0,75.2,24.0,0,0,"{u'mday': u'08', u'hour': u'16', u'min': u'00', u'mon': u'08', u'pretty': u'4:00 PM GMT on August 08, 2009', u'year': u'2009', u'tzname': u'UTC'}",6.2,10.0,330,NNW,-9999.0,-9999.0,-999,-999,3.5,5.6
37,Mostly Cloudy,"{u'mday': u'08', u'hour': u'18', u'min': u'30', u'mon': u'08', u'pretty': u'6:30 PM CEST on August 08, 2009', u'year': u'2009', u'tzname': u'Europe/Paris'}",57.2,14.0,0,0,-9999,-9999,53,mostlycloudy,METAR LFPB 081630Z 01004KT 310V050 9999 FEW038 SCT070 BKN120 24/14 Q1018 NOSIG,-9999.00,-9999.00,30.06,1018,0,0,75.2,24.0,0,0,"{u'mday': u'08', u'hour': u'16', u'min': u'30', u'mon': u'08', u'pretty': u'4:30 PM GMT on August 08, 2009', u'year': u'2009', u'tzname': u'UTC'}",6.2,10.0,10,North,-9999.0,-9999.0,-999,-999,4.6,7.4
38,Unknown,"{u'mday': u'08', u'hour': u'19', u'min': u'00', u'mon': u'08', u'pretty': u'7:00 PM CEST on August 08, 2009', u'year': u'2009', u'tzname': u'Europe/Paris'}",57.2,14.0,0,0,-9999,-9999,57,unknown,METAR LFPB 081700Z AUTO 36004KT 320V030 9999NDV NSC 23/14 Q1018,-9999.00,-9999.00,30.06,1018,0,0,73.4,23.0,0,0,"{u'mday': u'08', u'hour': u'17', u'min': u'00', u'mon': u'08', u'pretty': u'5:00 PM GMT on August 08, 2009', u'year': u'2009', u'tzname': u'UTC'}",6.2,10.0,360,North,-9999.0,-9999.0,-999,-999,4.6,7.4
39,Unknown,"{u'mday': u'08', u'hour': u'19', u'min': u'30', u'mon': u'08', u'pretty': u'7:30 PM CEST on August 08, 2009', u'year': u'2009', u'tzname': u'Europe/Paris'}",57.2,14.0,0,0,-9999,-9999,57,unknown,METAR LFPB 081730Z AUTO 02004KT 9999NDV NSC 23/14 Q1018,-9999.00,-9999.00,30.06,1018,0,0,73.4,23.0,0,0,"{u'mday': u'08', u'hour': u'17', u'min': u'30', u'mon': u'08', u'pretty': u'5:30 PM GMT on August 08, 2009', u'year': u'2009', u'tzname': u'UTC'}",6.2,10.0,20,NNE,-9999.0,-9999.0,-999,-999,4.6,7.4
40,Unknown,"{u'mday': u'08', u'hour': u'20', u'min': u'00', u'mon': u'08', u'pretty': u'8:00 PM CEST on August 08, 2009', u'year': u'2009', u'tzname': u'Europe/Paris'}",57.2,14.0,0,0,-9999,-9999,57,unknown,METAR LFPB 081800Z AUTO 01003KT 340V050 9999NDV NSC 23/14 Q1018,-9999.00,-9999.00,30.06,1018,0,0,73.4,23.0,0,0,"{u'mday': u'08', u'hour': u'18', u'min': u'00', u'mon': u'08', u'pretty': u'6:00 PM GMT on August 08, 2009', u'year': u'2009', u'tzname': u'UTC'}",6.2,10.0,10,North,-9999.0,-9999.0,-999,-999,3.5,5.6
41,Unknown,"{u'mday': u'08', u'hour': u'20', u'min': u'30', u'mon': u'08', u'pretty': u'8:30 PM CEST on August 08, 2009', u'year': u'2009', u'tzname': u'Europe/Paris'}",57.2,14.0,0,0,-9999,-9999,57,unknown,METAR LFPB 081830Z AUTO 01003KT 350V050 9999NDV NSC 23/14 Q1018,-9999.00,-9999.00,30.06,1018,0,0,73.4,23.0,0,0,"{u'mday': u'08', u'hour': u'18', u'min': u'30', u'mon': u'08', u'pretty': u'6:30 PM GMT on August 08, 2009', u'year': u'2009', u'tzname': u'UTC'}",6.2,10.0,10,North,-9999.0,-9999.0,-999,-999,3.5,5.6
42,Unknown,"{u'mday': u'08', u'hour': u'21', u'min': u'00', u'mon': u'08', u'pretty': u'9:00 PM CEST on August 08, 2009', u'year': u'2009', u'tzname': u'Europe/Paris'}",57.2,14.0,0,0,-9999,-9999,57,unknown,METAR LFPB 081900Z AUTO VRB02KT 9999NDV NSC 23/14 Q1018,-9999.00,-9999.00,30.06,1018,0,0,73.4,23.0,0,0,"{u'mday': u'08', u'hour': u'19', u'min': u'00', u'mon': u'08', u'pretty': u'7:00 PM GMT on August 08, 2009', u'year': u'2009', u'tzname': u'UTC'}",6.2,10.0,0,Variable,-9999.0,-9999.0,-999,-999,2.3,3.7
43,Unknown,"{u'mday': u'08', u'hour': u'21', u'min': u'30', u'mon': u'08', u'pretty': u'9:30 PM CEST on August 08, 2009', u'year': u'2009', u'tzname': u'Europe/Paris'}",57.2,14.0,0,0,-9999,-9999,57,unknown,METAR LFPB 081930Z AUTO 02004KT 9999NDV NSC 23/14 Q1018,-9999.00,-9999.00,30.06,1018,0,0,73.4,23.0,0,0,"{u'mday': u'08', u'hour': u'19', u'min': u'30', u'mon': u'08', u'pretty': u'7:30 PM GMT on August 08, 2009', u'year': u'2009', u'tzname': u'UTC'}",6.2,10.0,20,NNE,-9999.0,-9999.0,-999,-999,4.6,7.4
44,Unknown,"{u'mday': u'08', u'hour': u'22', u'min': u'00', u'mon': u'08', u'pretty': u'10:00 PM CEST on August 08, 2009', u'year': u'2009', u'tzname': u'Europe/Paris'}",57.2,14.0,0,0,-9999,-9999,60,unknown,METAR LFPB 082000Z AUTO 02003KT 9999NDV NSC 22/14 Q1018,-9999.00,-9999.00,30.06,1018,0,0,71.6,22.0,0,0,"{u'mday': u'08', u'hour': u'20', u'min': u'00', u'mon': u'08', u'pretty': u'8:00 PM GMT on August 08, 2009', u'year': u'2009', u'tzname': u'UTC'}",6.2,10.0,20,NNE,-9999.0,-9999.0,-999,-999,3.5,5.6
45,Unknown,"{u'mday': u'08', u'hour': u'22', u'min': u'30', u'mon': u'08', u'pretty': u'10:30 PM CEST on August 08, 2009', u'year': u'2009', u'tzname': u'Europe/Paris'}",57.2,14.0,0,0,-9999,-9999,60,unknown,METAR LFPB 082030Z AUTO 35003KT 9999NDV NSC 22/14 Q1018,-9999.00,-9999.00,30.06,1018,0,0,71.6,22.0,0,0,"{u'mday': u'08', u'hour': u'20', u'min': u'30', u'mon': u'08', u'pretty': u'8:30 PM GMT on August 08, 2009', u'year': u'2009', u'tzname': u'UTC'}",6.2,10.0,350,North,-9999.0,-9999.0,-999,-999,3.5,5.6
46,Unknown,"{u'mday': u'08', u'hour': u'23', u'min': u'00', u'mon': u'08', u'pretty': u'11:00 PM CEST on August 08, 2009', u'year': u'2009', u'tzname': u'Europe/Paris'}",57.2,14.0,0,0,-9999,-9999,60,unknown,METAR LFPB 082100Z AUTO 01003KT 9999NDV NSC 22/14 Q1018,-9999.00,-9999.00,30.06,1018,0,0,71.6,22.0,0,0,"{u'mday': u'08', u'hour': u'21', u'min': u'00', u'mon': u'08', u'pretty': u'9:00 PM GMT on August 08, 2009', u'year': u'2009', u'tzname': u'UTC'}",6.2,10.0,10,North,-9999.0,-9999.0,-999,-999,3.5,5.6
47,Unknown,"{u'mday': u'08', u'hour': u'23', u'min': u'30', u'mon': u'08', u'pretty': u'11:30 PM CEST on August 08, 2009', u'year': u'2009', u'tzname': u'Europe/Paris'}",57.2,14.0,0,0,-9999,-9999,64,unknown,METAR LFPB 082130Z AUTO 01003KT 9999NDV NSC 21/14 Q1018,-9999.00,-9999.00,30.06,1018,0,0,69.8,21.0,0,0,"{u'mday': u'08', u'hour': u'21', u'min': u'30', u'mon': u'08', u'pretty': u'9:30 PM GMT on August 08, 2009', u'year': u'2009', u'tzname': u'UTC'}",6.2,10.0,10,North,-9999.0,-9999.0,-999,-999,3.5,5.6
0,Unknown,"{u'mday': u'09', u'hour': u'00', u'min': u'00', u'mon': u'08', u'pretty': u'12:00 AM CEST on August 09, 2009', u'year': u'2009', u'tzname': u'Europe/Paris'}",57.2,14.0,0,0,-9999,-9999,64,unknown,METAR LFPB 082200Z AUTO 02005KT 9999NDV NSC 21/14 Q1018,-9999.00,-9999.00,30.06,1018,0,0,69.8,21.0,0,0,"{u'mday': u'08', u'hour': u'22', u'min': u'00', u'mon': u'08', u'pretty': u'10:00 PM GMT on August 08, 2009', u'year': u'2009', u'tzname': u'UTC'}",6.2,10.0,20,NNE,-9999.0,-9999.0,-999,-999,5.8,9.3
1,Unknown,"{u'mday': u'09', u'hour': u'00', u'min': u'30', u'mon': u'08', u'pretty': u'12:30 AM CEST on August 09, 2009', u'year': u'2009', u'tzname': u'Europe/Paris'}",57.2,14.0,0,0,-9999,-9999,64,unknown,METAR LFPB 082230Z AUTO 02004KT 340V040 9999NDV NSC 21/14 Q1018,-9999.00,-9999.00,30.06,1018,0,0,69.8,21.0,0,0,"{u'mday': u'08', u'hour': u'22', u'min': u'30', u'mon': u'08', u'pretty': u'10:30 PM GMT on August 08, 2009', u'year': u'2009', u'tzname': u'UTC'}",6.2,10.0,20,NNE,-9999.0,-9999.0,-999,-999,4.6,7.4
2,Unknown,"{u'mday': u'09', u'hour': u'01', u'min': u'00', u'mon': u'08', u'pretty': u'1:00 AM CEST on August 09, 2009', u'year': u'2009', u'tzname': u'Europe/Paris'}",57.2,14.0,0,0,-9999,-9999,64,unknown,METAR LFPB 082300Z AUTO 03006KT 9999NDV NSC 21/14 Q1018,-9999.00,-9999.00,30.06,1018,0,0,69.8,21.0,0,0,"{u'mday': u'08', u'hour': u'23', u'min': u'00', u'mon': u'08', u'pretty': u'11:00 PM GMT on August 08, 2009', u'year': u'2009', u'tzname': u'UTC'}",6.2,10.0,30,NNE,-9999.0,-9999.0,-999,-999,6.9,11.1
3,Unknown,"{u'mday': u'09', u'hour': u'01', u'min': u'30', u'mon': u'08', u'pretty': u'1:30 AM CEST on August 09, 2009', u'year': u'2009', u'tzname': u'Europe/Paris'}",57.2,14.0,0,0,-9999,-9999,64,unknown,METAR LFPB 082330Z AUTO 02005KT 9999NDV NSC 21/14 Q1018,-9999.00,-9999.00,30.06,1018,0,0,69.8,21.0,0,0,"{u'mday': u'08', u'hour': u'23', u'min': u'30', u'mon': u'08', u'pretty': u'11:30 PM GMT on August 08, 2009', u'year': u'2009', u'tzname': u'UTC'}",6.2,10.0,20,NNE,-9999.0,-9999.0,-999,-999,5.8,9.3
4,Unknown,"{u'mday': u'09', u'hour': u'02', u'min': u'00', u'mon': u'08', u'pretty': u'2:00 AM CEST on August 09, 2009', u'year': u'2009', u'tzname': u'Europe/Paris'}",55.4,13.0,0,0,-9999,-9999,60,unknown,METAR LFPB 090000Z AUTO 03006KT 9999NDV NSC 21/13 Q1018,-9999.00,-9999.00,30.06,1018,0,0,69.8,21.0,0,0,"{u'mday': u'09', u'hour': u'00', u'min': u'00', u'mon': u'08', u'pretty': u'12:00 AM GMT on August 09, 2009', u'year': u'2009', u'tzname': u'UTC'}",6.2,10.0,30,NNE,-9999.0,-9999.0,-999,-999,6.9,11.1
5,Unknown,"{u'mday': u'09', u'hour': u'02', u'min': u'30', u'mon': u'08', u'pretty': u'2:30 AM CEST on August 09, 2009', u'year': u'2009', u'tzname': u'Europe/Paris'}",57.2,14.0,0,0,-9999,-9999,68,unknown,METAR LFPB 090030Z AUTO 03005KT 9999NDV NSC 20/14 Q1018,-9999.00,-9999.00,30.06,1018,0,0,68.0,20.0,0,0,"{u'mday': u'09', u'hour': u'00', u'min': u'30', u'mon': u'08', u'pretty': u'12:30 AM GMT on August 09, 2009', u'year': u'2009', u'tzname': u'UTC'}",6.2,10.0,30,NNE,-9999.0,-9999.0,-999,-999,5.8,9.3
6,Mist,"{u'mday': u'09', u'hour': u'03', u'min': u'00', u'mon': u'08', u'pretty': u'3:00 AM CEST on August 09, 2009', u'year': u'2009', u'tzname': u'Europe/Paris'}",55.4,13.0,0,0,-9999,-9999,64,hazy,METAR LFPB 090100Z AUTO 03005KT 9999 4200NDV BR NSC 20/13 Q1018,-9999.00,-9999.00,30.06,1018,0,0,68.0,20.0,0,0,"{u'mday': u'09', u'hour': u'01', u'min': u'00', u'mon': u'08', u'pretty': u'1:00 AM GMT on August 09, 2009', u'year': u'2009', u'tzname': u'UTC'}",6.2,10.0,30,NNE,-9999.0,-9999.0,-999,-999,5.8,9.3
7,Unknown,"{u'mday': u'09', u'hour': u'03', u'min': u'30', u'mon': u'08', u'pretty': u'3:30 AM CEST on August 09, 2009', u'year': u'2009', u'tzname': u'Europe/Paris'}",55.4,13.0,0,0,-9999,-9999,68,unknown,METAR LFPB 090130Z AUTO 03006KT 9999NDV NSC 19/13 Q1018,-9999.00,-9999.00,30.06,1018,0,0,66.2,19.0,0,0,"{u'mday': u'09', u'hour': u'01', u'min': u'30', u'mon': u'08', u'pretty': u'1:30 AM GMT on August 09, 2009', u'year': u'2009', u'tzname': u'UTC'}",6.2,10.0,30,NNE,-9999.0,-9999.0,-999,-999,6.9,11.1
8,Unknown,"{u'mday': u'09', u'hour': u'04', u'min': u'00', u'mon': u'08', u'pretty': u'4:00 AM CEST on August 09, 2009', u'year': u'2009', u'tzname': u'Europe/Paris'}",55.4,13.0,0,0,-9999,-9999,68,unknown,METAR LFPB 090200Z AUTO 02006KT 9999NDV NSC 19/13 Q1018,-9999.00,-9999.00,30.06,1018,0,0,66.2,19.0,0,0,"{u'mday': u'09', u'hour': u'02', u'min': u'00', u'mon': u'08', u'pretty': u'2:00 AM GMT on August 09, 2009', u'year': u'2009', u'tzname': u'UTC'}",6.2,10.0,20,NNE,-9999.0,-9999.0,-999,-999,6.9,11.1
9,Unknown,"{u'mday': u'09', u'hour': u'04', u'min': u'30', u'mon': u'08', u'pretty': u'4:30 AM CEST on August 09, 2009', u'year': u'2009', u'tzname': u'Europe/Paris'}",55.4,13.0,0,0,-9999,-9999,68,unknown,METAR LFPB 090230Z AUTO 02006KT 9999NDV NSC 19/13 Q1018,-9999.00,-9999.00,30.06,1018,0,0,66.2,19.0,0,0,"{u'mday': u'09', u'hour': u'02', u'min': u'30', u'mon': u'08', u'pretty': u'2:30 AM GMT on August 09, 2009', u'year': u'2009', u'tzname': u'UTC'}",6.2,10.0,20,NNE,-9999.0,-9999.0,-999,-999,6.9,11.1
10,Unknown,"{u'mday': u'09', u'hour': u'05', u'min': u'00', u'mon': u'08', u'pretty': u'5:00 AM CEST on August 09, 2009', u'year': u'2009', u'tzname': u'Europe/Paris'}",55.4,13.0,0,0,-9999,-9999,68,unknown,METAR LFPB 090300Z AUTO 03006KT 9999NDV NSC 19/13 Q1018,-9999.00,-9999.00,30.06,1018,0,0,66.2,19.0,0,0,"{u'mday': u'09', u'hour': u'03', u'min': u'00', u'mon': u'08', u'pretty': u'3:00 AM GMT on August 09, 2009', u'year': u'2009', u'tzname': u'UTC'}",6.2,10.0,30,NNE,-9999.0,-9999.0,-999,-999,6.9,11.1
11,Unknown,"{u'mday': u'09', u'hour': u'05', u'min': u'30', u'mon': u'08', u'pretty': u'5:30 AM CEST on August 09, 2009', u'year': u'2009', u'tzname': u'Europe/Paris'}",55.4,13.0,0,0,-9999,-9999,68,unknown,METAR LFPB 090330Z AUTO 03005KT 360V060 9999NDV NCD 19/13 Q1018,-9999.00,-9999.00,30.06,1018,0,0,66.2,19.0,0,0,"{u'mday': u'09', u'hour': u'03', u'min': u'30', u'mon': u'08', u'pretty': u'3:30 AM GMT on August 09, 2009', u'year': u'2009', u'tzname': u'UTC'}",6.2,10.0,30,NNE,-9999.0,-9999.0,-999,-999,5.8,9.3
12,Unknown,"{u'mday': u'09', u'hour': u'06', u'min': u'00', u'mon': u'08', u'pretty': u'6:00 AM CEST on August 09, 2009', u'year': u'2009', u'tzname': u'Europe/Paris'}",55.4,13.0,0,0,-9999,-9999,73,unknown,METAR LFPB 090400Z AUTO 03005KT 9999NDV NSC 18/13 Q1018,-9999.00,-9999.00,30.06,1018,0,0,64.4,18.0,0,0,"{u'mday': u'09', u'hour': u'04', u'min': u'00', u'mon': u'08', u'pretty': u'4:00 AM GMT on August 09, 2009', u'year': u'2009', u'tzname': u'UTC'}",6.2,10.0,30,NNE,-9999.0,-9999.0,-999,-999,5.8,9.3
13,Clear,"{u'mday': u'09', u'hour': u'06', u'min': u'30', u'mon': u'08', u'pretty': u'6:30 AM CEST on August 09, 2009', u'year': u'2009', u'tzname': u'Europe/Paris'}",55.4,13.0,0,0,-9999,-9999,73,clear,METAR LFPB 090430Z 02004KT 340V060 CAVOK 18/13 Q1018,-9999.00,-9999.00,30.06,1018,0,0,64.4,18.0,0,0,"{u'mday': u'09', u'hour': u'04', u'min': u'30', u'mon': u'08', u'pretty': u'4:30 AM GMT on August 09, 2009', u'year': u'2009', u'tzname': u'UTC'}",-9999.0,-9999.0,20,NNE,-9999.0,-9999.0,-999,-999,4.6,7.4
14,Clear,"{u'mday': u'09', u'hour': u'07', u'min': u'00', u'mon': u'08', u'pretty': u'7:00 AM CEST on August 09, 2009', u'year': u'2009', u'tzname': u'Europe/Paris'}",55.4,13.0,0,0,-9999,-9999,73,clear,METAR LFPB 090500Z 02003KT 350V060 CAVOK 18/13 Q1018 NOSIG,-9999.00,-9999.00,30.06,1018,0,0,64.4,18.0,0,0,"{u'mday': u'09', u'hour': u'05', u'min': u'00', u'mon': u'08', u'pretty': u'5:00 AM GMT on August 09, 2009', u'year': u'2009', u'tzname': u'UTC'}",-9999.0,-9999.0,20,NNE,-9999.0,-9999.0,-999,-999,3.5,5.6
15,Clear,"{u'mday': u'09', u'hour': u'07', u'min': u'30', u'mon': u'08', u'pretty': u'7:30 AM CEST on August 09, 2009', u'year': u'2009', u'tzname': u'Europe/Paris'}",55.4,13.0,0,0,-9999,-9999,73,clear,METAR LFPB 090530Z 04003KT CAVOK 18/13 Q1018 NOSIG,-9999.00,-9999.00,30.06,1018,0,0,64.4,18.0,0,0,"{u'mday': u'09', u'hour': u'05', u'min': u'30', u'mon': u'08', u'pretty': u'5:30 AM GMT on August 09, 2009', u'year': u'2009', u'tzname': u'UTC'}",-9999.0,-9999.0,40,NE,-9999.0,-9999.0,-999,-999,3.5,5.6
16,Clear,"{u'mday': u'09', u'hour': u'08', u'min': u'00', u'mon': u'08', u'pretty': u'8:00 AM CEST on August 09, 2009', u'year': u'2009', u'tzname': u'Europe/Paris'}",57.2,14.0,0,0,-9999,-9999,77,clear,METAR LFPB 090600Z 04005KT CAVOK 18/14 Q1018 NOSIG,-9999.00,-9999.00,30.06,1018,0,0,64.4,18.0,0,0,"{u'mday': u'09', u'hour': u'06', u'min': u'00', u'mon': u'08', u'pretty': u'6:00 AM GMT on August 09, 2009', u'year': u'2009', u'tzname': u'UTC'}",-9999.0,-9999.0,40,NE,-9999.0,-9999.0,-999,-999,5.8,9.3
17,Clear,"{u'mday': u'09', u'hour': u'08', u'min': u'30', u'mon': u'08', u'pretty': u'8:30 AM CEST on August 09, 2009', u'year': u'2009', u'tzname': u'Europe/Paris'}",57.2,14.0,0,0,-9999,-9999,77,clear,METAR LFPB 090630Z 04006KT CAVOK 18/14 Q1018 NOSIG,-9999.00,-9999.00,30.06,1018,0,0,64.4,18.0,0,0,"{u'mday': u'09', u'hour': u'06', u'min': u'30', u'mon': u'08', u'pretty': u'6:30 AM GMT on August 09, 2009', u'year': u'2009', u'tzname': u'UTC'}",-9999.0,-9999.0,40,NE,-9999.0,-9999.0,-999,-999,6.9,11.1
18,Clear,"{u'mday': u'09', u'hour': u'09', u'min': u'00', u'mon': u'08', u'pretty': u'9:00 AM CEST on August 09, 2009', u'year': u'2009', u'tzname': u'Europe/Paris'}",57.2,14.0,0,0,-9999,-9999,73,clear,METAR LFPB 090700Z 05007KT CAVOK 19/14 Q1018 NOSIG,-9999.00,-9999.00,30.06,1018,0,0,66.2,19.0,0,0,"{u'mday': u'09', u'hour': u'07', u'min': u'00', u'mon': u'08', u'pretty': u'7:00 AM GMT on August 09, 2009', u'year': u'2009', u'tzname': u'UTC'}",-9999.0,-9999.0,50,NE,-9999.0,-9999.0,-999,-999,8.1,13.0
19,Clear,"{u'mday': u'09', u'hour': u'09', u'min': u'30', u'mon': u'08', u'pretty': u'9:30 AM CEST on August 09, 2009', u'year': u'2009', u'tzname': u'Europe/Paris'}",59.0,15.0,0,0,-9999,-9999,73,clear,METAR LFPB 090730Z 05005KT 020V090 CAVOK 20/15 Q1018 NOSIG,-9999.00,-9999.00,30.06,1018,0,0,68.0,20.0,0,0,"{u'mday': u'09', u'hour': u'07', u'min': u'30', u'mon': u'08', u'pretty': u'7:30 AM GMT on August 09, 2009', u'year': u'2009', u'tzname': u'UTC'}",-9999.0,-9999.0,50,NE,-9999.0,-9999.0,-999,-999,5.8,9.3
20,Clear,"{u'mday': u'09', u'hour': u'10', u'min': u'00', u'mon': u'08', u'pretty': u'10:00 AM CEST on August 09, 2009', u'year': u'2009', u'tzname': u'Europe/Paris'}",59.0,15.0,0,0,-9999,-9999,73,clear,METAR LFPB 090800Z 04006KT 360V060 CAVOK 20/15 Q1018 NOSIG,-9999.00,-9999.00,30.06,1018,0,0,68.0,20.0,0,0,"{u'mday': u'09', u'hour': u'08', u'min': u'00', u'mon': u'08', u'pretty': u'8:00 AM GMT on August 09, 2009', u'year': u'2009', u'tzname': u'UTC'}",-9999.0,-9999.0,40,NE,-9999.0,-9999.0,-999,-999,6.9,11.1
21,Clear,"{u'mday': u'09', u'hour': u'10', u'min': u'30', u'mon': u'08', u'pretty': u'10:30 AM CEST on August 09, 2009', u'year': u'2009', u'tzname': u'Europe/Paris'}",59.0,15.0,0,0,-9999,-9999,68,clear,METAR LFPB 090830Z 05006KT 020V080 CAVOK 21/15 Q1018 NOSIG,-9999.00,-9999.00,30.06,1018,0,0,69.8,21.0,0,0,"{u'mday': u'09', u'hour': u'08', u'min': u'30', u'mon': u'08', u'pretty': u'8:30 AM GMT on August 09, 2009', u'year': u'2009', u'tzname': u'UTC'}",-9999.0,-9999.0,50,NE,-9999.0,-9999.0,-999,-999,6.9,11.1
22,Clear,"{u'mday': u'09', u'hour': u'11', u'min': u'00', u'mon': u'08', u'pretty': u'11:00 AM CEST on August 09, 2009', u'year': u'2009', u'tzname': u'Europe/Paris'}",57.2,14.0,0,0,-9999,-9999,57,clear,METAR LFPB 090900Z 04006KT 010V080 CAVOK 23/14 Q1018 NOSIG,-9999.00,-9999.00,30.06,1018,0,0,73.4,23.0,0,0,"{u'mday': u'09', u'hour': u'09', u'min': u'00', u'mon': u'08', u'pretty': u'9:00 AM GMT on August 09, 2009', u'year': u'2009', u'tzname': u'UTC'}",-9999.0,-9999.0,40,NE,-9999.0,-9999.0,-999,-999,6.9,11.1
23,Clear,"{u'mday': u'09', u'hour': u'11', u'min': u'30', u'mon': u'08', u'pretty': u'11:30 AM CEST on August 09, 2009', u'year': u'2009', u'tzname': u'Europe/Paris'}",55.4,13.0,0,0,-9999,-9999,53,clear,METAR LFPB 090930Z 05009KT 010V080 CAVOK 23/13 Q1017 NOSIG,-9999.00,-9999.00,30.04,1017,0,0,73.4,23.0,0,0,"{u'mday': u'09', u'hour': u'09', u'min': u'30', u'mon': u'08', u'pretty': u'9:30 AM GMT on August 09, 2009', u'year': u'2009', u'tzname': u'UTC'}",-9999.0,-9999.0,50,NE,-9999.0,-9999.0,-999,-999,10.4,16.7
24,Clear,"{u'mday': u'09', u'hour': u'12', u'min': u'00', u'mon': u'08', u'pretty': u'12:00 PM CEST on August 09, 2009', u'year': u'2009', u'tzname': u'Europe/Paris'}",53.6,12.0,0,0,-9999,-9999,47,clear,METAR LFPB 091000Z 07010KT 010V090 CAVOK 24/12 Q1017 NOSIG,-9999.00,-9999.00,30.04,1017,0,0,75.2,24.0,0,0,"{u'mday': u'09', u'hour': u'10', u'min': u'00', u'mon': u'08', u'pretty': u'10:00 AM GMT on August 09, 2009', u'year': u'2009', u'tzname': u'UTC'}",-9999.0,-9999.0,70,ENE,-9999.0,-9999.0,-999,-999,11.5,18.5
25,Unknown,"{u'mday': u'09', u'hour': u'12', u'min': u'30', u'mon': u'08', u'pretty': u'12:30 PM CEST on August 09, 2009', u'year': u'2009', u'tzname': u'Europe/Paris'}",51.8,11.0,0,0,-9999,-9999,41,unknown,METAR LFPB 091030Z AUTO 07010KT 9999NDV NSC 25/11 Q1017,-9999.00,-9999.00,30.04,1017,0,0,77.0,25.0,0,0,"{u'mday': u'09', u'hour': u'10', u'min': u'30', u'mon': u'08', u'pretty': u'10:30 AM GMT on August 09, 2009', u'year': u'2009', u'tzname': u'UTC'}",6.2,10.0,70,ENE,-9999.0,-9999.0,-999,-999,11.5,18.5
26,Clear,"{u'mday': u'09', u'hour': u'13', u'min': u'00', u'mon': u'08', u'pretty': u'1:00 PM CEST on August 09, 2009', u'year': u'2009', u'tzname': u'Europe/Paris'}",53.6,12.0,0,0,-9999,-9999,44,clear,METAR LFPB 091100Z 06011KT 010V090 CAVOK 25/12 Q1017 NOSIG,-9999.00,-9999.00,30.04,1017,0,0,77.0,25.0,0,0,"{u'mday': u'09', u'hour': u'11', u'min': u'00', u'mon': u'08', u'pretty': u'11:00 AM GMT on August 09, 2009', u'year': u'2009', u'tzname': u'UTC'}",-9999.0,-9999.0,60,ENE,-9999.0,-9999.0,-999,-999,12.7,20.4
27,Clear,"{u'mday': u'09', u'hour': u'13', u'min': u'30', u'mon': u'08', u'pretty': u'1:30 PM CEST on August 09, 2009', u'year': u'2009', u'tzname': u'Europe/Paris'}",50.0,10.0,0,0,-9999,-9999,39,clear,METAR LFPB 091130Z 08010KT CAVOK 25/10 Q1017 NOSIG,-9999.00,-9999.00,30.04,1017,0,0,77.0,25.0,0,0,"{u'mday': u'09', u'hour': u'11', u'min': u'30', u'mon': u'08', u'pretty': u'11:30 AM GMT on August 09, 2009', u'year': u'2009', u'tzname': u'UTC'}",-9999.0,-9999.0,80,East,-9999.0,-9999.0,-999,-999,11.5,18.5
28,Clear,"{u'mday': u'09', u'hour': u'14', u'min': u'00', u'mon': u'08', u'pretty': u'2:00 PM CEST on August 09, 2009', u'year': u'2009', u'tzname': u'Europe/Paris'}",51.8,11.0,0,0,-9999,-9999,39,clear,METAR LFPB 091200Z 05010KT 010V080 CAVOK 26/11 Q1017 NOSIG,-9999.00,-9999.00,30.04,1017,0,0,78.8,26.0,0,0,"{u'mday': u'09', u'hour': u'12', u'min': u'00', u'mon': u'08', u'pretty': u'12:00 PM GMT on August 09, 2009', u'year': u'2009', u'tzname': u'UTC'}",-9999.0,-9999.0,50,NE,-9999.0,-9999.0,-999,-999,11.5,18.5
29,Clear,"{u'mday': u'09', u'hour': u'14', u'min': u'30', u'mon': u'08', u'pretty': u'2:30 PM CEST on August 09, 2009', u'year': u'2009', u'tzname': u'Europe/Paris'}",50.0,10.0,0,0,-9999,-9999,36,clear,METAR LFPB 091230Z 08009KT 050V110 CAVOK 26/10 Q1016 NOSIG,-9999.00,-9999.00,30.01,1016,0,0,78.8,26.0,0,0,"{u'mday': u'09', u'hour': u'12', u'min': u'30', u'mon': u'08', u'pretty': u'12:30 PM GMT on August 09, 2009', u'year': u'2009', u'tzname': u'UTC'}",-9999.0,-9999.0,80,East,-9999.0,-9999.0,-999,-999,10.4,16.7
30,Clear,"{u'mday': u'09', u'hour': u'15', u'min': u'00', u'mon': u'08', u'pretty': u'3:00 PM CEST on August 09, 2009', u'year': u'2009', u'tzname': u'Europe/Paris'}",50.0,10.0,0,0,-9999,-9999,36,clear,METAR LFPB 091300Z 05009KT 020V090 CAVOK 26/10 Q1016 NOSIG,-9999.00,-9999.00,30.01,1016,0,0,78.8,26.0,0,0,"{u'mday': u'09', u'hour': u'13', u'min': u'00', u'mon': u'08', u'pretty': u'1:00 PM GMT on August 09, 2009', u'year': u'2009', u'tzname': u'UTC'}",-9999.0,-9999.0,50,NE,-9999.0,-9999.0,-999,-999,10.4,16.7
31,Clear,"{u'mday': u'09', u'hour': u'15', u'min': u'30', u'mon': u'08', u'pretty': u'3:30 PM CEST on August 09, 2009', u'year': u'2009', u'tzname': u'Europe/Paris'}",50.0,10.0,0,0,-9999,-9999,34,clear,METAR LFPB 091330Z 05006KT 330V100 CAVOK 27/10 Q1016 NOSIG,-9999.00,-9999.00,30.01,1016,0,0,80.6,27.0,0,0,"{u'mday': u'09', u'hour': u'13', u'min': u'30', u'mon': u'08', u'pretty': u'1:30 PM GMT on August 09, 2009', u'year': u'2009', u'tzname': u'UTC'}",-9999.0,-9999.0,50,NE,-9999.0,-9999.0,-999,-999,6.9,11.1
32,Clear,"{u'mday': u'09', u'hour': u'16', u'min': u'00', u'mon': u'08', u'pretty': u'4:00 PM CEST on August 09, 2009', u'year': u'2009', u'tzname': u'Europe/Paris'}",51.8,11.0,0,0,-9999,-9999,37,clear,METAR LFPB 091400Z 02008KT 340V080 CAVOK 27/11 Q1016 NOSIG,-9999.00,-9999.00,30.01,1016,0,0,80.6,27.0,0,0,"{u'mday': u'09', u'hour': u'14', u'min': u'00', u'mon': u'08', u'pretty': u'2:00 PM GMT on August 09, 2009', u'year': u'2009', u'tzname': u'UTC'}",-9999.0,-9999.0,20,NNE,-9999.0,-9999.0,-999,-999,9.2,14.8
33,Clear,"{u'mday': u'09', u'hour': u'16', u'min': u'30', u'mon': u'08', u'pretty': u'4:30 PM CEST on August 09, 2009', u'year': u'2009', u'tzname': u'Europe/Paris'}",50.0,10.0,0,0,-9999,-9999,34,clear,METAR LFPB 091430Z 04009KT 350V070 CAVOK 27/10 Q1016 NOSIG,-9999.00,-9999.00,30.01,1016,0,0,80.6,27.0,0,0,"{u'mday': u'09', u'hour': u'14', u'min': u'30', u'mon': u'08', u'pretty': u'2:30 PM GMT on August 09, 2009', u'year': u'2009', u'tzname': u'UTC'}",-9999.0,-9999.0,40,NE,-9999.0,-9999.0,-999,-999,10.4,16.7
34,Clear,"{u'mday': u'09', u'hour': u'17', u'min': u'00', u'mon': u'08', u'pretty': u'5:00 PM CEST on August 09, 2009', u'year': u'2009', u'tzname': u'Europe/Paris'}",51.8,11.0,0,0,-9999,-9999,39,clear,METAR LFPB 091500Z 03006KT 350V070 CAVOK 26/11 Q1016 NOSIG,-9999.00,-9999.00,30.01,1016,0,0,78.8,26.0,0,0,"{u'mday': u'09', u'hour': u'15', u'min': u'00', u'mon': u'08', u'pretty': u'3:00 PM GMT on August 09, 2009', u'year': u'2009', u'tzname': u'UTC'}",-9999.0,-9999.0,30,NNE,-9999.0,-9999.0,-999,-999,6.9,11.1
35,Clear,"{u'mday': u'09', u'hour': u'17', u'min': u'30', u'mon': u'08', u'pretty': u'5:30 PM CEST on August 09, 2009', u'year': u'2009', u'tzname': u'Europe/Paris'}",51.8,11.0,0,0,-9999,-9999,37,clear,METAR LFPB 091530Z 02009KT 340V060 CAVOK 27/11 Q1016 NOSIG,-9999.00,-9999.00,30.01,1016,0,0,80.6,27.0,0,0,"{u'mday': u'09', u'hour': u'15', u'min': u'30', u'mon': u'08', u'pretty': u'3:30 PM GMT on August 09, 2009', u'year': u'2009', u'tzname': u'UTC'}",-9999.0,-9999.0,20,NNE,-9999.0,-9999.0,-999,-999,10.4,16.7
36,Clear,"{u'mday': u'09', u'hour': u'18', u'min': u'00', u'mon': u'08', u'pretty': u'6:00 PM CEST on August 09, 2009', u'year': u'2009', u'tzname': u'Europe/Paris'}",51.8,11.0,0,0,-9999,-9999,39,clear,METAR LFPB 091600Z 03008KT 350V070 CAVOK 26/11 Q1016 NOSIG,-9999.00,-9999.00,30.01,1016,0,0,78.8,26.0,0,0,"{u'mday': u'09', u'hour': u'16', u'min': u'00', u'mon': u'08', u'pretty': u'4:00 PM GMT on August 09, 2009', u'year': u'2009', u'tzname': u'UTC'}",-9999.0,-9999.0,30,NNE,-9999.0,-9999.0,-999,-999,9.2,14.8
37,Clear,"{u'mday': u'09', u'hour': u'18', u'min': u'30', u'mon': u'08', u'pretty': u'6:30 PM CEST on August 09, 2009', u'year': u'2009', u'tzname': u'Europe/Paris'}",51.8,11.0,0,0,-9999,-9999,39,clear,METAR LFPB 091630Z 03009KT 360V060 CAVOK 26/11 Q1016 NOSIG,-9999.00,-9999.00,30.01,1016,0,0,78.8,26.0,0,0,"{u'mday': u'09', u'hour': u'16', u'min': u'30', u'mon': u'08', u'pretty': u'4:30 PM GMT on August 09, 2009', u'year': u'2009', u'tzname': u'UTC'}",-9999.0,-9999.0,30,NNE,-9999.0,-9999.0,-999,-999,10.4,16.7
38,Unknown,"{u'mday': u'09', u'hour': u'19', u'min': u'00', u'mon': u'08', u'pretty': u'7:00 PM CEST on August 09, 2009', u'year': u'2009', u'tzname': u'Europe/Paris'}",50.0,10.0,0,0,-9999,-9999,36,unknown,METAR LFPB 091700Z AUTO 01009KT 9999NDV NSC 26/10 Q1015,-9999.00,-9999.00,29.98,1015,0,0,78.8,26.0,0,0,"{u'mday': u'09', u'hour': u'17', u'min': u'00', u'mon': u'08', u'pretty': u'5:00 PM GMT on August 09, 2009', u'year': u'2009', u'tzname': u'UTC'}",6.2,10.0,10,North,-9999.0,-9999.0,-999,-999,10.4,16.7
39,Unknown,"{u'mday': u'09', u'hour': u'19', u'min': u'30', u'mon': u'08', u'pretty': u'7:30 PM CEST on August 09, 2009', u'year': u'2009', u'tzname': u'Europe/Paris'}",48.2,9.0,0,0,-9999,-9999,36,unknown,METAR LFPB 091730Z AUTO 03009KT 9999NDV NSC 25/09 Q1015,-9999.00,-9999.00,29.98,1015,0,0,77.0,25.0,0,0,"{u'mday': u'09', u'hour': u'17', u'min': u'30', u'mon': u'08', u'pretty': u'5:30 PM GMT on August 09, 2009', u'year': u'2009', u'tzname': u'UTC'}",6.2,10.0,30,NNE,-9999.0,-9999.0,-999,-999,10.4,16.7
40,Unknown,"{u'mday': u'09', u'hour': u'20', u'min': u'00', u'mon': u'08', u'pretty': u'8:00 PM CEST on August 09, 2009', u'year': u'2009', u'tzname': u'Europe/Paris'}",48.2,9.0,0,0,-9999,-9999,36,unknown,METAR LFPB 091800Z AUTO 02006KT 350V050 9999NDV NSC 25/09 Q1015,-9999.00,-9999.00,29.98,1015,0,0,77.0,25.0,0,0,"{u'mday': u'09', u'hour': u'18', u'min': u'00', u'mon': u'08', u'pretty': u'6:00 PM GMT on August 09, 2009', u'year': u'2009', u'tzname': u'UTC'}",6.2,10.0,20,NNE,-9999.0,-9999.0,-999,-999,6.9,11.1
41,Unknown,"{u'mday': u'09', u'hour': u'20', u'min': u'30', u'mon': u'08', u'pretty': u'8:30 PM CEST on August 09, 2009', u'year': u'2009', u'tzname': u'Europe/Paris'}",50.0,10.0,0,0,-9999,-9999,41,unknown,METAR LFPB 091830Z AUTO 02006KT 9999NDV NSC 24/10 Q1015,-9999.00,-9999.00,29.98,1015,0,0,75.2,24.0,0,0,"{u'mday': u'09', u'hour': u'18', u'min': u'30', u'mon': u'08', u'pretty': u'6:30 PM GMT on August 09, 2009', u'year': u'2009', u'tzname': u'UTC'}",6.2,10.0,20,NNE,-9999.0,-9999.0,-999,-999,6.9,11.1
42,Unknown,"{u'mday': u'09', u'hour': u'21', u'min': u'00', u'mon': u'08', u'pretty': u'9:00 PM CEST on August 09, 2009', u'year': u'2009', u'tzname': u'Europe/Paris'}",51.8,11.0,0,0,-9999,-9999,47,unknown,METAR LFPB 091900Z AUTO 02006KT 9999NDV NSC 23/11 Q1015,-9999.00,-9999.00,29.98,1015,0,0,73.4,23.0,0,0,"{u'mday': u'09', u'hour': u'19', u'min': u'00', u'mon': u'08', u'pretty': u'7:00 PM GMT on August 09, 2009', u'year': u'2009', u'tzname': u'UTC'}",6.2,10.0,20,NNE,-9999.0,-9999.0,-999,-999,6.9,11.1
43,Unknown,"{u'mday': u'09', u'hour': u'21', u'min': u'30', u'mon': u'08', u'pretty': u'9:30 PM CEST on August 09, 2009', u'year': u'2009', u'tzname': u'Europe/Paris'}",51.8,11.0,0,0,-9999,-9999,47,unknown,METAR LFPB 091930Z AUTO 02006KT 9999NDV NSC 23/11 Q1016,-9999.00,-9999.00,30.01,1016,0,0,73.4,23.0,0,0,"{u'mday': u'09', u'hour': u'19', u'min': u'30', u'mon': u'08', u'pretty': u'7:30 PM GMT on August 09, 2009', u'year': u'2009', u'tzname': u'UTC'}",6.2,10.0,20,NNE,-9999.0,-9999.0,-999,-999,6.9,11.1
44,Unknown,"{u'mday': u'09', u'hour': u'22', u'min': u'00', u'mon': u'08', u'pretty': u'10:00 PM CEST on August 09, 2009', u'year': u'2009', u'tzname': u'Europe/Paris'}",51.8,11.0,0,0,-9999,-9999,50,unknown,METAR LFPB 092000Z AUTO 02006KT 9999NDV NSC 22/11 Q1016,-9999.00,-9999.00,30.01,1016,0,0,71.6,22.0,0,0,"{u'mday': u'09', u'hour': u'20', u'min': u'00', u'mon': u'08', u'pretty': u'8:00 PM GMT on August 09, 2009', u'year': u'2009', u'tzname': u'UTC'}",6.2,10.0,20,NNE,-9999.0,-9999.0,-999,-999,6.9,11.1
45,Unknown,"{u'mday': u'09', u'hour': u'22', u'min': u'30', u'mon': u'08', u'pretty': u'10:30 PM CEST on August 09, 2009', u'year': u'2009', u'tzname': u'Europe/Paris'}",51.8,11.0,0,0,-9999,-9999,50,unknown,METAR LFPB 092030Z AUTO 02005KT 9999NDV NSC 22/11 Q1016,-9999.00,-9999.00,30.01,1016,0,0,71.6,22.0,0,0,"{u'mday': u'09', u'hour': u'20', u'min': u'30', u'mon': u'08', u'pretty': u'8:30 PM GMT on August 09, 2009', u'year': u'2009', u'tzname': u'UTC'}",6.2,10.0,20,NNE,-9999.0,-9999.0,-999,-999,5.8,9.3
46,Unknown,"{u'mday': u'09', u'hour': u'23', u'min': u'00', u'mon': u'08', u'pretty': u'11:00 PM CEST on August 09, 2009', u'year': u'2009', u'tzname': u'Europe/Paris'}",53.6,12.0,0,0,-9999,-9999,56,unknown,METAR LFPB 092100Z AUTO 04006KT 9999NDV NSC 21/12 Q1017,-9999.00,-9999.00,30.04,1017,0,0,69.8,21.0,0,0,"{u'mday': u'09', u'hour': u'21', u'min': u'00', u'mon': u'08', u'pretty': u'9:00 PM GMT on August 09, 2009', u'year': u'2009', u'tzname': u'UTC'}",6.2,10.0,40,NE,-9999.0,-9999.0,-999,-999,6.9,11.1
47,Unknown,"{u'mday': u'09', u'hour': u'23', u'min': u'30', u'mon': u'08', u'pretty': u'11:30 PM CEST on August 09, 2009', u'year': u'2009', u'tzname': u'Europe/Paris'}",53.6,12.0,0,0,-9999,-9999,56,unknown,METAR LFPB 092130Z AUTO 02006KT 350V060 9999NDV NSC 21/12 Q1017,-9999.00,-9999.00,30.04,1017,0,0,69.8,21.0,0,0,"{u'mday': u'09', u'hour': u'21', u'min': u'30', u'mon': u'08', u'pretty': u'9:30 PM GMT on August 09, 2009', u'year': u'2009', u'tzname': u'UTC'}",6.2,10.0,20,NNE,-9999.0,-9999.0,-999,-999,6.9,11.1
0,Unknown,"{u'mday': u'10', u'hour': u'00', u'min': u'00', u'mon': u'08', u'pretty': u'12:00 AM CEST on August 10, 2009', u'year': u'2009', u'tzname': u'Europe/Paris'}",53.6,12.0,0,0,-9999,-9999,56,unknown,METAR LFPB 092200Z AUTO 03005KT 350V050 9999NDV NSC 21/12 Q1017,-9999.00,-9999.00,30.04,1017,0,0,69.8,21.0,0,0,"{u'mday': u'09', u'hour': u'22', u'min': u'00', u'mon': u'08', u'pretty': u'10:00 PM GMT on August 09, 2009', u'year': u'2009', u'tzname': u'UTC'}",6.2,10.0,30,NNE,-9999.0,-9999.0,-999,-999,5.8,9.3
1,Unknown,"{u'mday': u'10', u'hour': u'00', u'min': u'30', u'mon': u'08', u'pretty': u'12:30 AM CEST on August 10, 2009', u'year': u'2009', u'tzname': u'Europe/Paris'}",53.6,12.0,0,0,-9999,-9999,56,unknown,METAR LFPB 092230Z AUTO 03003KT 350V100 9999NDV NSC 21/12 Q1017,-9999.00,-9999.00,30.04,1017,0,0,69.8,21.0,0,0,"{u'mday': u'09', u'hour': u'22', u'min': u'30', u'mon': u'08', u'pretty': u'10:30 PM GMT on August 09, 2009', u'year': u'2009', u'tzname': u'UTC'}",6.2,10.0,30,NNE,-9999.0,-9999.0,-999,-999,3.5,5.6
2,Unknown,"{u'mday': u'10', u'hour': u'01', u'min': u'00', u'mon': u'08', u'pretty': u'1:00 AM CEST on August 10, 2009', u'year': u'2009', u'tzname': u'Europe/Paris'}",53.6,12.0,0,0,-9999,-9999,56,unknown,METAR LFPB 092300Z AUTO 02006KT 350V050 9999NDV NSC 21/12 Q1017,-9999.00,-9999.00,30.04,1017,0,0,69.8,21.0,0,0,"{u'mday': u'09', u'hour': u'23', u'min': u'00', u'mon': u'08', u'pretty': u'11:00 PM GMT on August 09, 2009', u'year': u'2009', u'tzname': u'UTC'}",6.2,10.0,20,NNE,-9999.0,-9999.0,-999,-999,6.9,11.1
3,Unknown,"{u'mday': u'10', u'hour': u'01', u'min': u'30', u'mon': u'08', u'pretty': u'1:30 AM CEST on August 10, 2009', u'year': u'2009', u'tzname': u'Europe/Paris'}",53.6,12.0,0,0,-9999,-9999,60,unknown,METAR LFPB 092330Z AUTO VRB02KT 9999NDV NSC 20/12 Q1016,-9999.00,-9999.00,30.01,1016,0,0,68.0,20.0,0,0,"{u'mday': u'09', u'hour': u'23', u'min': u'30', u'mon': u'08', u'pretty': u'11:30 PM GMT on August 09, 2009', u'year': u'2009', u'tzname': u'UTC'}",6.2,10.0,0,Variable,-9999.0,-9999.0,-999,-999,2.3,3.7
4,Unknown,"{u'mday': u'10', u'hour': u'02', u'min': u'00', u'mon': u'08', u'pretty': u'2:00 AM CEST on August 10, 2009', u'year': u'2009', u'tzname': u'Europe/Paris'}",53.6,12.0,0,0,-9999,-9999,64,unknown,METAR LFPB 100000Z AUTO 04004KT 9999NDV NSC 19/12 Q1017,-9999.00,-9999.00,30.04,1017,0,0,66.2,19.0,0,0,"{u'mday': u'10', u'hour': u'00', u'min': u'00', u'mon': u'08', u'pretty': u'12:00 AM GMT on August 10, 2009', u'year': u'2009', u'tzname': u'UTC'}",6.2,10.0,40,NE,-9999.0,-9999.0,-999,-999,4.6,7.4
5,Unknown,"{u'mday': u'10', u'hour': u'02', u'min': u'30', u'mon': u'08', u'pretty': u'2:30 AM CEST on August 10, 2009', u'year': u'2009', u'tzname': u'Europe/Paris'}",53.6,12.0,0,0,-9999,-9999,64,unknown,METAR LFPB 100030Z AUTO VRB02KT 9999NDV NSC 19/12 Q1017,-9999.00,-9999.00,30.04,1017,0,0,66.2,19.0,0,0,"{u'mday': u'10', u'hour': u'00', u'min': u'30', u'mon': u'08', u'pretty': u'12:30 AM GMT on August 10, 2009', u'year': u'2009', u'tzname': u'UTC'}",6.2,10.0,0,Variable,-9999.0,-9999.0,-999,-999,2.3,3.7
6,Unknown,"{u'mday': u'10', u'hour': u'03', u'min': u'00', u'mon': u'08', u'pretty': u'3:00 AM CEST on August 10, 2009', u'year': u'2009', u'tzname': u'Europe/Paris'}",53.6,12.0,0,0,-9999,-9999,68,unknown,METAR LFPB 100100Z AUTO 04003KT 010V070 9999NDV NSC 18/12 Q1017,-9999.00,-9999.00,30.04,1017,0,0,64.4,18.0,0,0,"{u'mday': u'10', u'hour': u'01', u'min': u'00', u'mon': u'08', u'pretty': u'1:00 AM GMT on August 10, 2009', u'year': u'2009', u'tzname': u'UTC'}",6.2,10.0,40,NE,-9999.0,-9999.0,-999,-999,3.5,5.6
7,Unknown,"{u'mday': u'10', u'hour': u'03', u'min': u'30', u'mon': u'08', u'pretty': u'3:30 AM CEST on August 10, 2009', u'year': u'2009', u'tzname': u'Europe/Paris'}",55.4,13.0,0,0,-9999,-9999,73,unknown,METAR LFPB 100130Z AUTO VRB02KT 9999NDV NSC 18/13 Q1017,-9999.00,-9999.00,30.04,1017,0,0,64.4,18.0,0,0,"{u'mday': u'10', u'hour': u'01', u'min': u'30', u'mon': u'08', u'pretty': u'1:30 AM GMT on August 10, 2009', u'year': u'2009', u'tzname': u'UTC'}",6.2,10.0,0,Variable,-9999.0,-9999.0,-999,-999,2.3,3.7
8,Unknown,"{u'mday': u'10', u'hour': u'04', u'min': u'00', u'mon': u'08', u'pretty': u'4:00 AM CEST on August 10, 2009', u'year': u'2009', u'tzname': u'Europe/Paris'}",55.4,13.0,0,0,-9999,-9999,73,unknown,METAR LFPB 100200Z AUTO 02003KT 9999NDV NSC 18/13 Q1017,-9999.00,-9999.00,30.04,1017,0,0,64.4,18.0,0,0,"{u'mday': u'10', u'hour': u'02', u'min': u'00', u'mon': u'08', u'pretty': u'2:00 AM GMT on August 10, 2009', u'year': u'2009', u'tzname': u'UTC'}",6.2,10.0,20,NNE,-9999.0,-9999.0,-999,-999,3.5,5.6
9,Unknown,"{u'mday': u'10', u'hour': u'04', u'min': u'30', u'mon': u'08', u'pretty': u'4:30 AM CEST on August 10, 2009', u'year': u'2009', u'tzname': u'Europe/Paris'}",53.6,12.0,0,0,-9999,-9999,68,unknown,METAR LFPB 100230Z AUTO VRB02KT 9999NDV NSC 18/12 Q1016,-9999.00,-9999.00,30.01,1016,0,0,64.4,18.0,0,0,"{u'mday': u'10', u'hour': u'02', u'min': u'30', u'mon': u'08', u'pretty': u'2:30 AM GMT on August 10, 2009', u'year': u'2009', u'tzname': u'UTC'}",6.2,10.0,0,Variable,-9999.0,-9999.0,-999,-999,2.3,3.7
10,Unknown,"{u'mday': u'10', u'hour': u'05', u'min': u'00', u'mon': u'08', u'pretty': u'5:00 AM CEST on August 10, 2009', u'year': u'2009', u'tzname': u'Europe/Paris'}",53.6,12.0,0,0,-9999,-9999,68,unknown,METAR LFPB 100300Z AUTO VRB02KT 9999NDV NSC 18/12 Q1016,-9999.00,-9999.00,30.01,1016,0,0,64.4,18.0,0,0,"{u'mday': u'10', u'hour': u'03', u'min': u'00', u'mon': u'08', u'pretty': u'3:00 AM GMT on August 10, 2009', u'year': u'2009', u'tzname': u'UTC'}",6.2,10.0,0,Variable,-9999.0,-9999.0,-999,-999,2.3,3.7
11,Unknown,"{u'mday': u'10', u'hour': u'05', u'min': u'30', u'mon': u'08', u'pretty': u'5:30 AM CEST on August 10, 2009', u'year': u'2009', u'tzname': u'Europe/Paris'}",53.6,12.0,0,0,-9999,-9999,72,unknown,METAR LFPB 100330Z AUTO 01002KT 9999NDV NCD 17/12 Q1016,-9999.00,-9999.00,30.01,1016,0,0,62.6,17.0,0,0,"{u'mday': u'10', u'hour': u'03', u'min': u'30', u'mon': u'08', u'pretty': u'3:30 AM GMT on August 10, 2009', u'year': u'2009', u'tzname': u'UTC'}",6.2,10.0,10,North,-9999.0,-9999.0,-999,-999,2.3,3.7
12,Unknown,"{u'mday': u'10', u'hour': u'06', u'min': u'00', u'mon': u'08', u'pretty': u'6:00 AM CEST on August 10, 2009', u'year': u'2009', u'tzname': u'Europe/Paris'}",53.6,12.0,0,0,-9999,-9999,72,unknown,METAR LFPB 100400Z AUTO 36002KT 9999NDV NSC 17/12 Q1016,-9999.00,-9999.00,30.01,1016,0,0,62.6,17.0,0,0,"{u'mday': u'10', u'hour': u'04', u'min': u'00', u'mon': u'08', u'pretty': u'4:00 AM GMT on August 10, 2009', u'year': u'2009', u'tzname': u'UTC'}",6.2,10.0,360,North,-9999.0,-9999.0,-999,-999,2.3,3.7
13,Clear,"{u'mday': u'10', u'hour': u'06', u'min': u'30', u'mon': u'08', u'pretty': u'6:30 AM CEST on August 10, 2009', u'year': u'2009', u'tzname': u'Europe/Paris'}",53.6,12.0,0,0,-9999,-9999,77,clear,METAR LFPB 100430Z 34003KT CAVOK 16/12 Q1016,-9999.00,-9999.00,30.01,1016,0,0,60.8,16.0,0,0,"{u'mday': u'10', u'hour': u'04', u'min': u'30', u'mon': u'08', u'pretty': u'4:30 AM GMT on August 10, 2009', u'year': u'2009', u'tzname': u'UTC'}",-9999.0,-9999.0,340,NNW,-9999.0,-9999.0,-999,-999,3.5,5.6
14,Clear,"{u'mday': u'10', u'hour': u'07', u'min': u'00', u'mon': u'08', u'pretty': u'7:00 AM CEST on August 10, 2009', u'year': u'2009', u'tzname': u'Europe/Paris'}",53.6,12.0,0,0,-9999,-9999,77,clear,METAR LFPB 100500Z VRB02KT CAVOK 16/12 Q1017 NOSIG,-9999.00,-9999.00,30.04,1017,0,0,60.8,16.0,0,0,"{u'mday': u'10', u'hour': u'05', u'min': u'00', u'mon': u'08', u'pretty': u'5:00 AM GMT on August 10, 2009', u'year': u'2009', u'tzname': u'UTC'}",-9999.0,-9999.0,0,Variable,-9999.0,-9999.0,-999,-999,2.3,3.7
15,Clear,"{u'mday': u'10', u'hour': u'07', u'min': u'30', u'mon': u'08', u'pretty': u'7:30 AM CEST on August 10, 2009', u'year': u'2009', u'tzname': u'Europe/Paris'}",53.6,12.0,0,0,-9999,-9999,77,clear,METAR LFPB 100530Z 34002KT CAVOK 16/12 Q1017 NOSIG,-9999.00,-9999.00,30.04,1017,0,0,60.8,16.0,0,0,"{u'mday': u'10', u'hour': u'05', u'min': u'30', u'mon': u'08', u'pretty': u'5:30 AM GMT on August 10, 2009', u'year': u'2009', u'tzname': u'UTC'}",-9999.0,-9999.0,340,NNW,-9999.0,-9999.0,-999,-999,2.3,3.7
16,Clear,"{u'mday': u'10', u'hour': u'08', u'min': u'00', u'mon': u'08', u'pretty': u'8:00 AM CEST on August 10, 2009', u'year': u'2009', u'tzname': u'Europe/Paris'}",55.4,13.0,0,0,-9999,-9999,82,clear,METAR LFPB 100600Z VRB03KT CAVOK 16/13 Q1017 NOSIG,-9999.00,-9999.00,30.04,1017,0,0,60.8,16.0,0,0,"{u'mday': u'10', u'hour': u'06', u'min': u'00', u'mon': u'08', u'pretty': u'6:00 AM GMT on August 10, 2009', u'year': u'2009', u'tzname': u'UTC'}",-9999.0,-9999.0,0,Variable,-9999.0,-9999.0,-999,-999,3.5,5.6
17,Clear,"{u'mday': u'10', u'hour': u'08', u'min': u'30', u'mon': u'08', u'pretty': u'8:30 AM CEST on August 10, 2009', u'year': u'2009', u'tzname': u'Europe/Paris'}",55.4,13.0,0,0,-9999,-9999,77,clear,METAR LFPB 100630Z VRB01KT CAVOK 17/13 Q1017 NOSIG,-9999.00,-9999.00,30.04,1017,0,0,62.6,17.0,0,0,"{u'mday': u'10', u'hour': u'06', u'min': u'30', u'mon': u'08', u'pretty': u'6:30 AM GMT on August 10, 2009', u'year': u'2009', u'tzname': u'UTC'}",-9999.0,-9999.0,0,Variable,-9999.0,-9999.0,-999,-999,1.2,1.9
18,Clear,"{u'mday': u'10', u'hour': u'09', u'min': u'00', u'mon': u'08', u'pretty': u'9:00 AM CEST on August 10, 2009', u'year': u'2009', u'tzname': u'Europe/Paris'}",55.4,13.0,0,0,-9999,-9999,68,clear,METAR LFPB 100700Z 00000KT CAVOK 19/13 Q1017 NOSIG,-9999.00,-9999.00,30.04,1017,0,0,66.2,19.0,0,0,"{u'mday': u'10', u'hour': u'07', u'min': u'00', u'mon': u'08', u'pretty': u'7:00 AM GMT on August 10, 2009', u'year': u'2009', u'tzname': u'UTC'}",-9999.0,-9999.0,0,North,-9999.0,-9999.0,-999,-999,0.0,0.0
19,Clear,"{u'mday': u'10', u'hour': u'09', u'min': u'30', u'mon': u'08', u'pretty': u'9:30 AM CEST on August 10, 2009', u'year': u'2009', u'tzname': u'Europe/Paris'}",55.4,13.0,0,0,-9999,-9999,64,clear,METAR LFPB 100730Z 00000KT CAVOK 20/13 Q1017 NOSIG,-9999.00,-9999.00,30.04,1017,0,0,68.0,20.0,0,0,"{u'mday': u'10', u'hour': u'07', u'min': u'30', u'mon': u'08', u'pretty': u'7:30 AM GMT on August 10, 2009', u'year': u'2009', u'tzname': u'UTC'}",-9999.0,-9999.0,0,North,-9999.0,-9999.0,-999,-999,0.0,0.0
20,Clear,"{u'mday': u'10', u'hour': u'10', u'min': u'00', u'mon': u'08', u'pretty': u'10:00 AM CEST on August 10, 2009', u'year': u'2009', u'tzname': u'Europe/Paris'}",53.6,12.0,0,0,-9999,-9999,56,clear,METAR LFPB 100800Z VRB02KT CAVOK 21/12 Q1017 NOSIG,-9999.00,-9999.00,30.04,1017,0,0,69.8,21.0,0,0,"{u'mday': u'10', u'hour': u'08', u'min': u'00', u'mon': u'08', u'pretty': u'8:00 AM GMT on August 10, 2009', u'year': u'2009', u'tzname': u'UTC'}",-9999.0,-9999.0,0,Variable,-9999.0,-9999.0,-999,-999,2.3,3.7
21,Clear,"{u'mday': u'10', u'hour': u'10', u'min': u'30', u'mon': u'08', u'pretty': u'10:30 AM CEST on August 10, 2009', u'year': u'2009', u'tzname': u'Europe/Paris'}",53.6,12.0,0,0,-9999,-9999,53,clear,METAR LFPB 100830Z VRB02KT CAVOK 22/12 Q1017 NOSIG,-9999.00,-9999.00,30.04,1017,0,0,71.6,22.0,0,0,"{u'mday': u'10', u'hour': u'08', u'min': u'30', u'mon': u'08', u'pretty': u'8:30 AM GMT on August 10, 2009', u'year': u'2009', u'tzname': u'UTC'}",-9999.0,-9999.0,0,Variable,-9999.0,-9999.0,-999,-999,2.3,3.7
22,Clear,"{u'mday': u'10', u'hour': u'11', u'min': u'00', u'mon': u'08', u'pretty': u'11:00 AM CEST on August 10, 2009', u'year': u'2009', u'tzname': u'Europe/Paris'}",51.8,11.0,0,0,-9999,-9999,47,clear,METAR LFPB 100900Z 16003KT 100V220 CAVOK 23/11 Q1017 NOSIG,-9999.00,-9999.00,30.04,1017,0,0,73.4,23.0,0,0,"{u'mday': u'10', u'hour': u'09', u'min': u'00', u'mon': u'08', u'pretty': u'9:00 AM GMT on August 10, 2009', u'year': u'2009', u'tzname': u'UTC'}",-9999.0,-9999.0,160,SSE,-9999.0,-9999.0,-999,-999,3.5,5.6
23,Clear,"{u'mday': u'10', u'hour': u'11', u'min': u'30', u'mon': u'08', u'pretty': u'11:30 AM CEST on August 10, 2009', u'year': u'2009', u'tzname': u'Europe/Paris'}",48.2,9.0,0,0,-9999,-9999,38,clear,METAR LFPB 100930Z VRB02KT CAVOK 24/09 Q1017 NOSIG,-9999.00,-9999.00,30.04,1017,0,0,75.2,24.0,0,0,"{u'mday': u'10', u'hour': u'09', u'min': u'30', u'mon': u'08', u'pretty': u'9:30 AM GMT on August 10, 2009', u'year': u'2009', u'tzname': u'UTC'}",-9999.0,-9999.0,0,Variable,-9999.0,-9999.0,-999,-999,2.3,3.7
24,Clear,"{u'mday': u'10', u'hour': u'12', u'min': u'00', u'mon': u'08', u'pretty': u'12:00 PM CEST on August 10, 2009', u'year': u'2009', u'tzname': u'Europe/Paris'}",50.0,10.0,0,0,-9999,-9999,39,clear,METAR LFPB 101000Z 09003KT 040V150 CAVOK 25/10 Q1017 NOSIG,-9999.00,-9999.00,30.04,1017,0,0,77.0,25.0,0,0,"{u'mday': u'10', u'hour': u'10', u'min': u'00', u'mon': u'08', u'pretty': u'10:00 AM GMT on August 10, 2009', u'year': u'2009', u'tzname': u'UTC'}",-9999.0,-9999.0,90,East,-9999.0,-9999.0,-999,-999,3.5,5.6
25,Unknown,"{u'mday': u'10', u'hour': u'12', u'min': u'30', u'mon': u'08', u'pretty': u'12:30 PM CEST on August 10, 2009', u'year': u'2009', u'tzname': u'Europe/Paris'}",48.2,9.0,0,0,-9999,-9999,34,unknown,METAR LFPB 101030Z AUTO 15004KT 060V190 9999NDV NSC 26/09 Q1017,-9999.00,-9999.00,30.04,1017,0,0,78.8,26.0,0,0,"{u'mday': u'10', u'hour': u'10', u'min': u'30', u'mon': u'08', u'pretty': u'10:30 AM GMT on August 10, 2009', u'year': u'2009', u'tzname': u'UTC'}",6.2,10.0,150,SSE,-9999.0,-9999.0,-999,-999,4.6,7.4
26,Clear,"{u'mday': u'10', u'hour': u'13', u'min': u'00', u'mon': u'08', u'pretty': u'1:00 PM CEST on August 10, 2009', u'year': u'2009', u'tzname': u'Europe/Paris'}",50.0,10.0,0,0,-9999,-9999,36,clear,METAR LFPB 101100Z 25004KT 170V300 CAVOK 26/10 Q1017 NOSIG,-9999.00,-9999.00,30.04,1017,0,0,78.8,26.0,0,0,"{u'mday': u'10', u'hour': u'11', u'min': u'00', u'mon': u'08', u'pretty': u'11:00 AM GMT on August 10, 2009', u'year': u'2009', u'tzname': u'UTC'}",-9999.0,-9999.0,250,WSW,-9999.0,-9999.0,-999,-999,4.6,7.4
27,Clear,"{u'mday': u'10', u'hour': u'13', u'min': u'30', u'mon': u'08', u'pretty': u'1:30 PM CEST on August 10, 2009', u'year': u'2009', u'tzname': u'Europe/Paris'}",50.0,10.0,0,0,-9999,-9999,36,clear,METAR LFPB 101130Z 28005KT 250V330 CAVOK 26/10 Q1017 NOSIG,-9999.00,-9999.00,30.04,1017,0,0,78.8,26.0,0,0,"{u'mday': u'10', u'hour': u'11', u'min': u'30', u'mon': u'08', u'pretty': u'11:30 AM GMT on August 10, 2009', u'year': u'2009', u'tzname': u'UTC'}",-9999.0,-9999.0,280,West,-9999.0,-9999.0,-999,-999,5.8,9.3
28,Clear,"{u'mday': u'10', u'hour': u'14', u'min': u'00', u'mon': u'08', u'pretty': u'2:00 PM CEST on August 10, 2009', u'year': u'2009', u'tzname': u'Europe/Paris'}",50.0,10.0,0,0,-9999,-9999,34,clear,METAR LFPB 101200Z 26008KT 190V310 CAVOK 27/10 Q1016 NOSIG,-9999.00,-9999.00,30.01,1016,0,0,80.6,27.0,0,0,"{u'mday': u'10', u'hour': u'12', u'min': u'00', u'mon': u'08', u'pretty': u'12:00 PM GMT on August 10, 2009', u'year': u'2009', u'tzname': u'UTC'}",-9999.0,-9999.0,260,West,-9999.0,-9999.0,-999,-999,9.2,14.8
29,Clear,"{u'mday': u'10', u'hour': u'14', u'min': u'30', u'mon': u'08', u'pretty': u'2:30 PM CEST on August 10, 2009', u'year': u'2009', u'tzname': u'Europe/Paris'}",51.8,11.0,0,0,-9999,-9999,37,clear,METAR LFPB 101230Z 24010KT 200V280 CAVOK 27/11 Q1017 NOSIG,-9999.00,-9999.00,30.04,1017,0,0,80.6,27.0,0,0,"{u'mday': u'10', u'hour': u'12', u'min': u'30', u'mon': u'08', u'pretty': u'12:30 PM GMT on August 10, 2009', u'year': u'2009', u'tzname': u'UTC'}",-9999.0,-9999.0,240,WSW,-9999.0,-9999.0,-999,-999,11.5,18.5
30,Clear,"{u'mday': u'10', u'hour': u'15', u'min': u'00', u'mon': u'08', u'pretty': u'3:00 PM CEST on August 10, 2009', u'year': u'2009', u'tzname': u'Europe/Paris'}",51.8,11.0,0,0,-9999,-9999,37,clear,METAR LFPB 101300Z 23007KT 180V260 CAVOK 27/11 Q1017 NOSIG,-9999.00,-9999.00,30.04,1017,0,0,80.6,27.0,0,0,"{u'mday': u'10', u'hour': u'13', u'min': u'00', u'mon': u'08', u'pretty': u'1:00 PM GMT on August 10, 2009', u'year': u'2009', u'tzname': u'UTC'}",-9999.0,-9999.0,230,SW,-9999.0,-9999.0,-999,-999,8.1,13.0
31,Clear,"{u'mday': u'10', u'hour': u'15', u'min': u'30', u'mon': u'08', u'pretty': u'3:30 PM CEST on August 10, 2009', u'year': u'2009', u'tzname': u'Europe/Paris'}",51.8,11.0,0,0,-9999,-9999,37,clear,METAR LFPB 101330Z 24008KT 210V290 CAVOK 27/11 Q1016 NOSIG,-9999.00,-9999.00,30.01,1016,0,0,80.6,27.0,0,0,"{u'mday': u'10', u'hour': u'13', u'min': u'30', u'mon': u'08', u'pretty': u'1:30 PM GMT on August 10, 2009', u'year': u'2009', u'tzname': u'UTC'}",-9999.0,-9999.0,240,WSW,-9999.0,-9999.0,-999,-999,9.2,14.8
32,Clear,"{u'mday': u'10', u'hour': u'16', u'min': u'00', u'mon': u'08', u'pretty': u'4:00 PM CEST on August 10, 2009', u'year': u'2009', u'tzname': u'Europe/Paris'}",51.8,11.0,0,0,-9999,-9999,35,clear,METAR LFPB 101400Z 23009KT 200V260 CAVOK 28/11 Q1016 NOSIG,-9999.00,-9999.00,30.01,1016,0,0,82.4,28.0,0,0,"{u'mday': u'10', u'hour': u'14', u'min': u'00', u'mon': u'08', u'pretty': u'2:00 PM GMT on August 10, 2009', u'year': u'2009', u'tzname': u'UTC'}",-9999.0,-9999.0,230,SW,-9999.0,-9999.0,-999,-999,10.4,16.7
33,Clear,"{u'mday': u'10', u'hour': u'17', u'min': u'00', u'mon': u'08', u'pretty': u'5:00 PM CEST on August 10, 2009', u'year': u'2009', u'tzname': u'Europe/Paris'}",55.4,13.0,0,0,80.5,27.0,42,clear,METAR LFPB 101500Z 23009KT CAVOK 27/13 Q1016 NOSIG,-9999.00,-9999.00,30.01,1016,0,0,80.6,27.0,0,0,"{u'mday': u'10', u'hour': u'15', u'min': u'00', u'mon': u'08', u'pretty': u'3:00 PM GMT on August 10, 2009', u'year': u'2009', u'tzname': u'UTC'}",-9999.0,-9999.0,230,SW,-9999.0,-9999.0,-999,-999,10.4,16.7
34,Clear,"{u'mday': u'10', u'hour': u'17', u'min': u'30', u'mon': u'08', u'pretty': u'5:30 PM CEST on August 10, 2009', u'year': u'2009', u'tzname': u'Europe/Paris'}",55.4,13.0,0,0,80.5,27.0,42,clear,METAR LFPB 101530Z 23010KT CAVOK 27/13 Q1016 NOSIG,-9999.00,-9999.00,30.01,1016,0,0,80.6,27.0,0,0,"{u'mday': u'10', u'hour': u'15', u'min': u'30', u'mon': u'08', u'pretty': u'3:30 PM GMT on August 10, 2009', u'year': u'2009', u'tzname': u'UTC'}",-9999.0,-9999.0,230,SW,-9999.0,-9999.0,-999,-999,11.5,18.5
35,Clear,"{u'mday': u'10', u'hour': u'18', u'min': u'00', u'mon': u'08', u'pretty': u'6:00 PM CEST on August 10, 2009', u'year': u'2009', u'tzname': u'Europe/Paris'}",55.4,13.0,0,0,80.5,27.0,42,clear,METAR LFPB 101600Z 26011KT 230V310 CAVOK 27/13 Q1016 NOSIG,-9999.00,-9999.00,30.01,1016,0,0,80.6,27.0,0,0,"{u'mday': u'10', u'hour': u'16', u'min': u'00', u'mon': u'08', u'pretty': u'4:00 PM GMT on August 10, 2009', u'year': u'2009', u'tzname': u'UTC'}",-9999.0,-9999.0,260,West,-9999.0,-9999.0,-999,-999,12.7,20.4
36,Clear,"{u'mday': u'10', u'hour': u'18', u'min': u'30', u'mon': u'08', u'pretty': u'6:30 PM CEST on August 10, 2009', u'year': u'2009', u'tzname': u'Europe/Paris'}",57.2,14.0,0,0,-9999,-9999,47,clear,METAR LFPB 101630Z 32010KT 270V010 CAVOK 26/14 Q1016 NOSIG,-9999.00,-9999.00,30.01,1016,0,0,78.8,26.0,0,0,"{u'mday': u'10', u'hour': u'16', u'min': u'30', u'mon': u'08', u'pretty': u'4:30 PM GMT on August 10, 2009', u'year': u'2009', u'tzname': u'UTC'}",-9999.0,-9999.0,320,NW,-9999.0,-9999.0,-999,-999,11.5,18.5
37,Partly Cloudy,"{u'mday': u'10', u'hour': u'19', u'min': u'00', u'mon': u'08', u'pretty': u'7:00 PM CEST on August 10, 2009', u'year': u'2009', u'tzname': u'Europe/Paris'}",57.2,14.0,0,0,-9999,-9999,50,partlycloudy,METAR LFPB 101700Z AUTO 31011KT 270V360 9999NDV FEW049 25/14 Q1016,-9999.00,-9999.00,30.01,1016,0,0,77.0,25.0,0,0,"{u'mday': u'10', u'hour': u'17', u'min': u'00', u'mon': u'08', u'pretty': u'5:00 PM GMT on August 10, 2009', u'year': u'2009', u'tzname': u'UTC'}",6.2,10.0,310,NW,-9999.0,-9999.0,-999,-999,12.7,20.4
38,Unknown,"{u'mday': u'10', u'hour': u'19', u'min': u'30', u'mon': u'08', u'pretty': u'7:30 PM CEST on August 10, 2009', u'year': u'2009', u'tzname': u'Europe/Paris'}",55.4,13.0,0,0,-9999,-9999,50,unknown,METAR LFPB 101730Z AUTO 32009KT 280V350 9999NDV NSC 24/13 Q1016,-9999.00,-9999.00,30.01,1016,0,0,75.2,24.0,0,0,"{u'mday': u'10', u'hour': u'17', u'min': u'30', u'mon': u'08', u'pretty': u'5:30 PM GMT on August 10, 2009', u'year': u'2009', u'tzname': u'UTC'}",6.2,10.0,320,NW,-9999.0,-9999.0,-999,-999,10.4,16.7
39,Unknown,"{u'mday': u'10', u'hour': u'20', u'min': u'00', u'mon': u'08', u'pretty': u'8:00 PM CEST on August 10, 2009', u'year': u'2009', u'tzname': u'Europe/Paris'}",55.4,13.0,0,0,-9999,-9999,50,unknown,METAR LFPB 101800Z AUTO 32008KT 280V350 9999NDV NSC 24/13 Q1016,-9999.00,-9999.00,30.01,1016,0,0,75.2,24.0,0,0,"{u'mday': u'10', u'hour': u'18', u'min': u'00', u'mon': u'08', u'pretty': u'6:00 PM GMT on August 10, 2009', u'year': u'2009', u'tzname': u'UTC'}",6.2,10.0,320,NW,-9999.0,-9999.0,-999,-999,9.2,14.8
40,Unknown,"{u'mday': u'10', u'hour': u'20', u'min': u'30', u'mon': u'08', u'pretty': u'8:30 PM CEST on August 10, 2009', u'year': u'2009', u'tzname': u'Europe/Paris'}",55.4,13.0,0,0,-9999,-9999,50,unknown,METAR LFPB 101830Z AUTO 32005KT 270V360 9999NDV NSC 24/13 Q1017,-9999.00,-9999.00,30.04,1017,0,0,75.2,24.0,0,0,"{u'mday': u'10', u'hour': u'18', u'min': u'30', u'mon': u'08', u'pretty': u'6:30 PM GMT on August 10, 2009', u'year': u'2009', u'tzname': u'UTC'}",6.2,10.0,320,NW,-9999.0,-9999.0,-999,-999,5.8,9.3
41,Unknown,"{u'mday': u'10', u'hour': u'21', u'min': u'00', u'mon': u'08', u'pretty': u'9:00 PM CEST on August 10, 2009', u'year': u'2009', u'tzname': u'Europe/Paris'}",55.4,13.0,0,0,-9999,-9999,53,unknown,METAR LFPB 101900Z AUTO 33006KT 300V360 9999NDV NSC 23/13 Q1017,-9999.00,-9999.00,30.04,1017,0,0,73.4,23.0,0,0,"{u'mday': u'10', u'hour': u'19', u'min': u'00', u'mon': u'08', u'pretty': u'7:00 PM GMT on August 10, 2009', u'year': u'2009', u'tzname': u'UTC'}",6.2,10.0,330,NNW,-9999.0,-9999.0,-999,-999,6.9,11.1
42,Unknown,"{u'mday': u'10', u'hour': u'21', u'min': u'30', u'mon': u'08', u'pretty': u'9:30 PM CEST on August 10, 2009', u'year': u'2009', u'tzname': u'Europe/Paris'}",55.4,13.0,0,0,-9999,-9999,53,unknown,METAR LFPB 101930Z AUTO 32006KT 280V360 9999NDV NSC 23/13 Q1017,-9999.00,-9999.00,30.04,1017,0,0,73.4,23.0,0,0,"{u'mday': u'10', u'hour': u'19', u'min': u'30', u'mon': u'08', u'pretty': u'7:30 PM GMT on August 10, 2009', u'year': u'2009', u'tzname': u'UTC'}",6.2,10.0,320,NW,-9999.0,-9999.0,-999,-999,6.9,11.1
43,Unknown,"{u'mday': u'10', u'hour': u'22', u'min': u'00', u'mon': u'08', u'pretty': u'10:00 PM CEST on August 10, 2009', u'year': u'2009', u'tzname': u'Europe/Paris'}",55.4,13.0,0,0,-9999,-9999,57,unknown,METAR LFPB 102000Z AUTO 32007KT 290V350 9999NDV NSC 22/13 Q1018,-9999.00,-9999.00,30.06,1018,0,0,71.6,22.0,0,0,"{u'mday': u'10', u'hour': u'20', u'min': u'00', u'mon': u'08', u'pretty': u'8:00 PM GMT on August 10, 2009', u'year': u'2009', u'tzname': u'UTC'}",6.2,10.0,320,NW,-9999.0,-9999.0,-999,-999,8.1,13.0
44,Unknown,"{u'mday': u'10', u'hour': u'22', u'min': u'30', u'mon': u'08', u'pretty': u'10:30 PM CEST on August 10, 2009', u'year': u'2009', u'tzname': u'Europe/Paris'}",55.4,13.0,0,0,-9999,-9999,57,unknown,METAR LFPB 102030Z AUTO 32007KT 280V350 9999NDV NSC 22/13 Q1018,-9999.00,-9999.00,30.06,1018,0,0,71.6,22.0,0,0,"{u'mday': u'10', u'hour': u'20', u'min': u'30', u'mon': u'08', u'pretty': u'8:30 PM GMT on August 10, 2009', u'year': u'2009', u'tzname': u'UTC'}",6.2,10.0,320,NW,-9999.0,-9999.0,-999,-999,8.1,13.0
45,Mostly Cloudy,"{u'mday': u'10', u'hour': u'23', u'min': u'00', u'mon': u'08', u'pretty': u'11:00 PM CEST on August 10, 2009', u'year': u'2009', u'tzname': u'Europe/Paris'}",55.4,13.0,0,0,-9999,-9999,60,mostlycloudy,METAR LFPB 102100Z AUTO 30007KT 270V010 9999NDV BKN048 21/13 Q1018,-9999.00,-9999.00,30.06,1018,0,0,69.8,21.0,0,0,"{u'mday': u'10', u'hour': u'21', u'min': u'00', u'mon': u'08', u'pretty': u'9:00 PM GMT on August 10, 2009', u'year': u'2009', u'tzname': u'UTC'}",6.2,10.0,300,WNW,-9999.0,-9999.0,-999,-999,8.1,13.0
46,Mostly Cloudy,"{u'mday': u'10', u'hour': u'23', u'min': u'30', u'mon': u'08', u'pretty': u'11:30 PM CEST on August 10, 2009', u'year': u'2009', u'tzname': u'Europe/Paris'}",55.4,13.0,0,0,-9999,-9999,60,mostlycloudy,METAR LFPB 102130Z AUTO 31006KT 280V340 9999NDV FEW032 BKN047 21/13 Q1018,-9999.00,-9999.00,30.06,1018,0,0,69.8,21.0,0,0,"{u'mday': u'10', u'hour': u'21', u'min': u'30', u'mon': u'08', u'pretty': u'9:30 PM GMT on August 10, 2009', u'year': u'2009', u'tzname': u'UTC'}",6.2,10.0,310,NW,-9999.0,-9999.0,-999,-999,6.9,11.1
0,Mostly Cloudy,"{u'mday': u'11', u'hour': u'00', u'min': u'00', u'mon': u'08', u'pretty': u'12:00 AM CEST on August 11, 2009', u'year': u'2009', u'tzname': u'Europe/Paris'}",55.4,13.0,0,0,-9999,-9999,60,mostlycloudy,METAR LFPB 102200Z AUTO 31006KT 270V360 9999NDV BKN043 21/13 Q1018,-9999.00,-9999.00,30.06,1018,0,0,69.8,21.0,0,0,"{u'mday': u'10', u'hour': u'22', u'min': u'00', u'mon': u'08', u'pretty': u'10:00 PM GMT on August 10, 2009', u'year': u'2009', u'tzname': u'UTC'}",6.2,10.0,310,NW,-9999.0,-9999.0,-999,-999,6.9,11.1
1,Overcast,"{u'mday': u'11', u'hour': u'00', u'min': u'30', u'mon': u'08', u'pretty': u'12:30 AM CEST on August 11, 2009', u'year': u'2009', u'tzname': u'Europe/Paris'}",55.4,13.0,0,0,-9999,-9999,60,cloudy,METAR LFPB 102230Z AUTO 31004KT 280V350 9999NDV OVC040 21/13 Q1018,-9999.00,-9999.00,30.06,1018,0,0,69.8,21.0,0,0,"{u'mday': u'10', u'hour': u'22', u'min': u'30', u'mon': u'08', u'pretty': u'10:30 PM GMT on August 10, 2009', u'year': u'2009', u'tzname': u'UTC'}",6.2,10.0,310,NW,-9999.0,-9999.0,-999,-999,4.6,7.4
2,Mostly Cloudy,"{u'mday': u'11', u'hour': u'01', u'min': u'00', u'mon': u'08', u'pretty': u'1:00 AM CEST on August 11, 2009', u'year': u'2009', u'tzname': u'Europe/Paris'}",55.4,13.0,0,0,-9999,-9999,64,mostlycloudy,METAR LFPB 102300Z AUTO 30004KT 9999NDV BKN038 BKN044 20/13 Q1018,-9999.00,-9999.00,30.06,1018,0,0,68.0,20.0,0,0,"{u'mday': u'10', u'hour': u'23', u'min': u'00', u'mon': u'08', u'pretty': u'11:00 PM GMT on August 10, 2009', u'year': u'2009', u'tzname': u'UTC'}",6.2,10.0,300,WNW,-9999.0,-9999.0,-999,-999,4.6,7.4
3,Mostly Cloudy,"{u'mday': u'11', u'hour': u'01', u'min': u'30', u'mon': u'08', u'pretty': u'1:30 AM CEST on August 11, 2009', u'year': u'2009', u'tzname': u'Europe/Paris'}",59.0,15.0,0,0,-9999,-9999,83,mostlycloudy,METAR LFPB 102330Z AUTO 29003KT 9999NDV FEW024 BKN034 BKN043 18/15 Q1018,-9999.00,-9999.00,30.06,1018,0,0,64.4,18.0,0,0,"{u'mday': u'10', u'hour': u'23', u'min': u'30', u'mon': u'08', u'pretty': u'11:30 PM GMT on August 10, 2009', u'year': u'2009', u'tzname': u'UTC'}",6.2,10.0,290,WNW,-9999.0,-9999.0,-999,-999,3.5,5.6
4,Overcast,"{u'mday': u'11', u'hour': u'02', u'min': u'00', u'mon': u'08', u'pretty': u'2:00 AM CEST on August 11, 2009', u'year': u'2009', u'tzname': u'Europe/Paris'}",60.8,16.0,0,0,-9999,-9999,83,cloudy,METAR LFPB 110000Z AUTO VRB02KT 9999NDV OVC031 19/16 Q1018,-9999.00,-9999.00,30.06,1018,0,0,66.2,19.0,0,0,"{u'mday': u'11', u'hour': u'00', u'min': u'00', u'mon': u'08', u'pretty': u'12:00 AM GMT on August 11, 2009', u'year': u'2009', u'tzname': u'UTC'}",6.2,10.0,0,Variable,-9999.0,-9999.0,-999,-999,2.3,3.7
5,Overcast,"{u'mday': u'11', u'hour': u'02', u'min': u'30', u'mon': u'08', u'pretty': u'2:30 AM CEST on August 11, 2009', u'year': u'2009', u'tzname': u'Europe/Paris'}",60.8,16.0,0,0,-9999,-9999,83,cloudy,METAR LFPB 110030Z AUTO VRB03KT 9999NDV OVC030 19/16 Q1019,-9999.00,-9999.00,30.09,1019,0,0,66.2,19.0,0,0,"{u'mday': u'11', u'hour': u'00', u'min': u'30', u'mon': u'08', u'pretty': u'12:30 AM GMT on August 11, 2009', u'year': u'2009', u'tzname': u'UTC'}",6.2,10.0,0,Variable,-9999.0,-9999.0,-999,-999,3.5,5.6
6,Overcast,"{u'mday': u'11', u'hour': u'03', u'min': u'00', u'mon': u'08', u'pretty': u'3:00 AM CEST on August 11, 2009', u'year': u'2009', u'tzname': u'Europe/Paris'}",59.0,15.0,0,0,-9999,-9999,73,cloudy,METAR LFPB 110100Z AUTO 26005KT 230V300 9999NDV OVC027 20/15 Q1018,-9999.00,-9999.00,30.06,1018,0,0,68.0,20.0,0,0,"{u'mday': u'11', u'hour': u'01', u'min': u'00', u'mon': u'08', u'pretty': u'1:00 AM GMT on August 11, 2009', u'year': u'2009', u'tzname': u'UTC'}",6.2,10.0,260,West,-9999.0,-9999.0,-999,-999,5.8,9.3
7,Overcast,"{u'mday': u'11', u'hour': u'03', u'min': u'30', u'mon': u'08', u'pretty': u'3:30 AM CEST on August 11, 2009', u'year': u'2009', u'tzname': u'Europe/Paris'}",59.0,15.0,0,0,-9999,-9999,73,cloudy,METAR LFPB 110130Z AUTO 26006KT 220V290 9999NDV BKN026 OVC032 20/15 Q1019,-9999.00,-9999.00,30.09,1019,0,0,68.0,20.0,0,0,"{u'mday': u'11', u'hour': u'01', u'min': u'30', u'mon': u'08', u'pretty': u'1:30 AM GMT on August 11, 2009', u'year': u'2009', u'tzname': u'UTC'}",6.2,10.0,260,West,-9999.0,-9999.0,-999,-999,6.9,11.1
8,Overcast,"{u'mday': u'11', u'hour': u'04', u'min': u'00', u'mon': u'08', u'pretty': u'4:00 AM CEST on August 11, 2009', u'year': u'2009', u'tzname': u'Europe/Paris'}",59.0,15.0,0,0,-9999,-9999,73,cloudy,METAR LFPB 110200Z AUTO 27007KT 9999NDV OVC028 20/15 Q1019,-9999.00,-9999.00,30.09,1019,0,0,68.0,20.0,0,0,"{u'mday': u'11', u'hour': u'02', u'min': u'00', u'mon': u'08', u'pretty': u'2:00 AM GMT on August 11, 2009', u'year': u'2009', u'tzname': u'UTC'}",6.2,10.0,270,West,-9999.0,-9999.0,-999,-999,8.1,13.0
9,Overcast,"{u'mday': u'11', u'hour': u'04', u'min': u'30', u'mon': u'08', u'pretty': u'4:30 AM CEST on August 11, 2009', u'year': u'2009', u'tzname': u'Europe/Paris'}",59.0,15.0,0,0,-9999,-9999,73,cloudy,METAR LFPB 110230Z AUTO 28009KT 9999NDV FEW019 OVC026 20/15 Q1018,-9999.00,-9999.00,30.06,1018,0,0,68.0,20.0,0,0,"{u'mday': u'11', u'hour': u'02', u'min': u'30', u'mon': u'08', u'pretty': u'2:30 AM GMT on August 11, 2009', u'year': u'2009', u'tzname': u'UTC'}",6.2,10.0,280,West,-9999.0,-9999.0,-999,-999,10.4,16.7
10,Mostly Cloudy,"{u'mday': u'11', u'hour': u'05', u'min': u'00', u'mon': u'08', u'pretty': u'5:00 AM CEST on August 11, 2009', u'year': u'2009', u'tzname': u'Europe/Paris'}",59.0,15.0,0,0,-9999,-9999,73,mostlycloudy,METAR LFPB 110300Z AUTO 28006KT 250V320 9999NDV BKN020 BKN025 BKN033 20/15 Q1019,-9999.00,-9999.00,30.09,1019,0,0,68.0,20.0,0,0,"{u'mday': u'11', u'hour': u'03', u'min': u'00', u'mon': u'08', u'pretty': u'3:00 AM GMT on August 11, 2009', u'year': u'2009', u'tzname': u'UTC'}",6.2,10.0,280,West,-9999.0,-9999.0,-999,-999,6.9,11.1
11,Mostly Cloudy,"{u'mday': u'11', u'hour': u'05', u'min': u'30', u'mon': u'08', u'pretty': u'5:30 AM CEST on August 11, 2009', u'year': u'2009', u'tzname': u'Europe/Paris'}",59.0,15.0,0,0,-9999,-9999,78,mostlycloudy,METAR LFPB 110330Z AUTO 27005KT 9999NDV FEW011 BKN020 BKN025 19/15 Q1019,-9999.00,-9999.00,30.09,1019,0,0,66.2,19.0,0,0,"{u'mday': u'11', u'hour': u'03', u'min': u'30', u'mon': u'08', u'pretty': u'3:30 AM GMT on August 11, 2009', u'year': u'2009', u'tzname': u'UTC'}",6.2,10.0,270,West,-9999.0,-9999.0,-999,-999,5.8,9.3
12,Overcast,"{u'mday': u'11', u'hour': u'06', u'min': u'00', u'mon': u'08', u'pretty': u'6:00 AM CEST on August 11, 2009', u'year': u'2009', u'tzname': u'Europe/Paris'}",59.0,15.0,0,0,-9999,-9999,78,cloudy,METAR LFPB 110400Z AUTO 27007KT 240V300 9999NDV BKN020 BKN026 OVC047 19/15 Q1019,-9999.00,-9999.00,30.09,1019,0,0,66.2,19.0,0,0,"{u'mday': u'11', u'hour': u'04', u'min': u'00', u'mon': u'08', u'pretty': u'4:00 AM GMT on August 11, 2009', u'year': u'2009', u'tzname': u'UTC'}",6.2,10.0,270,West,-9999.0,-9999.0,-999,-999,8.1,13.0
13,Mostly Cloudy,"{u'mday': u'11', u'hour': u'06', u'min': u'30', u'mon': u'08', u'pretty': u'6:30 AM CEST on August 11, 2009', u'year': u'2009', u'tzname': u'Europe/Paris'}",59.0,15.0,0,0,-9999,-9999,78,mostlycloudy,METAR LFPB 110430Z 26005KT 240V300 9999 FEW010 BKN018 BKN024 19/15 Q1019,-9999.00,-9999.00,30.09,1019,0,0,66.2,19.0,0,0,"{u'mday': u'11', u'hour': u'04', u'min': u'30', u'mon': u'08', u'pretty': u'4:30 AM GMT on August 11, 2009', u'year': u'2009', u'tzname': u'UTC'}",6.2,10.0,260,West,-9999.0,-9999.0,-999,-999,5.8,9.3
14,Mostly Cloudy,"{u'mday': u'11', u'hour': u'07', u'min': u'00', u'mon': u'08', u'pretty': u'7:00 AM CEST on August 11, 2009', u'year': u'2009', u'tzname': u'Europe/Paris'}",59.0,15.0,0,0,-9999,-9999,78,mostlycloudy,METAR LFPB 110500Z 27007KT 9999 SCT018 BKN021 19/15 Q1019 TEMPO 4000 -DZ BKN012 BKN020,-9999.00,-9999.00,30.09,1019,0,0,66.2,19.0,0,0,"{u'mday': u'11', u'hour': u'05', u'min': u'00', u'mon': u'08', u'pretty': u'5:00 AM GMT on August 11, 2009', u'year': u'2009', u'tzname': u'UTC'}",6.2,10.0,270,West,-9999.0,-9999.0,-999,-999,8.1,13.0
15,Mostly Cloudy,"{u'mday': u'11', u'hour': u'07', u'min': u'30', u'mon': u'08', u'pretty': u'7:30 AM CEST on August 11, 2009', u'year': u'2009', u'tzname': u'Europe/Paris'}",60.8,16.0,0,0,-9999,-9999,83,mostlycloudy,METAR LFPB 110530Z 28006KT 250V320 9999 FEW017 BKN025 BKN050 19/16 Q1019 TEMPO 4000 -DZ BKN012 BKN020,-9999.00,-9999.00,30.09,1019,0,0,66.2,19.0,0,0,"{u'mday': u'11', u'hour': u'05', u'min': u'30', u'mon': u'08', u'pretty': u'5:30 AM GMT on August 11, 2009', u'year': u'2009', u'tzname': u'UTC'}",6.2,10.0,280,West,-9999.0,-9999.0,-999,-999,6.9,11.1
16,Mostly Cloudy,"{u'mday': u'11', u'hour': u'08', u'min': u'00', u'mon': u'08', u'pretty': u'8:00 AM CEST on August 11, 2009', u'year': u'2009', u'tzname': u'Europe/Paris'}",60.8,16.0,0,0,-9999,-9999,83,mostlycloudy,METAR LFPB 110600Z 28010KT 260V320 9999 BKN015 BKN021 19/16 Q1019 TEMPO 4000 -DZ BKN012 BKN020,-9999.00,-9999.00,30.09,1019,0,0,66.2,19.0,0,0,"{u'mday': u'11', u'hour': u'06', u'min': u'00', u'mon': u'08', u'pretty': u'6:00 AM GMT on August 11, 2009', u'year': u'2009', u'tzname': u'UTC'}",6.2,10.0,280,West,-9999.0,-9999.0,-999,-999,11.5,18.5
17,Mostly Cloudy,"{u'mday': u'11', u'hour': u'08', u'min': u'30', u'mon': u'08', u'pretty': u'8:30 AM CEST on August 11, 2009', u'year': u'2009', u'tzname': u'Europe/Paris'}",59.0,15.0,0,0,-9999,-9999,78,mostlycloudy,METAR LFPB 110630Z 28007KT 9999 BKN015 19/15 Q1020 TEMPO 4000 -DZ BKN012 BKN020,-9999.00,-9999.00,30.12,1020,0,0,66.2,19.0,0,0,"{u'mday': u'11', u'hour': u'06', u'min': u'30', u'mon': u'08', u'pretty': u'6:30 AM GMT on August 11, 2009', u'year': u'2009', u'tzname': u'UTC'}",6.2,10.0,280,West,-9999.0,-9999.0,-999,-999,8.1,13.0
18,Mostly Cloudy,"{u'mday': u'11', u'hour': u'09', u'min': u'00', u'mon': u'08', u'pretty': u'9:00 AM CEST on August 11, 2009', u'year': u'2009', u'tzname': u'Europe/Paris'}",59.0,15.0,0,0,-9999,-9999,73,mostlycloudy,METAR LFPB 110700Z 30006KT 260V350 9999 VCSH FEW011 BKN015 20/15 Q1020 TEMPO 4000 -DZ BKN012 BKN020,-9999.00,-9999.00,30.12,1020,0,0,68.0,20.0,0,0,"{u'mday': u'11', u'hour': u'07', u'min': u'00', u'mon': u'08', u'pretty': u'7:00 AM GMT on August 11, 2009', u'year': u'2009', u'tzname': u'UTC'}",6.2,10.0,300,WNW,-9999.0,-9999.0,-999,-999,6.9,11.1
19,Light Drizzle,"{u'mday': u'11', u'hour': u'09', u'min': u'30', u'mon': u'08', u'pretty': u'9:30 AM CEST on August 11, 2009', u'year': u'2009', u'tzname': u'Europe/Paris'}",60.8,16.0,0,0,-9999,-9999,88,rain,METAR LFPB 110730Z 34008KT 300V360 9999 4500N -DZ FEW006 BKN015 18/16 Q1020 TEMPO 4000 -DZ BKN012 BKN020,-9999.00,-9999.00,30.12,1020,0,0,64.4,18.0,0,0,"{u'mday': u'11', u'hour': u'07', u'min': u'30', u'mon': u'08', u'pretty': u'7:30 AM GMT on August 11, 2009', u'year': u'2009', u'tzname': u'UTC'}",6.2,10.0,340,NNW,-9999.0,-9999.0,-999,-999,9.2,14.8
20,Light Drizzle,"{u'mday': u'11', u'hour': u'10', u'min': u'00', u'mon': u'08', u'pretty': u'10:00 AM CEST on August 11, 2009', u'year': u'2009', u'tzname': u'Europe/Paris'}",60.8,16.0,0,0,-9999,-9999,88,rain,METAR LFPB 110800Z 32005KT 280V350 9999 -DZ SCT012 BKN015 18/16 Q1020 TEMPO 4000 -DZ BKN012 BKN020,-9999.00,-9999.00,30.12,1020,0,0,64.4,18.0,0,0,"{u'mday': u'11', u'hour': u'08', u'min': u'00', u'mon': u'08', u'pretty': u'8:00 AM GMT on August 11, 2009', u'year': u'2009', u'tzname': u'UTC'}",6.2,10.0,320,NW,-9999.0,-9999.0,-999,-999,5.8,9.3
21,Mostly Cloudy,"{u'mday': u'11', u'hour': u'10', u'min': u'30', u'mon': u'08', u'pretty': u'10:30 AM CEST on August 11, 2009', u'year': u'2009', u'tzname': u'Europe/Paris'}",60.8,16.0,0,0,-9999,-9999,88,mostlycloudy,METAR LFPB 110830Z VRB02KT 9999 FEW006 BKN017 18/16 Q1021 TEMPO 4000 -DZ BKN012 BKN020,-9999.00,-9999.00,30.15,1021,0,0,64.4,18.0,0,0,"{u'mday': u'11', u'hour': u'08', u'min': u'30', u'mon': u'08', u'pretty': u'8:30 AM GMT on August 11, 2009', u'year': u'2009', u'tzname': u'UTC'}",6.2,10.0,0,Variable,-9999.0,-9999.0,-999,-999,2.3,3.7
22,Light Drizzle,"{u'mday': u'11', u'hour': u'11', u'min': u'10', u'mon': u'08', u'pretty': u'11:10 AM CEST on August 11, 2009', u'year': u'2009', u'tzname': u'Europe/Paris'}",60.8,16.0,0,0,-9999,-9999,83,rain,METAR LFPB 110910Z 31005KT 260V360 9999 -DZ FEW006 SCT013 BKN021 19/16 Q1021 TEMPO 4000 -DZ BKN012 BKN020,-9999.00,-9999.00,30.15,1021,0,0,66.2,19.0,0,0,"{u'mday': u'11', u'hour': u'09', u'min': u'10', u'mon': u'08', u'pretty': u'9:10 AM GMT on August 11, 2009', u'year': u'2009', u'tzname': u'UTC'}",6.2,10.0,310,NW,-9999.0,-9999.0,-999,-999,5.8,9.3
23,Light Drizzle,"{u'mday': u'11', u'hour': u'11', u'min': u'30', u'mon': u'08', u'pretty': u'11:30 AM CEST on August 11, 2009', u'year': u'2009', u'tzname': u'Europe/Paris'}",60.8,16.0,0,0,-9999,-9999,83,rain,METAR LFPB 110930Z 29005KT 260V340 9999 -DZ FEW008 BKN013 OVC021 19/16 Q1021 BECMG BKN015 BKN025,-9999.00,-9999.00,30.15,1021,0,0,66.2,19.0,0,0,"{u'mday': u'11', u'hour': u'09', u'min': u'30', u'mon': u'08', u'pretty': u'9:30 AM GMT on August 11, 2009', u'year': u'2009', u'tzname': u'UTC'}",6.2,10.0,290,WNW,-9999.0,-9999.0,-999,-999,5.8,9.3
24,Mostly Cloudy,"{u'mday': u'11', u'hour': u'12', u'min': u'00', u'mon': u'08', u'pretty': u'12:00 PM CEST on August 11, 2009', u'year': u'2009', u'tzname': u'Europe/Paris'}",60.8,16.0,0,0,-9999,-9999,78,mostlycloudy,METAR LFPB 111000Z 29006KT 260V330 9999 SCT012 BKN023 20/16 Q1021 BECMG BKN015 BKN025,-9999.00,-9999.00,30.15,1021,0,0,68.0,20.0,0,0,"{u'mday': u'11', u'hour': u'10', u'min': u'00', u'mon': u'08', u'pretty': u'10:00 AM GMT on August 11, 2009', u'year': u'2009', u'tzname': u'UTC'}",6.2,10.0,290,WNW,-9999.0,-9999.0,-999,-999,6.9,11.1
25,Mostly Cloudy,"{u'mday': u'11', u'hour': u'12', u'min': u'30', u'mon': u'08', u'pretty': u'12:30 PM CEST on August 11, 2009', u'year': u'2009', u'tzname': u'Europe/Paris'}",60.8,16.0,0,0,-9999,-9999,78,mostlycloudy,METAR LFPB 111030Z AUTO 31006KT 280V350 9999NDV BKN019 BKN025 BKN030 20/16 Q1021,-9999.00,-9999.00,30.15,1021,0,0,68.0,20.0,0,0,"{u'mday': u'11', u'hour': u'10', u'min': u'30', u'mon': u'08', u'pretty': u'10:30 AM GMT on August 11, 2009', u'year': u'2009', u'tzname': u'UTC'}",6.2,10.0,310,NW,-9999.0,-9999.0,-999,-999,6.9,11.1
26,Overcast,"{u'mday': u'11', u'hour': u'13', u'min': u'00', u'mon': u'08', u'pretty': u'1:00 PM CEST on August 11, 2009', u'year': u'2009', u'tzname': u'Europe/Paris'}",59.0,15.0,0,0,-9999,-9999,73,cloudy,METAR LFPB 111100Z 30006KT 260V340 9999 SCT016 OVC026 20/15 Q1021 NOSIG,-9999.00,-9999.00,30.15,1021,0,0,68.0,20.0,0,0,"{u'mday': u'11', u'hour': u'11', u'min': u'00', u'mon': u'08', u'pretty': u'11:00 AM GMT on August 11, 2009', u'year': u'2009', u'tzname': u'UTC'}",6.2,10.0,300,WNW,-9999.0,-9999.0,-999,-999,6.9,11.1
27,Mostly Cloudy,"{u'mday': u'11', u'hour': u'13', u'min': u'30', u'mon': u'08', u'pretty': u'1:30 PM CEST on August 11, 2009', u'year': u'2009', u'tzname': u'Europe/Paris'}",59.0,15.0,0,0,-9999,-9999,68,mostlycloudy,METAR LFPB 111130Z 26007KT 9999 SCT018 BKN030 21/15 Q1021 NOSIG,-9999.00,-9999.00,30.15,1021,0,0,69.8,21.0,0,0,"{u'mday': u'11', u'hour': u'11', u'min': u'30', u'mon': u'08', u'pretty': u'11:30 AM GMT on August 11, 2009', u'year': u'2009', u'tzname': u'UTC'}",6.2,10.0,260,West,-9999.0,-9999.0,-999,-999,8.1,13.0
28,Mostly Cloudy,"{u'mday': u'11', u'hour': u'14', u'min': u'00', u'mon': u'08', u'pretty': u'2:00 PM CEST on August 11, 2009', u'year': u'2009', u'tzname': u'Europe/Paris'}",59.0,15.0,0,0,-9999,-9999,64,mostlycloudy,METAR LFPB 111200Z 28008KT 250V320 9999 SCT026 BKN033 22/15 Q1021 NOSIG,-9999.00,-9999.00,30.15,1021,0,0,71.6,22.0,0,0,"{u'mday': u'11', u'hour': u'12', u'min': u'00', u'mon': u'08', u'pretty': u'12:00 PM GMT on August 11, 2009', u'year': u'2009', u'tzname': u'UTC'}",6.2,10.0,280,West,-9999.0,-9999.0,-999,-999,9.2,14.8
29,Mostly Cloudy,"{u'mday': u'11', u'hour': u'14', u'min': u'30', u'mon': u'08', u'pretty': u'2:30 PM CEST on August 11, 2009', u'year': u'2009', u'tzname': u'Europe/Paris'}",57.2,14.0,0,0,-9999,-9999,57,mostlycloudy,METAR LFPB 111230Z 28010KT 250V310 9999 SCT028 BKN036 23/14 Q1021 NOSIG,-9999.00,-9999.00,30.15,1021,0,0,73.4,23.0,0,0,"{u'mday': u'11', u'hour': u'12', u'min': u'30', u'mon': u'08', u'pretty': u'12:30 PM GMT on August 11, 2009', u'year': u'2009', u'tzname': u'UTC'}",6.2,10.0,280,West,-9999.0,-9999.0,-999,-999,11.5,18.5
30,Mostly Cloudy,"{u'mday': u'11', u'hour': u'15', u'min': u'00', u'mon': u'08', u'pretty': u'3:00 PM CEST on August 11, 2009', u'year': u'2009', u'tzname': u'Europe/Paris'}",57.2,14.0,0,0,-9999,-9999,53,mostlycloudy,METAR LFPB 111300Z 27008KT 230V310 9999 SCT033 BKN050 24/14 Q1021 NOSIG,-9999.00,-9999.00,30.15,1021,0,0,75.2,24.0,0,0,"{u'mday': u'11', u'hour': u'13', u'min': u'00', u'mon': u'08', u'pretty': u'1:00 PM GMT on August 11, 2009', u'year': u'2009', u'tzname': u'UTC'}",6.2,10.0,270,West,-9999.0,-9999.0,-999,-999,9.2,14.8
31,Mostly Cloudy,"{u'mday': u'11', u'hour': u'15', u'min': u'30', u'mon': u'08', u'pretty': u'3:30 PM CEST on August 11, 2009', u'year': u'2009', u'tzname': u'Europe/Paris'}",55.4,13.0,0,0,-9999,-9999,53,mostlycloudy,METAR LFPB 111330Z 28009KT 240V340 9999 FEW033 BKN050 23/13 Q1021 NOSIG,-9999.00,-9999.00,30.15,1021,0,0,73.4,23.0,0,0,"{u'mday': u'11', u'hour': u'13', u'min': u'30', u'mon': u'08', u'pretty': u'1:30 PM GMT on August 11, 2009', u'year': u'2009', u'tzname': u'UTC'}",6.2,10.0,280,West,-9999.0,-9999.0,-999,-999,10.4,16.7
32,Mostly Cloudy,"{u'mday': u'11', u'hour': u'16', u'min': u'00', u'mon': u'08', u'pretty': u'4:00 PM CEST on August 11, 2009', u'year': u'2009', u'tzname': u'Europe/Paris'}",55.4,13.0,0,0,-9999,-9999,50,mostlycloudy,METAR LFPB 111400Z 26009KT 210V310 9999 FEW036 BKN050 24/13 Q1021 NOSIG,-9999.00,-9999.00,30.15,1021,0,0,75.2,24.0,0,0,"{u'mday': u'11', u'hour': u'14', u'min': u'00', u'mon': u'08', u'pretty': u'2:00 PM GMT on August 11, 2009', u'year': u'2009', u'tzname': u'UTC'}",6.2,10.0,260,West,-9999.0,-9999.0,-999,-999,10.4,16.7
33,Mostly Cloudy,"{u'mday': u'11', u'hour': u'16', u'min': u'30', u'mon': u'08', u'pretty': u'4:30 PM CEST on August 11, 2009', u'year': u'2009', u'tzname': u'Europe/Paris'}",55.4,13.0,0,0,-9999,-9999,50,mostlycloudy,METAR LFPB 111430Z 29008KT 260V340 9999 FEW036 BKN050 24/13 Q1021 NOSIG,-9999.00,-9999.00,30.15,1021,0,0,75.2,24.0,0,0,"{u'mday': u'11', u'hour': u'14', u'min': u'30', u'mon': u'08', u'pretty': u'2:30 PM GMT on August 11, 2009', u'year': u'2009', u'tzname': u'UTC'}",6.2,10.0,290,WNW,-9999.0,-9999.0,-999,-999,9.2,14.8
34,Mostly Cloudy,"{u'mday': u'11', u'hour': u'17', u'min': u'00', u'mon': u'08', u'pretty': u'5:00 PM CEST on August 11, 2009', u'year': u'2009', u'tzname': u'Europe/Paris'}",53.6,12.0,0,0,-9999,-9999,47,mostlycloudy,METAR LFPB 111500Z 28008KT 240V330 9999 FEW040 BKN050 24/12 Q1021 NOSIG,-9999.00,-9999.00,30.15,1021,0,0,75.2,24.0,0,0,"{u'mday': u'11', u'hour': u'15', u'min': u'00', u'mon': u'08', u'pretty': u'3:00 PM GMT on August 11, 2009', u'year': u'2009', u'tzname': u'UTC'}",6.2,10.0,280,West,-9999.0,-9999.0,-999,-999,9.2,14.8
35,Mostly Cloudy,"{u'mday': u'11', u'hour': u'17', u'min': u'30', u'mon': u'08', u'pretty': u'5:30 PM CEST on August 11, 2009', u'year': u'2009', u'tzname': u'Europe/Paris'}",53.6,12.0,0,0,-9999,-9999,47,mostlycloudy,METAR LFPB 111530Z 28007KT 250V320 9999 FEW040 BKN050 24/12 Q1021 NOSIG,-9999.00,-9999.00,30.15,1021,0,0,75.2,24.0,0,0,"{u'mday': u'11', u'hour': u'15', u'min': u'30', u'mon': u'08', u'pretty': u'3:30 PM GMT on August 11, 2009', u'year': u'2009', u'tzname': u'UTC'}",6.2,10.0,280,West,-9999.0,-9999.0,-999,-999,8.1,13.0
36,Mostly Cloudy,"{u'mday': u'11', u'hour': u'18', u'min': u'00', u'mon': u'08', u'pretty': u'6:00 PM CEST on August 11, 2009', u'year': u'2009', u'tzname': u'Europe/Paris'}",57.2,14.0,0,0,-9999,-9999,53,mostlycloudy,METAR LFPB 111600Z 29006KT 270V010 9999 FEW040 BKN050 24/14 Q1021 NOSIG,-9999.00,-9999.00,30.15,1021,0,0,75.2,24.0,0,0,"{u'mday': u'11', u'hour': u'16', u'min': u'00', u'mon': u'08', u'pretty': u'4:00 PM GMT on August 11, 2009', u'year': u'2009', u'tzname': u'UTC'}",6.2,10.0,290,WNW,-9999.0,-9999.0,-999,-999,6.9,11.1
37,Scattered Clouds,"{u'mday': u'11', u'hour': u'18', u'min': u'30', u'mon': u'08', u'pretty': u'6:30 PM CEST on August 11, 2009', u'year': u'2009', u'tzname': u'Europe/Paris'}",55.4,13.0,0,0,-9999,-9999,50,partlycloudy,METAR LFPB 111630Z 30007KT 270V340 9999 FEW040 SCT050 24/13 Q1021 NOSIG,-9999.00,-9999.00,30.15,1021,0,0,75.2,24.0,0,0,"{u'mday': u'11', u'hour': u'16', u'min': u'30', u'mon': u'08', u'pretty': u'4:30 PM GMT on August 11, 2009', u'year': u'2009', u'tzname': u'UTC'}",6.2,10.0,300,WNW,-9999.0,-9999.0,-999,-999,8.1,13.0
38,Partly Cloudy,"{u'mday': u'11', u'hour': u'19', u'min': u'00', u'mon': u'08', u'pretty': u'7:00 PM CEST on August 11, 2009', u'year': u'2009', u'tzname': u'Europe/Paris'}",55.4,13.0,0,0,-9999,-9999,50,partlycloudy,METAR LFPB 111700Z AUTO 32005KT 270V010 9999NDV FEW041 24/13 Q1021,-9999.00,-9999.00,30.15,1021,0,0,75.2,24.0,0,0,"{u'mday': u'11', u'hour': u'17', u'min': u'00', u'mon': u'08', u'pretty': u'5:00 PM GMT on August 11, 2009', u'year': u'2009', u'tzname': u'UTC'}",6.2,10.0,320,NW,-9999.0,-9999.0,-999,-999,5.8,9.3
39,Partly Cloudy,"{u'mday': u'11', u'hour': u'19', u'min': u'30', u'mon': u'08', u'pretty': u'7:30 PM CEST on August 11, 2009', u'year': u'2009', u'tzname': u'Europe/Paris'}",57.2,14.0,0,0,-9999,-9999,53,partlycloudy,METAR LFPB 111730Z AUTO 32006KT 280V360 9999NDV FEW042 24/14 Q1021,-9999.00,-9999.00,30.15,1021,0,0,75.2,24.0,0,0,"{u'mday': u'11', u'hour': u'17', u'min': u'30', u'mon': u'08', u'pretty': u'5:30 PM GMT on August 11, 2009', u'year': u'2009', u'tzname': u'UTC'}",6.2,10.0,320,NW,-9999.0,-9999.0,-999,-999,6.9,11.1
40,Unknown,"{u'mday': u'11', u'hour': u'20', u'min': u'00', u'mon': u'08', u'pretty': u'8:00 PM CEST on August 11, 2009', u'year': u'2009', u'tzname': u'Europe/Paris'}",55.4,13.0,0,0,-9999,-9999,53,unknown,METAR LFPB 111800Z AUTO 31006KT 280V360 9999NDV NSC 23/13 Q1021,-9999.00,-9999.00,30.15,1021,0,0,73.4,23.0,0,0,"{u'mday': u'11', u'hour': u'18', u'min': u'00', u'mon': u'08', u'pretty': u'6:00 PM GMT on August 11, 2009', u'year': u'2009', u'tzname': u'UTC'}",6.2,10.0,310,NW,-9999.0,-9999.0,-999,-999,6.9,11.1
41,Unknown,"{u'mday': u'11', u'hour': u'20', u'min': u'30', u'mon': u'08', u'pretty': u'8:30 PM CEST on August 11, 2009', u'year': u'2009', u'tzname': u'Europe/Paris'}",57.2,14.0,0,0,-9999,-9999,57,unknown,METAR LFPB 111830Z AUTO 32006KT 280V350 9999NDV NSC 23/14 Q1021,-9999.00,-9999.00,30.15,1021,0,0,73.4,23.0,0,0,"{u'mday': u'11', u'hour': u'18', u'min': u'30', u'mon': u'08', u'pretty': u'6:30 PM GMT on August 11, 2009', u'year': u'2009', u'tzname': u'UTC'}",6.2,10.0,320,NW,-9999.0,-9999.0,-999,-999,6.9,11.1
42,Unknown,"{u'mday': u'11', u'hour': u'21', u'min': u'00', u'mon': u'08', u'pretty': u'9:00 PM CEST on August 11, 2009', u'year': u'2009', u'tzname': u'Europe/Paris'}",57.2,14.0,0,0,-9999,-9999,60,unknown,METAR LFPB 111900Z AUTO 31004KT 270V350 9999NDV NSC 22/14 Q1021,-9999.00,-9999.00,30.15,1021,0,0,71.6,22.0,0,0,"{u'mday': u'11', u'hour': u'19', u'min': u'00', u'mon': u'08', u'pretty': u'7:00 PM GMT on August 11, 2009', u'year': u'2009', u'tzname': u'UTC'}",6.2,10.0,310,NW,-9999.0,-9999.0,-999,-999,4.6,7.4
43,Unknown,"{u'mday': u'11', u'hour': u'21', u'min': u'30', u'mon': u'08', u'pretty': u'9:30 PM CEST on August 11, 2009', u'year': u'2009', u'tzname': u'Europe/Paris'}",57.2,14.0,0,0,-9999,-9999,64,unknown,METAR LFPB 111930Z AUTO 31004KT 280V350 9999NDV NSC 21/14 Q1022,-9999.00,-9999.00,30.18,1022,0,0,69.8,21.0,0,0,"{u'mday': u'11', u'hour': u'19', u'min': u'30', u'mon': u'08', u'pretty': u'7:30 PM GMT on August 11, 2009', u'year': u'2009', u'tzname': u'UTC'}",6.2,10.0,310,NW,-9999.0,-9999.0,-999,-999,4.6,7.4
44,Unknown,"{u'mday': u'11', u'hour': u'22', u'min': u'00', u'mon': u'08', u'pretty': u'10:00 PM CEST on August 11, 2009', u'year': u'2009', u'tzname': u'Europe/Paris'}",57.2,14.0,0,0,-9999,-9999,64,unknown,METAR LFPB 112000Z AUTO 33004KT 9999NDV NSC 21/14 Q1022,-9999.00,-9999.00,30.18,1022,0,0,69.8,21.0,0,0,"{u'mday': u'11', u'hour': u'20', u'min': u'00', u'mon': u'08', u'pretty': u'8:00 PM GMT on August 11, 2009', u'year': u'2009', u'tzname': u'UTC'}",6.2,10.0,330,NNW,-9999.0,-9999.0,-999,-999,4.6,7.4
45,Unknown,"{u'mday': u'11', u'hour': u'22', u'min': u'30', u'mon': u'08', u'pretty': u'10:30 PM CEST on August 11, 2009', u'year': u'2009', u'tzname': u'Europe/Paris'}",57.2,14.0,0,0,-9999,-9999,68,unknown,METAR LFPB 112030Z AUTO 33004KT 290V350 9999NDV NSC 20/14 Q1022,-9999.00,-9999.00,30.18,1022,0,0,68.0,20.0,0,0,"{u'mday': u'11', u'hour': u'20', u'min': u'30', u'mon': u'08', u'pretty': u'8:30 PM GMT on August 11, 2009', u'year': u'2009', u'tzname': u'UTC'}",6.2,10.0,330,NNW,-9999.0,-9999.0,-999,-999,4.6,7.4
46,Unknown,"{u'mday': u'11', u'hour': u'23', u'min': u'00', u'mon': u'08', u'pretty': u'11:00 PM CEST on August 11, 2009', u'year': u'2009', u'tzname': u'Europe/Paris'}",57.2,14.0,0,0,-9999,-9999,73,unknown,METAR LFPB 112100Z AUTO 33003KT 9999NDV NSC 19/14 Q1022,-9999.00,-9999.00,30.18,1022,0,0,66.2,19.0,0,0,"{u'mday': u'11', u'hour': u'21', u'min': u'00', u'mon': u'08', u'pretty': u'9:00 PM GMT on August 11, 2009', u'year': u'2009', u'tzname': u'UTC'}",6.2,10.0,330,NNW,-9999.0,-9999.0,-999,-999,3.5,5.6
47,Unknown,"{u'mday': u'11', u'hour': u'23', u'min': u'30', u'mon': u'08', u'pretty': u'11:30 PM CEST on August 11, 2009', u'year': u'2009', u'tzname': u'Europe/Paris'}",57.2,14.0,0,0,-9999,-9999,73,unknown,METAR LFPB 112130Z AUTO 34004KT 9999NDV NSC 19/14 Q1022,-9999.00,-9999.00,30.18,1022,0,0,66.2,19.0,0,0,"{u'mday': u'11', u'hour': u'21', u'min': u'30', u'mon': u'08', u'pretty': u'9:30 PM GMT on August 11, 2009', u'year': u'2009', u'tzname': u'UTC'}",6.2,10.0,340,NNW,-9999.0,-9999.0,-999,-999,4.6,7.4
0,Unknown,"{u'mday': u'12', u'hour': u'00', u'min': u'00', u'mon': u'08', u'pretty': u'12:00 AM CEST on August 12, 2009', u'year': u'2009', u'tzname': u'Europe/Paris'}",57.2,14.0,0,0,-9999,-9999,77,unknown,METAR LFPB 112200Z AUTO 34004KT 300V360 9999NDV NSC 18/14 Q1022,-9999.00,-9999.00,30.18,1022,0,0,64.4,18.0,0,0,"{u'mday': u'11', u'hour': u'22', u'min': u'00', u'mon': u'08', u'pretty': u'10:00 PM GMT on August 11, 2009', u'year': u'2009', u'tzname': u'UTC'}",6.2,10.0,340,NNW,-9999.0,-9999.0,-999,-999,4.6,7.4
1,Unknown,"{u'mday': u'12', u'hour': u'00', u'min': u'30', u'mon': u'08', u'pretty': u'12:30 AM CEST on August 12, 2009', u'year': u'2009', u'tzname': u'Europe/Paris'}",55.4,13.0,0,0,-9999,-9999,73,unknown,METAR LFPB 112230Z AUTO 35003KT 9999NDV NSC 18/13 Q1022,-9999.00,-9999.00,30.18,1022,0,0,64.4,18.0,0,0,"{u'mday': u'11', u'hour': u'22', u'min': u'30', u'mon': u'08', u'pretty': u'10:30 PM GMT on August 11, 2009', u'year': u'2009', u'tzname': u'UTC'}",6.2,10.0,350,North,-9999.0,-9999.0,-999,-999,3.5,5.6
2,Unknown,"{u'mday': u'12', u'hour': u'01', u'min': u'00', u'mon': u'08', u'pretty': u'1:00 AM CEST on August 12, 2009', u'year': u'2009', u'tzname': u'Europe/Paris'}",55.4,13.0,0,0,-9999,-9999,77,unknown,METAR LFPB 112300Z AUTO VRB02KT 9999NDV NSC 17/13 Q1022,-9999.00,-9999.00,30.18,1022,0,0,62.6,17.0,0,0,"{u'mday': u'11', u'hour': u'23', u'min': u'00', u'mon': u'08', u'pretty': u'11:00 PM GMT on August 11, 2009', u'year': u'2009', u'tzname': u'UTC'}",6.2,10.0,0,Variable,-9999.0,-9999.0,-999,-999,2.3,3.7
3,Unknown,"{u'mday': u'12', u'hour': u'01', u'min': u'30', u'mon': u'08', u'pretty': u'1:30 AM CEST on August 12, 2009', u'year': u'2009', u'tzname': u'Europe/Paris'}",55.4,13.0,0,0,-9999,-9999,82,unknown,METAR LFPB 112330Z AUTO 00000KT 9999NDV NSC 16/13 Q1022,-9999.00,-9999.00,30.18,1022,0,0,60.8,16.0,0,0,"{u'mday': u'11', u'hour': u'23', u'min': u'30', u'mon': u'08', u'pretty': u'11:30 PM GMT on August 11, 2009', u'year': u'2009', u'tzname': u'UTC'}",6.2,10.0,0,North,-9999.0,-9999.0,-999,-999,0.0,0.0
4,Unknown,"{u'mday': u'12', u'hour': u'02', u'min': u'00', u'mon': u'08', u'pretty': u'2:00 AM CEST on August 12, 2009', u'year': u'2009', u'tzname': u'Europe/Paris'}",55.4,13.0,0,0,-9999,-9999,82,unknown,METAR LFPB 120000Z AUTO 00000KT 9999NDV NSC 16/13 Q1022,-9999.00,-9999.00,30.18,1022,0,0,60.8,16.0,0,0,"{u'mday': u'12', u'hour': u'00', u'min': u'00', u'mon': u'08', u'pretty': u'12:00 AM GMT on August 12, 2009', u'year': u'2009', u'tzname': u'UTC'}",6.2,10.0,0,North,-9999.0,-9999.0,-999,-999,0.0,0.0
5,Unknown,"{u'mday': u'12', u'hour': u'02', u'min': u'30', u'mon': u'08', u'pretty': u'2:30 AM CEST on August 12, 2009', u'year': u'2009', u'tzname': u'Europe/Paris'}",55.4,13.0,0,0,-9999,-9999,88,unknown,METAR LFPB 120030Z AUTO 00000KT 9999NDV NSC 15/13 Q1022,-9999.00,-9999.00,30.18,1022,0,0,59.0,15.0,0,0,"{u'mday': u'12', u'hour': u'00', u'min': u'30', u'mon': u'08', u'pretty': u'12:30 AM GMT on August 12, 2009', u'year': u'2009', u'tzname': u'UTC'}",6.2,10.0,0,North,-9999.0,-9999.0,-999,-999,0.0,0.0
6,Unknown,"{u'mday': u'12', u'hour': u'03', u'min': u'00', u'mon': u'08', u'pretty': u'3:00 AM CEST on August 12, 2009', u'year': u'2009', u'tzname': u'Europe/Paris'}",55.4,13.0,0,0,-9999,-9999,88,unknown,METAR LFPB 120100Z AUTO 00000KT 9999NDV NSC 15/13 Q1022,-9999.00,-9999.00,30.18,1022,0,0,59.0,15.0,0,0,"{u'mday': u'12', u'hour': u'01', u'min': u'00', u'mon': u'08', u'pretty': u'1:00 AM GMT on August 12, 2009', u'year': u'2009', u'tzname': u'UTC'}",6.2,10.0,0,North,-9999.0,-9999.0,-999,-999,0.0,0.0
7,Unknown,"{u'mday': u'12', u'hour': u'03', u'min': u'30', u'mon': u'08', u'pretty': u'3:30 AM CEST on August 12, 2009', u'year': u'2009', u'tzname': u'Europe/Paris'}",55.4,13.0,0,0,-9999,-9999,88,unknown,METAR LFPB 120130Z AUTO 30002KT 9999NDV NSC 15/13 Q1022,-9999.00,-9999.00,30.18,1022,0,0,59.0,15.0,0,0,"{u'mday': u'12', u'hour': u'01', u'min': u'30', u'mon': u'08', u'pretty': u'1:30 AM GMT on August 12, 2009', u'year': u'2009', u'tzname': u'UTC'}",6.2,10.0,300,WNW,-9999.0,-9999.0,-999,-999,2.3,3.7
8,Unknown,"{u'mday': u'12', u'hour': u'04', u'min': u'00', u'mon': u'08', u'pretty': u'4:00 AM CEST on August 12, 2009', u'year': u'2009', u'tzname': u'Europe/Paris'}",55.4,13.0,0,0,-9999,-9999,88,unknown,METAR LFPB 120200Z AUTO 34001KT 9999NDV NSC 15/13 Q1022,-9999.00,-9999.00,30.18,1022,0,0,59.0,15.0,0,0,"{u'mday': u'12', u'hour': u'02', u'min': u'00', u'mon': u'08', u'pretty': u'2:00 AM GMT on August 12, 2009', u'year': u'2009', u'tzname': u'UTC'}",6.2,10.0,340,NNW,-9999.0,-9999.0,-999,-999,1.2,1.9
9,Unknown,"{u'mday': u'12', u'hour': u'04', u'min': u'30', u'mon': u'08', u'pretty': u'4:30 AM CEST on August 12, 2009', u'year': u'2009', u'tzname': u'Europe/Paris'}",53.6,12.0,0,0,-9999,-9999,88,unknown,METAR LFPB 120230Z AUTO 00000KT 9999NDV NSC 14/12 Q1022,-9999.00,-9999.00,30.18,1022,0,0,57.2,14.0,0,0,"{u'mday': u'12', u'hour': u'02', u'min': u'30', u'mon': u'08', u'pretty': u'2:30 AM GMT on August 12, 2009', u'year': u'2009', u'tzname': u'UTC'}",6.2,10.0,0,North,-9999.0,-9999.0,-999,-999,0.0,0.0
10,Unknown,"{u'mday': u'12', u'hour': u'05', u'min': u'00', u'mon': u'08', u'pretty': u'5:00 AM CEST on August 12, 2009', u'year': u'2009', u'tzname': u'Europe/Paris'}",53.6,12.0,0,0,-9999,-9999,88,unknown,METAR LFPB 120300Z AUTO 00000KT 9999NDV NSC 14/12 Q1022,-9999.00,-9999.00,30.18,1022,0,0,57.2,14.0,0,0,"{u'mday': u'12', u'hour': u'03', u'min': u'00', u'mon': u'08', u'pretty': u'3:00 AM GMT on August 12, 2009', u'year': u'2009', u'tzname': u'UTC'}",6.2,10.0,0,North,-9999.0,-9999.0,-999,-999,0.0,0.0
11,Unknown,"{u'mday': u'12', u'hour': u'05', u'min': u'30', u'mon': u'08', u'pretty': u'5:30 AM CEST on August 12, 2009', u'year': u'2009', u'tzname': u'Europe/Paris'}",53.6,12.0,0,0,-9999,-9999,88,unknown,METAR LFPB 120330Z AUTO VRB01KT 9999NDV NCD 14/12 Q1022,-9999.00,-9999.00,30.18,1022,0,0,57.2,14.0,0,0,"{u'mday': u'12', u'hour': u'03', u'min': u'30', u'mon': u'08', u'pretty': u'3:30 AM GMT on August 12, 2009', u'year': u'2009', u'tzname': u'UTC'}",6.2,10.0,0,Variable,-9999.0,-9999.0,-999,-999,1.2,1.9
12,Unknown,"{u'mday': u'12', u'hour': u'06', u'min': u'00', u'mon': u'08', u'pretty': u'6:00 AM CEST on August 12, 2009', u'year': u'2009', u'tzname': u'Europe/Paris'}",53.6,12.0,0,0,-9999,-9999,94,unknown,METAR LFPB 120400Z AUTO 00000KT 9999NDV NSC 13/12 Q1023,-9999.00,-9999.00,30.21,1023,0,0,55.4,13.0,0,0,"{u'mday': u'12', u'hour': u'04', u'min': u'00', u'mon': u'08', u'pretty': u'4:00 AM GMT on August 12, 2009', u'year': u'2009', u'tzname': u'UTC'}",6.2,10.0,0,North,-9999.0,-9999.0,-999,-999,0.0,0.0
13,Clear,"{u'mday': u'12', u'hour': u'06', u'min': u'30', u'mon': u'08', u'pretty': u'6:30 AM CEST on August 12, 2009', u'year': u'2009', u'tzname': u'Europe/Paris'}",53.6,12.0,0,0,-9999,-9999,94,clear,METAR LFPB 120430Z 00000KT CAVOK 13/12 Q1023,-9999.00,-9999.00,30.21,1023,0,0,55.4,13.0,0,0,"{u'mday': u'12', u'hour': u'04', u'min': u'30', u'mon': u'08', u'pretty': u'4:30 AM GMT on August 12, 2009', u'year': u'2009', u'tzname': u'UTC'}",-9999.0,-9999.0,0,North,-9999.0,-9999.0,-999,-999,0.0,0.0
14,Clear,"{u'mday': u'12', u'hour': u'07', u'min': u'00', u'mon': u'08', u'pretty': u'7:00 AM CEST on August 12, 2009', u'year': u'2009', u'tzname': u'Europe/Paris'}",53.6,12.0,0,0,-9999,-9999,94,clear,METAR LFPB 120500Z 00000KT CAVOK 13/12 Q1023 NOSIG,-9999.00,-9999.00,30.21,1023,0,0,55.4,13.0,0,0,"{u'mday': u'12', u'hour': u'05', u'min': u'00', u'mon': u'08', u'pretty': u'5:00 AM GMT on August 12, 2009', u'year': u'2009', u'tzname': u'UTC'}",-9999.0,-9999.0,0,North,-9999.0,-9999.0,-999,-999,0.0,0.0
15,Clear,"{u'mday': u'12', u'hour': u'07', u'min': u'30', u'mon': u'08', u'pretty': u'7:30 AM CEST on August 12, 2009', u'year': u'2009', u'tzname': u'Europe/Paris'}",55.4,13.0,0,0,-9999,-9999,94,clear,METAR LFPB 120530Z 00000KT CAVOK 14/13 Q1023 NOSIG,-9999.00,-9999.00,30.21,1023,0,0,57.2,14.0,0,0,"{u'mday': u'12', u'hour': u'05', u'min': u'30', u'mon': u'08', u'pretty': u'5:30 AM GMT on August 12, 2009', u'year': u'2009', u'tzname': u'UTC'}",-9999.0,-9999.0,0,North,-9999.0,-9999.0,-999,-999,0.0,0.0
16,Clear,"{u'mday': u'12', u'hour': u'08', u'min': u'00', u'mon': u'08', u'pretty': u'8:00 AM CEST on August 12, 2009', u'year': u'2009', u'tzname': u'Europe/Paris'}",57.2,14.0,0,0,-9999,-9999,94,clear,METAR LFPB 120600Z 00000KT CAVOK 15/14 Q1023 NOSIG,-9999.00,-9999.00,30.21,1023,0,0,59.0,15.0,0,0,"{u'mday': u'12', u'hour': u'06', u'min': u'00', u'mon': u'08', u'pretty': u'6:00 AM GMT on August 12, 2009', u'year': u'2009', u'tzname': u'UTC'}",-9999.0,-9999.0,0,North,-9999.0,-9999.0,-999,-999,0.0,0.0
17,Clear,"{u'mday': u'12', u'hour': u'08', u'min': u'30', u'mon': u'08', u'pretty': u'8:30 AM CEST on August 12, 2009', u'year': u'2009', u'tzname': u'Europe/Paris'}",57.2,14.0,0,0,-9999,-9999,82,clear,METAR LFPB 120630Z 25003KT 220V300 CAVOK 17/14 Q1023 NOSIG,-9999.00,-9999.00,30.21,1023,0,0,62.6,17.0,0,0,"{u'mday': u'12', u'hour': u'06', u'min': u'30', u'mon': u'08', u'pretty': u'6:30 AM GMT on August 12, 2009', u'year': u'2009', u'tzname': u'UTC'}",-9999.0,-9999.0,250,WSW,-9999.0,-9999.0,-999,-999,3.5,5.6
18,Clear,"{u'mday': u'12', u'hour': u'09', u'min': u'00', u'mon': u'08', u'pretty': u'9:00 AM CEST on August 12, 2009', u'year': u'2009', u'tzname': u'Europe/Paris'}",57.2,14.0,0,0,-9999,-9999,77,clear,METAR LFPB 120700Z 27004KT CAVOK 18/14 Q1023 NOSIG,-9999.00,-9999.00,30.21,1023,0,0,64.4,18.0,0,0,"{u'mday': u'12', u'hour': u'07', u'min': u'00', u'mon': u'08', u'pretty': u'7:00 AM GMT on August 12, 2009', u'year': u'2009', u'tzname': u'UTC'}",-9999.0,-9999.0,270,West,-9999.0,-9999.0,-999,-999,4.6,7.4
19,Clear,"{u'mday': u'12', u'hour': u'09', u'min': u'30', u'mon': u'08', u'pretty': u'9:30 AM CEST on August 12, 2009', u'year': u'2009', u'tzname': u'Europe/Paris'}",57.2,14.0,0,0,-9999,-9999,73,clear,METAR LFPB 120730Z 28005KT 250V310 CAVOK 19/14 Q1023 NOSIG,-9999.00,-9999.00,30.21,1023,0,0,66.2,19.0,0,0,"{u'mday': u'12', u'hour': u'07', u'min': u'30', u'mon': u'08', u'pretty': u'7:30 AM GMT on August 12, 2009', u'year': u'2009', u'tzname': u'UTC'}",-9999.0,-9999.0,280,West,-9999.0,-9999.0,-999,-999,5.8,9.3
20,Clear,"{u'mday': u'12', u'hour': u'10', u'min': u'00', u'mon': u'08', u'pretty': u'10:00 AM CEST on August 12, 2009', u'year': u'2009', u'tzname': u'Europe/Paris'}",57.2,14.0,0,0,-9999,-9999,68,clear,METAR LFPB 120800Z 28005KT 250V350 CAVOK 20/14 Q1023 NOSIG,-9999.00,-9999.00,30.21,1023,0,0,68.0,20.0,0,0,"{u'mday': u'12', u'hour': u'08', u'min': u'00', u'mon': u'08', u'pretty': u'8:00 AM GMT on August 12, 2009', u'year': u'2009', u'tzname': u'UTC'}",-9999.0,-9999.0,280,West,-9999.0,-9999.0,-999,-999,5.8,9.3
21,Clear,"{u'mday': u'12', u'hour': u'10', u'min': u'30', u'mon': u'08', u'pretty': u'10:30 AM CEST on August 12, 2009', u'year': u'2009', u'tzname': u'Europe/Paris'}",57.2,14.0,0,0,-9999,-9999,64,clear,METAR LFPB 120830Z 29004KT 240V330 CAVOK 21/14 Q1023 NOSIG,-9999.00,-9999.00,30.21,1023,0,0,69.8,21.0,0,0,"{u'mday': u'12', u'hour': u'08', u'min': u'30', u'mon': u'08', u'pretty': u'8:30 AM GMT on August 12, 2009', u'year': u'2009', u'tzname': u'UTC'}",-9999.0,-9999.0,290,WNW,-9999.0,-9999.0,-999,-999,4.6,7.4
22,Clear,"{u'mday': u'12', u'hour': u'11', u'min': u'00', u'mon': u'08', u'pretty': u'11:00 AM CEST on August 12, 2009', u'year': u'2009', u'tzname': u'Europe/Paris'}",55.4,13.0,0,0,-9999,-9999,57,clear,METAR LFPB 120900Z 23005KT 190V280 CAVOK 22/13 Q1022 NOSIG,-9999.00,-9999.00,30.18,1022,0,0,71.6,22.0,0,0,"{u'mday': u'12', u'hour': u'09', u'min': u'00', u'mon': u'08', u'pretty': u'9:00 AM GMT on August 12, 2009', u'year': u'2009', u'tzname': u'UTC'}",-9999.0,-9999.0,230,SW,-9999.0,-9999.0,-999,-999,5.8,9.3
23,Clear,"{u'mday': u'12', u'hour': u'11', u'min': u'30', u'mon': u'08', u'pretty': u'11:30 AM CEST on August 12, 2009', u'year': u'2009', u'tzname': u'Europe/Paris'}",55.4,13.0,0,0,-9999,-9999,57,clear,METAR LFPB 120930Z 27006KT 220V300 CAVOK 22/13 Q1022 NOSIG,-9999.00,-9999.00,30.18,1022,0,0,71.6,22.0,0,0,"{u'mday': u'12', u'hour': u'09', u'min': u'30', u'mon': u'08', u'pretty': u'9:30 AM GMT on August 12, 2009', u'year': u'2009', u'tzname': u'UTC'}",-9999.0,-9999.0,270,West,-9999.0,-9999.0,-999,-999,6.9,11.1
24,Partly Cloudy,"{u'mday': u'12', u'hour': u'12', u'min': u'00', u'mon': u'08', u'pretty': u'12:00 PM CEST on August 12, 2009', u'year': u'2009', u'tzname': u'Europe/Paris'}",55.4,13.0,0,0,-9999,-9999,53,partlycloudy,METAR LFPB 121000Z 29006KT 230V340 9999 FEW036 23/13 Q1022 NOSIG,-9999.00,-9999.00,30.18,1022,0,0,73.4,23.0,0,0,"{u'mday': u'12', u'hour': u'10', u'min': u'00', u'mon': u'08', u'pretty': u'10:00 AM GMT on August 12, 2009', u'year': u'2009', u'tzname': u'UTC'}",6.2,10.0,290,WNW,-9999.0,-9999.0,-999,-999,6.9,11.1
25,Unknown,"{u'mday': u'12', u'hour': u'12', u'min': u'30', u'mon': u'08', u'pretty': u'12:30 PM CEST on August 12, 2009', u'year': u'2009', u'tzname': u'Europe/Paris'}",55.4,13.0,0,0,-9999,-9999,50,unknown,METAR LFPB 121030Z AUTO VRB06KT 9999NDV NSC 24/13 Q1022,-9999.00,-9999.00,30.18,1022,0,0,75.2,24.0,0,0,"{u'mday': u'12', u'hour': u'10', u'min': u'30', u'mon': u'08', u'pretty': u'10:30 AM GMT on August 12, 2009', u'year': u'2009', u'tzname': u'UTC'}",6.2,10.0,0,Variable,-9999.0,-9999.0,-999,-999,6.9,11.1
26,Clear,"{u'mday': u'12', u'hour': u'13', u'min': u'30', u'mon': u'08', u'pretty': u'1:30 PM CEST on August 12, 2009', u'year': u'2009', u'tzname': u'Europe/Paris'}",53.6,12.0,0,0,-9999,-9999,42,clear,METAR LFPB 121130Z 25007KT 170V330 CAVOK 26/12 Q1021 NOSIG,-9999.00,-9999.00,30.15,1021,0,0,78.8,26.0,0,0,"{u'mday': u'12', u'hour': u'11', u'min': u'30', u'mon': u'08', u'pretty': u'11:30 AM GMT on August 12, 2009', u'year': u'2009', u'tzname': u'UTC'}",-9999.0,-9999.0,250,WSW,-9999.0,-9999.0,-999,-999,8.1,13.0
27,Clear,"{u'mday': u'12', u'hour': u'14', u'min': u'00', u'mon': u'08', u'pretty': u'2:00 PM CEST on August 12, 2009', u'year': u'2009', u'tzname': u'Europe/Paris'}",53.6,12.0,0,0,-9999,-9999,42,clear,METAR LFPB 121200Z VRB05KT CAVOK 26/12 Q1021 NOSIG,-9999.00,-9999.00,30.15,1021,0,0,78.8,26.0,0,0,"{u'mday': u'12', u'hour': u'12', u'min': u'00', u'mon': u'08', u'pretty': u'12:00 PM GMT on August 12, 2009', u'year': u'2009', u'tzname': u'UTC'}",-9999.0,-9999.0,0,Variable,-9999.0,-9999.0,-999,-999,5.8,9.3
28,Clear,"{u'mday': u'12', u'hour': u'15', u'min': u'00', u'mon': u'08', u'pretty': u'3:00 PM CEST on August 12, 2009', u'year': u'2009', u'tzname': u'Europe/Paris'}",53.6,12.0,0,0,81.4,27.5,37,clear,METAR LFPB 121300Z 28006KT 220V360 CAVOK 28/12 Q1020 NOSIG,-9999.00,-9999.00,30.12,1020,0,0,82.4,28.0,0,0,"{u'mday': u'12', u'hour': u'13', u'min': u'00', u'mon': u'08', u'pretty': u'1:00 PM GMT on August 12, 2009', u'year': u'2009', u'tzname': u'UTC'}",-9999.0,-9999.0,280,West,-9999.0,-9999.0,-999,-999,6.9,11.1
29,Clear,"{u'mday': u'12', u'hour': u'15', u'min': u'30', u'mon': u'08', u'pretty': u'3:30 PM CEST on August 12, 2009', u'year': u'2009', u'tzname': u'Europe/Paris'}",57.2,14.0,0,0,82.0,27.8,42,clear,METAR LFPB 121330Z 29009KT 250V350 CAVOK 28/14 Q1020 NOSIG,-9999.00,-9999.00,30.12,1020,0,0,82.4,28.0,0,0,"{u'mday': u'12', u'hour': u'13', u'min': u'30', u'mon': u'08', u'pretty': u'1:30 PM GMT on August 12, 2009', u'year': u'2009', u'tzname': u'UTC'}",-9999.0,-9999.0,290,WNW,-9999.0,-9999.0,-999,-999,10.4,16.7
30,Clear,"{u'mday': u'12', u'hour': u'16', u'min': u'00', u'mon': u'08', u'pretty': u'4:00 PM CEST on August 12, 2009', u'year': u'2009', u'tzname': u'Europe/Paris'}",55.4,13.0,0,0,81.7,27.6,39,clear,METAR LFPB 121400Z 31008KT 270V360 CAVOK 28/13 Q1020 NOSIG,-9999.00,-9999.00,30.12,1020,0,0,82.4,28.0,0,0,"{u'mday': u'12', u'hour': u'14', u'min': u'00', u'mon': u'08', u'pretty': u'2:00 PM GMT on August 12, 2009', u'year': u'2009', u'tzname': u'UTC'}",-9999.0,-9999.0,310,NW,-9999.0,-9999.0,-999,-999,9.2,14.8
31,Clear,"{u'mday': u'12', u'hour': u'16', u'min': u'30', u'mon': u'08', u'pretty': u'4:30 PM CEST on August 12, 2009', u'year': u'2009', u'tzname': u'Europe/Paris'}",57.2,14.0,0,0,83.5,28.6,40,clear,METAR LFPB 121430Z 29006KT 240V020 CAVOK 29/14 Q1020 NOSIG,-9999.00,-9999.00,30.12,1020,0,0,84.2,29.0,0,0,"{u'mday': u'12', u'hour': u'14', u'min': u'30', u'mon': u'08', u'pretty': u'2:30 PM GMT on August 12, 2009', u'year': u'2009', u'tzname': u'UTC'}",-9999.0,-9999.0,290,WNW,-9999.0,-9999.0,-999,-999,6.9,11.1
32,Clear,"{u'mday': u'12', u'hour': u'17', u'min': u'00', u'mon': u'08', u'pretty': u'5:00 PM CEST on August 12, 2009', u'year': u'2009', u'tzname': u'Europe/Paris'}",55.4,13.0,0,0,83.0,28.4,37,clear,METAR LFPB 121500Z 31010KT 240V350 CAVOK 29/13 Q1019 NOSIG,-9999.00,-9999.00,30.09,1019,0,0,84.2,29.0,0,0,"{u'mday': u'12', u'hour': u'15', u'min': u'00', u'mon': u'08', u'pretty': u'3:00 PM GMT on August 12, 2009', u'year': u'2009', u'tzname': u'UTC'}",-9999.0,-9999.0,310,NW,-9999.0,-9999.0,-999,-999,11.5,18.5
33,Clear,"{u'mday': u'12', u'hour': u'17', u'min': u'30', u'mon': u'08', u'pretty': u'5:30 PM CEST on August 12, 2009', u'year': u'2009', u'tzname': u'Europe/Paris'}",55.4,13.0,0,0,83.0,28.4,37,clear,METAR LFPB 121530Z 30008KT 250V350 CAVOK 29/13 Q1019 NOSIG,-9999.00,-9999.00,30.09,1019,0,0,84.2,29.0,0,0,"{u'mday': u'12', u'hour': u'15', u'min': u'30', u'mon': u'08', u'pretty': u'3:30 PM GMT on August 12, 2009', u'year': u'2009', u'tzname': u'UTC'}",-9999.0,-9999.0,300,WNW,-9999.0,-9999.0,-999,-999,9.2,14.8
34,Clear,"{u'mday': u'12', u'hour': u'18', u'min': u'00', u'mon': u'08', u'pretty': u'6:00 PM CEST on August 12, 2009', u'year': u'2009', u'tzname': u'Europe/Paris'}",57.2,14.0,0,0,83.5,28.6,40,clear,METAR LFPB 121600Z 32007KT 270V010 CAVOK 29/14 Q1019 NOSIG,-9999.00,-9999.00,30.09,1019,0,0,84.2,29.0,0,0,"{u'mday': u'12', u'hour': u'16', u'min': u'00', u'mon': u'08', u'pretty': u'4:00 PM GMT on August 12, 2009', u'year': u'2009', u'tzname': u'UTC'}",-9999.0,-9999.0,320,NW,-9999.0,-9999.0,-999,-999,8.1,13.0
35,Clear,"{u'mday': u'12', u'hour': u'18', u'min': u'30', u'mon': u'08', u'pretty': u'6:30 PM CEST on August 12, 2009', u'year': u'2009', u'tzname': u'Europe/Paris'}",57.2,14.0,0,0,82.0,27.8,42,clear,METAR LFPB 121630Z 33010KT 290V010 CAVOK 28/14 Q1019 NOSIG,-9999.00,-9999.00,30.09,1019,0,0,82.4,28.0,0,0,"{u'mday': u'12', u'hour': u'16', u'min': u'30', u'mon': u'08', u'pretty': u'4:30 PM GMT on August 12, 2009', u'year': u'2009', u'tzname': u'UTC'}",-9999.0,-9999.0,330,NNW,-9999.0,-9999.0,-999,-999,11.5,18.5
36,Unknown,"{u'mday': u'12', u'hour': u'19', u'min': u'00', u'mon': u'08', u'pretty': u'7:00 PM CEST on August 12, 2009', u'year': u'2009', u'tzname': u'Europe/Paris'}",57.2,14.0,0,0,82.0,27.8,42,unknown,METAR LFPB 121700Z AUTO 32010KT 290V350 9999NDV NSC 28/14 Q1019,-9999.00,-9999.00,30.09,1019,0,0,82.4,28.0,0,0,"{u'mday': u'12', u'hour': u'17', u'min': u'00', u'mon': u'08', u'pretty': u'5:00 PM GMT on August 12, 2009', u'year': u'2009', u'tzname': u'UTC'}",6.2,10.0,320,NW,-9999.0,-9999.0,-999,-999,11.5,18.5
37,Unknown,"{u'mday': u'12', u'hour': u'19', u'min': u'30', u'mon': u'08', u'pretty': u'7:30 PM CEST on August 12, 2009', u'year': u'2009', u'tzname': u'Europe/Paris'}",55.4,13.0,0,0,80.5,27.0,42,unknown,METAR LFPB 121730Z AUTO 32009KT 270V360 9999NDV NSC 27/13 Q1018,-9999.00,-9999.00,30.06,1018,0,0,80.6,27.0,0,0,"{u'mday': u'12', u'hour': u'17', u'min': u'30', u'mon': u'08', u'pretty': u'5:30 PM GMT on August 12, 2009', u'year': u'2009', u'tzname': u'UTC'}",6.2,10.0,320,NW,-9999.0,-9999.0,-999,-999,10.4,16.7
38,Unknown,"{u'mday': u'12', u'hour': u'20', u'min': u'00', u'mon': u'08', u'pretty': u'8:00 PM CEST on August 12, 2009', u'year': u'2009', u'tzname': u'Europe/Paris'}",57.2,14.0,0,0,80.8,27.1,45,unknown,METAR LFPB 121800Z AUTO 32010KT 290V350 9999NDV NSC 27/14 Q1018,-9999.00,-9999.00,30.06,1018,0,0,80.6,27.0,0,0,"{u'mday': u'12', u'hour': u'18', u'min': u'00', u'mon': u'08', u'pretty': u'6:00 PM GMT on August 12, 2009', u'year': u'2009', u'tzname': u'UTC'}",6.2,10.0,320,NW,-9999.0,-9999.0,-999,-999,11.5,18.5
39,Unknown,"{u'mday': u'12', u'hour': u'20', u'min': u'30', u'mon': u'08', u'pretty': u'8:30 PM CEST on August 12, 2009', u'year': u'2009', u'tzname': u'Europe/Paris'}",57.2,14.0,0,0,-9999,-9999,47,unknown,METAR LFPB 121830Z AUTO 32008KT 290V350 9999NDV NSC 26/14 Q1019,-9999.00,-9999.00,30.09,1019,0,0,78.8,26.0,0,0,"{u'mday': u'12', u'hour': u'18', u'min': u'30', u'mon': u'08', u'pretty': u'6:30 PM GMT on August 12, 2009', u'year': u'2009', u'tzname': u'UTC'}",6.2,10.0,320,NW,-9999.0,-9999.0,-999,-999,9.2,14.8
40,Unknown,"{u'mday': u'12', u'hour': u'21', u'min': u'00', u'mon': u'08', u'pretty': u'9:00 PM CEST on August 12, 2009', u'year': u'2009', u'tzname': u'Europe/Paris'}",59.0,15.0,0,0,-9999,-9999,54,unknown,METAR LFPB 121900Z AUTO 32007KT 300V360 9999NDV NSC 25/15 Q1019,-9999.00,-9999.00,30.09,1019,0,0,77.0,25.0,0,0,"{u'mday': u'12', u'hour': u'19', u'min': u'00', u'mon': u'08', u'pretty': u'7:00 PM GMT on August 12, 2009', u'year': u'2009', u'tzname': u'UTC'}",6.2,10.0,320,NW,-9999.0,-9999.0,-999,-999,8.1,13.0
41,Unknown,"{u'mday': u'12', u'hour': u'21', u'min': u'30', u'mon': u'08', u'pretty': u'9:30 PM CEST on August 12, 2009', u'year': u'2009', u'tzname': u'Europe/Paris'}",59.0,15.0,0,0,-9999,-9999,57,unknown,METAR LFPB 121930Z AUTO 32007KT 290V350 9999NDV NSC 24/15 Q1019,-9999.00,-9999.00,30.09,1019,0,0,75.2,24.0,0,0,"{u'mday': u'12', u'hour': u'19', u'min': u'30', u'mon': u'08', u'pretty': u'7:30 PM GMT on August 12, 2009', u'year': u'2009', u'tzname': u'UTC'}",6.2,10.0,320,NW,-9999.0,-9999.0,-999,-999,8.1,13.0
42,Unknown,"{u'mday': u'12', u'hour': u'22', u'min': u'00', u'mon': u'08', u'pretty': u'10:00 PM CEST on August 12, 2009', u'year': u'2009', u'tzname': u'Europe/Paris'}",60.8,16.0,0,0,-9999,-9999,65,unknown,METAR LFPB 122000Z AUTO 32008KT 290V350 9999NDV NSC 23/16 Q1019,-9999.00,-9999.00,30.09,1019,0,0,73.4,23.0,0,0,"{u'mday': u'12', u'hour': u'20', u'min': u'00', u'mon': u'08', u'pretty': u'8:00 PM GMT on August 12, 2009', u'year': u'2009', u'tzname': u'UTC'}",6.2,10.0,320,NW,-9999.0,-9999.0,-999,-999,9.2,14.8
43,Unknown,"{u'mday': u'12', u'hour': u'22', u'min': u'30', u'mon': u'08', u'pretty': u'10:30 PM CEST on August 12, 2009', u'year': u'2009', u'tzname': u'Europe/Paris'}",60.8,16.0,0,0,-9999,-9999,69,unknown,METAR LFPB 122030Z AUTO 31008KT 280V340 9999NDV NSC 22/16 Q1019,-9999.00,-9999.00,30.09,1019,0,0,71.6,22.0,0,0,"{u'mday': u'12', u'hour': u'20', u'min': u'30', u'mon': u'08', u'pretty': u'8:30 PM GMT on August 12, 2009', u'year': u'2009', u'tzname': u'UTC'}",6.2,10.0,310,NW,-9999.0,-9999.0,-999,-999,9.2,14.8
44,Unknown,"{u'mday': u'12', u'hour': u'23', u'min': u'00', u'mon': u'08', u'pretty': u'11:00 PM CEST on August 12, 2009', u'year': u'2009', u'tzname': u'Europe/Paris'}",60.8,16.0,0,0,-9999,-9999,69,unknown,METAR LFPB 122100Z AUTO 30008KT 270V330 9999NDV NSC 22/16 Q1019,-9999.00,-9999.00,30.09,1019,0,0,71.6,22.0,0,0,"{u'mday': u'12', u'hour': u'21', u'min': u'00', u'mon': u'08', u'pretty': u'9:00 PM GMT on August 12, 2009', u'year': u'2009', u'tzname': u'UTC'}",6.2,10.0,300,WNW,-9999.0,-9999.0,-999,-999,9.2,14.8
45,Unknown,"{u'mday': u'12', u'hour': u'23', u'min': u'30', u'mon': u'08', u'pretty': u'11:30 PM CEST on August 12, 2009', u'year': u'2009', u'tzname': u'Europe/Paris'}",60.8,16.0,0,0,-9999,-9999,73,unknown,METAR LFPB 122130Z AUTO 32007KT 280V350 9999NDV NSC 21/16 Q1019,-9999.00,-9999.00,30.09,1019,0,0,69.8,21.0,0,0,"{u'mday': u'12', u'hour': u'21', u'min': u'30', u'mon': u'08', u'pretty': u'9:30 PM GMT on August 12, 2009', u'year': u'2009', u'tzname': u'UTC'}",6.2,10.0,320,NW,-9999.0,-9999.0,-999,-999,8.1,13.0
0,Unknown,"{u'mday': u'13', u'hour': u'00', u'min': u'00', u'mon': u'08', u'pretty': u'12:00 AM CEST on August 13, 2009', u'year': u'2009', u'tzname': u'Europe/Paris'}",60.8,16.0,0,0,-9999,-9999,78,unknown,METAR LFPB 122200Z AUTO 32008KT 280V350 9999NDV NSC 20/16 Q1019,-9999.00,-9999.00,30.09,1019,0,0,68.0,20.0,0,0,"{u'mday': u'12', u'hour': u'22', u'min': u'00', u'mon': u'08', u'pretty': u'10:00 PM GMT on August 12, 2009', u'year': u'2009', u'tzname': u'UTC'}",6.2,10.0,320,NW,-9999.0,-9999.0,-999,-999,9.2,14.8
1,Unknown,"{u'mday': u'13', u'hour': u'00', u'min': u'30', u'mon': u'08', u'pretty': u'12:30 AM CEST on August 13, 2009', u'year': u'2009', u'tzname': u'Europe/Paris'}",60.8,16.0,0,0,-9999,-9999,83,unknown,METAR LFPB 122230Z AUTO 30008KT 270V340 9999NDV NSC 19/16 Q1020,-9999.00,-9999.00,30.12,1020,0,0,66.2,19.0,0,0,"{u'mday': u'12', u'hour': u'22', u'min': u'30', u'mon': u'08', u'pretty': u'10:30 PM GMT on August 12, 2009', u'year': u'2009', u'tzname': u'UTC'}",6.2,10.0,300,WNW,-9999.0,-9999.0,-999,-999,9.2,14.8
2,Scattered Clouds,"{u'mday': u'13', u'hour': u'01', u'min': u'00', u'mon': u'08', u'pretty': u'1:00 AM CEST on August 13, 2009', u'year': u'2009', u'tzname': u'Europe/Paris'}",60.8,16.0,0,0,-9999,-9999,83,partlycloudy,METAR LFPB 122300Z AUTO 30005KT 260V340 9999NDV SCT013 19/16 Q1020,-9999.00,-9999.00,30.12,1020,0,0,66.2,19.0,0,0,"{u'mday': u'12', u'hour': u'23', u'min': u'00', u'mon': u'08', u'pretty': u'11:00 PM GMT on August 12, 2009', u'year': u'2009', u'tzname': u'UTC'}",6.2,10.0,300,WNW,-9999.0,-9999.0,-999,-999,5.8,9.3
3,Overcast,"{u'mday': u'13', u'hour': u'01', u'min': u'30', u'mon': u'08', u'pretty': u'1:30 AM CEST on August 13, 2009', u'year': u'2009', u'tzname': u'Europe/Paris'}",60.8,16.0,0,0,-9999,-9999,83,cloudy,METAR LFPB 122330Z AUTO 31005KT 270V360 9999NDV OVC013 19/16 Q1020,-9999.00,-9999.00,30.12,1020,0,0,66.2,19.0,0,0,"{u'mday': u'12', u'hour': u'23', u'min': u'30', u'mon': u'08', u'pretty': u'11:30 PM GMT on August 12, 2009', u'year': u'2009', u'tzname': u'UTC'}",6.2,10.0,310,NW,-9999.0,-9999.0,-999,-999,5.8,9.3
4,Overcast,"{u'mday': u'13', u'hour': u'02', u'min': u'00', u'mon': u'08', u'pretty': u'2:00 AM CEST on August 13, 2009', u'year': u'2009', u'tzname': u'Europe/Paris'}",60.8,16.0,0,0,-9999,-9999,83,cloudy,METAR LFPB 130000Z AUTO 33005KT 290V010 9999NDV OVC013 19/16 Q1019,-9999.00,-9999.00,30.09,1019,0,0,66.2,19.0,0,0,"{u'mday': u'13', u'hour': u'00', u'min': u'00', u'mon': u'08', u'pretty': u'12:00 AM GMT on August 13, 2009', u'year': u'2009', u'tzname': u'UTC'}",6.2,10.0,330,NNW,-9999.0,-9999.0,-999,-999,5.8,9.3
5,Overcast,"{u'mday': u'13', u'hour': u'02', u'min': u'30', u'mon': u'08', u'pretty': u'2:30 AM CEST on August 13, 2009', u'year': u'2009', u'tzname': u'Europe/Paris'}",59.0,15.0,0,0,-9999,-9999,78,cloudy,METAR LFPB 130030Z AUTO 33005KT 280V010 9999NDV OVC013 19/15 Q1019,-9999.00,-9999.00,30.09,1019,0,0,66.2,19.0,0,0,"{u'mday': u'13', u'hour': u'00', u'min': u'30', u'mon': u'08', u'pretty': u'12:30 AM GMT on August 13, 2009', u'year': u'2009', u'tzname': u'UTC'}",6.2,10.0,330,NNW,-9999.0,-9999.0,-999,-999,5.8,9.3
6,Overcast,"{u'mday': u'13', u'hour': u'03', u'min': u'00', u'mon': u'08', u'pretty': u'3:00 AM CEST on August 13, 2009', u'year': u'2009', u'tzname': u'Europe/Paris'}",59.0,15.0,0,0,-9999,-9999,78,cloudy,METAR LFPB 130100Z AUTO 33005KT 270V020 9999NDV OVC013 19/15 Q1019,-9999.00,-9999.00,30.09,1019,0,0,66.2,19.0,0,0,"{u'mday': u'13', u'hour': u'01', u'min': u'00', u'mon': u'08', u'pretty': u'1:00 AM GMT on August 13, 2009', u'year': u'2009', u'tzname': u'UTC'}",6.2,10.0,330,NNW,-9999.0,-9999.0,-999,-999,5.8,9.3
7,Overcast,"{u'mday': u'13', u'hour': u'03', u'min': u'30', u'mon': u'08', u'pretty': u'3:30 AM CEST on August 13, 2009', u'year': u'2009', u'tzname': u'Europe/Paris'}",59.0,15.0,0,0,-9999,-9999,78,cloudy,METAR LFPB 130130Z AUTO 33004KT 280V020 9999NDV OVC013 19/15 Q1019,-9999.00,-9999.00,30.09,1019,0,0,66.2,19.0,0,0,"{u'mday': u'13', u'hour': u'01', u'min': u'30', u'mon': u'08', u'pretty': u'1:30 AM GMT on August 13, 2009', u'year': u'2009', u'tzname': u'UTC'}",6.2,10.0,330,NNW,-9999.0,-9999.0,-999,-999,4.6,7.4
8,Partly Cloudy,"{u'mday': u'13', u'hour': u'04', u'min': u'00', u'mon': u'08', u'pretty': u'4:00 AM CEST on August 13, 2009', u'year': u'2009', u'tzname': u'Europe/Paris'}",59.0,15.0,0,0,-9999,-9999,78,partlycloudy,METAR LFPB 130200Z AUTO VRB02KT 9999NDV FEW013 19/15 Q1019,-9999.00,-9999.00,30.09,1019,0,0,66.2,19.0,0,0,"{u'mday': u'13', u'hour': u'02', u'min': u'00', u'mon': u'08', u'pretty': u'2:00 AM GMT on August 13, 2009', u'year': u'2009', u'tzname': u'UTC'}",6.2,10.0,0,Variable,-9999.0,-9999.0,-999,-999,2.3,3.7
9,Mostly Cloudy,"{u'mday': u'13', u'hour': u'04', u'min': u'30', u'mon': u'08', u'pretty': u'4:30 AM CEST on August 13, 2009', u'year': u'2009', u'tzname': u'Europe/Paris'}",60.8,16.0,0,0,-9999,-9999,83,mostlycloudy,METAR LFPB 130230Z AUTO VRB02KT 9999NDV BKN015 19/16 Q1019,-9999.00,-9999.00,30.09,1019,0,0,66.2,19.0,0,0,"{u'mday': u'13', u'hour': u'02', u'min': u'30', u'mon': u'08', u'pretty': u'2:30 AM GMT on August 13, 2009', u'year': u'2009', u'tzname': u'UTC'}",6.2,10.0,0,Variable,-9999.0,-9999.0,-999,-999,2.3,3.7
10,Overcast,"{u'mday': u'13', u'hour': u'05', u'min': u'00', u'mon': u'08', u'pretty': u'5:00 AM CEST on August 13, 2009', u'year': u'2009', u'tzname': u'Europe/Paris'}",60.8,16.0,0,0,-9999,-9999,83,cloudy,METAR LFPB 130300Z AUTO 29004KT 250V340 9999NDV OVC015 19/16 Q1018,-9999.00,-9999.00,30.06,1018,0,0,66.2,19.0,0,0,"{u'mday': u'13', u'hour': u'03', u'min': u'00', u'mon': u'08', u'pretty': u'3:00 AM GMT on August 13, 2009', u'year': u'2009', u'tzname': u'UTC'}",6.2,10.0,290,WNW,-9999.0,-9999.0,-999,-999,4.6,7.4
11,Overcast,"{u'mday': u'13', u'hour': u'05', u'min': u'30', u'mon': u'08', u'pretty': u'5:30 AM CEST on August 13, 2009', u'year': u'2009', u'tzname': u'Europe/Paris'}",60.8,16.0,0,0,-9999,-9999,83,cloudy,METAR LFPB 130330Z AUTO 30004KT 280V340 9999NDV OVC014 19/16 Q1018,-9999.00,-9999.00,30.06,1018,0,0,66.2,19.0,0,0,"{u'mday': u'13', u'hour': u'03', u'min': u'30', u'mon': u'08', u'pretty': u'3:30 AM GMT on August 13, 2009', u'year': u'2009', u'tzname': u'UTC'}",6.2,10.0,300,WNW,-9999.0,-9999.0,-999,-999,4.6,7.4
12,Overcast,"{u'mday': u'13', u'hour': u'06', u'min': u'00', u'mon': u'08', u'pretty': u'6:00 AM CEST on August 13, 2009', u'year': u'2009', u'tzname': u'Europe/Paris'}",60.8,16.0,0,0,-9999,-9999,83,cloudy,METAR LFPB 130400Z AUTO 32004KT 280V360 9999NDV OVC014 19/16 Q1018,-9999.00,-9999.00,30.06,1018,0,0,66.2,19.0,0,0,"{u'mday': u'13', u'hour': u'04', u'min': u'00', u'mon': u'08', u'pretty': u'4:00 AM GMT on August 13, 2009', u'year': u'2009', u'tzname': u'UTC'}",6.2,10.0,320,NW,-9999.0,-9999.0,-999,-999,4.6,7.4
13,Overcast,"{u'mday': u'13', u'hour': u'06', u'min': u'30', u'mon': u'08', u'pretty': u'6:30 AM CEST on August 13, 2009', u'year': u'2009', u'tzname': u'Europe/Paris'}",60.8,16.0,0,0,-9999,-9999,83,cloudy,METAR LFPB 130430Z VRB02KT 9000 OVC014 19/16 Q1018 NOSIG,-9999.00,-9999.00,30.06,1018,0,0,66.2,19.0,0,0,"{u'mday': u'13', u'hour': u'04', u'min': u'30', u'mon': u'08', u'pretty': u'4:30 AM GMT on August 13, 2009', u'year': u'2009', u'tzname': u'UTC'}",5.6,9.0,0,Variable,-9999.0,-9999.0,-999,-999,2.3,3.7
14,Overcast,"{u'mday': u'13', u'hour': u'07', u'min': u'00', u'mon': u'08', u'pretty': u'7:00 AM CEST on August 13, 2009', u'year': u'2009', u'tzname': u'Europe/Paris'}",60.8,16.0,0,0,-9999,-9999,83,cloudy,METAR LFPB 130500Z 31003KT 280V360 9000 OVC014 19/16 Q1018 NOSIG,-9999.00,-9999.00,30.06,1018,0,0,66.2,19.0,0,0,"{u'mday': u'13', u'hour': u'05', u'min': u'00', u'mon': u'08', u'pretty': u'5:00 AM GMT on August 13, 2009', u'year': u'2009', u'tzname': u'UTC'}",5.6,9.0,310,NW,-9999.0,-9999.0,-999,-999,3.5,5.6
15,Overcast,"{u'mday': u'13', u'hour': u'07', u'min': u'30', u'mon': u'08', u'pretty': u'7:30 AM CEST on August 13, 2009', u'year': u'2009', u'tzname': u'Europe/Paris'}",60.8,16.0,0,0,-9999,-9999,83,cloudy,METAR LFPB 130530Z VRB03KT 9999 OVC015 19/16 Q1018 NOSIG,-9999.00,-9999.00,30.06,1018,0,0,66.2,19.0,0,0,"{u'mday': u'13', u'hour': u'05', u'min': u'30', u'mon': u'08', u'pretty': u'5:30 AM GMT on August 13, 2009', u'year': u'2009', u'tzname': u'UTC'}",6.2,10.0,0,Variable,-9999.0,-9999.0,-999,-999,3.5,5.6
16,Overcast,"{u'mday': u'13', u'hour': u'08', u'min': u'00', u'mon': u'08', u'pretty': u'8:00 AM CEST on August 13, 2009', u'year': u'2009', u'tzname': u'Europe/Paris'}",60.8,16.0,0,0,-9999,-9999,83,cloudy,METAR LFPB 130600Z 29004KT 9999 OVC015 19/16 Q1018 NOSIG,-9999.00,-9999.00,30.06,1018,0,0,66.2,19.0,0,0,"{u'mday': u'13', u'hour': u'06', u'min': u'00', u'mon': u'08', u'pretty': u'6:00 AM GMT on August 13, 2009', u'year': u'2009', u'tzname': u'UTC'}",6.2,10.0,290,WNW,-9999.0,-9999.0,-999,-999,4.6,7.4
17,Overcast,"{u'mday': u'13', u'hour': u'08', u'min': u'30', u'mon': u'08', u'pretty': u'8:30 AM CEST on August 13, 2009', u'year': u'2009', u'tzname': u'Europe/Paris'}",60.8,16.0,0,0,-9999,-9999,78,cloudy,METAR LFPB 130630Z 28004KT 230V310 9999 OVC015 20/16 Q1018 NOSIG,-9999.00,-9999.00,30.06,1018,0,0,68.0,20.0,0,0,"{u'mday': u'13', u'hour': u'06', u'min': u'30', u'mon': u'08', u'pretty': u'6:30 AM GMT on August 13, 2009', u'year': u'2009', u'tzname': u'UTC'}",6.2,10.0,280,West,-9999.0,-9999.0,-999,-999,4.6,7.4
18,Mostly Cloudy,"{u'mday': u'13', u'hour': u'09', u'min': u'00', u'mon': u'08', u'pretty': u'9:00 AM CEST on August 13, 2009', u'year': u'2009', u'tzname': u'Europe/Paris'}",60.8,16.0,0,0,-9999,-9999,78,mostlycloudy,METAR LFPB 130700Z 25006KT 220V310 9999 BKN015 20/16 Q1018 NOSIG,-9999.00,-9999.00,30.06,1018,0,0,68.0,20.0,0,0,"{u'mday': u'13', u'hour': u'07', u'min': u'00', u'mon': u'08', u'pretty': u'7:00 AM GMT on August 13, 2009', u'year': u'2009', u'tzname': u'UTC'}",6.2,10.0,250,WSW,-9999.0,-9999.0,-999,-999,6.9,11.1
19,Overcast,"{u'mday': u'13', u'hour': u'09', u'min': u'30', u'mon': u'08', u'pretty': u'9:30 AM CEST on August 13, 2009', u'year': u'2009', u'tzname': u'Europe/Paris'}",60.8,16.0,0,0,-9999,-9999,78,cloudy,METAR LFPB 130730Z 29006KT 260V320 9999 OVC016 20/16 Q1018 NOSIG,-9999.00,-9999.00,30.06,1018,0,0,68.0,20.0,0,0,"{u'mday': u'13', u'hour': u'07', u'min': u'30', u'mon': u'08', u'pretty': u'7:30 AM GMT on August 13, 2009', u'year': u'2009', u'tzname': u'UTC'}",6.2,10.0,290,WNW,-9999.0,-9999.0,-999,-999,6.9,11.1
20,Mostly Cloudy,"{u'mday': u'13', u'hour': u'10', u'min': u'00', u'mon': u'08', u'pretty': u'10:00 AM CEST on August 13, 2009', u'year': u'2009', u'tzname': u'Europe/Paris'}",60.8,16.0,0,0,-9999,-9999,78,mostlycloudy,METAR LFPB 130800Z 27005KT 9999 BKN016 20/16 Q1018 NOSIG,-9999.00,-9999.00,30.06,1018,0,0,68.0,20.0,0,0,"{u'mday': u'13', u'hour': u'08', u'min': u'00', u'mon': u'08', u'pretty': u'8:00 AM GMT on August 13, 2009', u'year': u'2009', u'tzname': u'UTC'}",6.2,10.0,270,West,-9999.0,-9999.0,-999,-999,5.8,9.3
21,Mostly Cloudy,"{u'mday': u'13', u'hour': u'10', u'min': u'30', u'mon': u'08', u'pretty': u'10:30 AM CEST on August 13, 2009', u'year': u'2009', u'tzname': u'Europe/Paris'}",60.8,16.0,0,0,-9999,-9999,78,mostlycloudy,METAR LFPB 130830Z 26006KT 9999 SCT015 BKN022 20/16 Q1018 NOSIG,-9999.00,-9999.00,30.06,1018,0,0,68.0,20.0,0,0,"{u'mday': u'13', u'hour': u'08', u'min': u'30', u'mon': u'08', u'pretty': u'8:30 AM GMT on August 13, 2009', u'year': u'2009', u'tzname': u'UTC'}",6.2,10.0,260,West,-9999.0,-9999.0,-999,-999,6.9,11.1
22,Mostly Cloudy,"{u'mday': u'13', u'hour': u'10', u'min': u'53', u'mon': u'08', u'pretty': u'10:53 AM CEST on August 13, 2009', u'year': u'2009', u'tzname': u'Europe/Paris'}",60.8,16.0,0,0,-9999,-9999,78,mostlycloudy,METAR LFPB 130853Z 27008KT 9999 SCT015 BKN022 20/16 Q1018 NOSIG,-9999.00,-9999.00,30.06,1018,0,0,68.0,20.0,0,0,"{u'mday': u'13', u'hour': u'08', u'min': u'53', u'mon': u'08', u'pretty': u'8:53 AM GMT on August 13, 2009', u'year': u'2009', u'tzname': u'UTC'}",6.2,10.0,270,West,-9999.0,-9999.0,-999,-999,9.2,14.8
23,Mostly Cloudy,"{u'mday': u'13', u'hour': u'11', u'min': u'16', u'mon': u'08', u'pretty': u'11:16 AM CEST on August 13, 2009', u'year': u'2009', u'tzname': u'Europe/Paris'}",60.8,16.0,0,0,-9999,-9999,78,mostlycloudy,METAR LFPB 130916Z 27007KT 250V310 9999 SCT015 BKN022 20/16 Q1018 NOSIG,-9999.00,-9999.00,30.06,1018,0,0,68.0,20.0,0,0,"{u'mday': u'13', u'hour': u'09', u'min': u'16', u'mon': u'08', u'pretty': u'9:16 AM GMT on August 13, 2009', u'year': u'2009', u'tzname': u'UTC'}",6.2,10.0,270,West,-9999.0,-9999.0,-999,-999,8.1,13.0
24,Mostly Cloudy,"{u'mday': u'13', u'hour': u'11', u'min': u'30', u'mon': u'08', u'pretty': u'11:30 AM CEST on August 13, 2009', u'year': u'2009', u'tzname': u'Europe/Paris'}",60.8,16.0,0,0,-9999,-9999,73,mostlycloudy,METAR LFPB 130930Z 28005KT 250V310 9999 SCT016 BKN022 21/16 Q1018 NOSIG,-9999.00,-9999.00,30.06,1018,0,0,69.8,21.0,0,0,"{u'mday': u'13', u'hour': u'09', u'min': u'30', u'mon': u'08', u'pretty': u'9:30 AM GMT on August 13, 2009', u'year': u'2009', u'tzname': u'UTC'}",6.2,10.0,280,West,-9999.0,-9999.0,-999,-999,5.8,9.3
25,Mostly Cloudy,"{u'mday': u'13', u'hour': u'12', u'min': u'00', u'mon': u'08', u'pretty': u'12:00 PM CEST on August 13, 2009', u'year': u'2009', u'tzname': u'Europe/Paris'}",60.8,16.0,0,0,-9999,-9999,73,mostlycloudy,METAR LFPB 131000Z 26007KT 230V290 9999 SCT019 BKN027 21/16 Q1018 NOSIG,-9999.00,-9999.00,30.06,1018,0,0,69.8,21.0,0,0,"{u'mday': u'13', u'hour': u'10', u'min': u'00', u'mon': u'08', u'pretty': u'10:00 AM GMT on August 13, 2009', u'year': u'2009', u'tzname': u'UTC'}",6.2,10.0,260,West,-9999.0,-9999.0,-999,-999,8.1,13.0
26,Overcast,"{u'mday': u'13', u'hour': u'12', u'min': u'30', u'mon': u'08', u'pretty': u'12:30 PM CEST on August 13, 2009', u'year': u'2009', u'tzname': u'Europe/Paris'}",60.8,16.0,0,0,-9999,-9999,73,cloudy,METAR LFPB 131030Z AUTO 27008KT 230V300 9999NDV FEW019 BKN028 OVC033 21/16 Q1018,-9999.00,-9999.00,30.06,1018,0,0,69.8,21.0,0,0,"{u'mday': u'13', u'hour': u'10', u'min': u'30', u'mon': u'08', u'pretty': u'10:30 AM GMT on August 13, 2009', u'year': u'2009', u'tzname': u'UTC'}",6.2,10.0,270,West,-9999.0,-9999.0,-999,-999,9.2,14.8
27,Mostly Cloudy,"{u'mday': u'13', u'hour': u'13', u'min': u'00', u'mon': u'08', u'pretty': u'1:00 PM CEST on August 13, 2009', u'year': u'2009', u'tzname': u'Europe/Paris'}",59.0,15.0,0,0,-9999,-9999,64,mostlycloudy,METAR LFPB 131100Z 27008KT 220V320 9999 SCT025 BKN030 22/15 Q1018 NOSIG,-9999.00,-9999.00,30.06,1018,0,0,71.6,22.0,0,0,"{u'mday': u'13', u'hour': u'11', u'min': u'00', u'mon': u'08', u'pretty': u'11:00 AM GMT on August 13, 2009', u'year': u'2009', u'tzname': u'UTC'}",6.2,10.0,270,West,-9999.0,-9999.0,-999,-999,9.2,14.8
28,Mostly Cloudy,"{u'mday': u'13', u'hour': u'13', u'min': u'30', u'mon': u'08', u'pretty': u'1:30 PM CEST on August 13, 2009', u'year': u'2009', u'tzname': u'Europe/Paris'}",59.0,15.0,0,0,-9999,-9999,64,mostlycloudy,METAR LFPB 131130Z 27009KT 9999 SCT025 BKN034 22/15 Q1018 NOSIG,-9999.00,-9999.00,30.06,1018,0,0,71.6,22.0,0,0,"{u'mday': u'13', u'hour': u'11', u'min': u'30', u'mon': u'08', u'pretty': u'11:30 AM GMT on August 13, 2009', u'year': u'2009', u'tzname': u'UTC'}",6.2,10.0,270,West,-9999.0,-9999.0,-999,-999,10.4,16.7
29,Mostly Cloudy,"{u'mday': u'13', u'hour': u'14', u'min': u'00', u'mon': u'08', u'pretty': u'2:00 PM CEST on August 13, 2009', u'year': u'2009', u'tzname': u'Europe/Paris'}",59.0,15.0,0,0,-9999,-9999,64,mostlycloudy,METAR LFPB 131200Z 28009KT 240V310 9999 SCT025 BKN036 22/15 Q1018 NOSIG,-9999.00,-9999.00,30.06,1018,0,0,71.6,22.0,0,0,"{u'mday': u'13', u'hour': u'12', u'min': u'00', u'mon': u'08', u'pretty': u'12:00 PM GMT on August 13, 2009', u'year': u'2009', u'tzname': u'UTC'}",6.2,10.0,280,West,-9999.0,-9999.0,-999,-999,10.4,16.7
30,Mostly Cloudy,"{u'mday': u'13', u'hour': u'14', u'min': u'30', u'mon': u'08', u'pretty': u'2:30 PM CEST on August 13, 2009', u'year': u'2009', u'tzname': u'Europe/Paris'}",59.0,15.0,0,0,-9999,-9999,64,mostlycloudy,METAR LFPB 131230Z 30007KT 270V360 9999 SCT028 BKN037 22/15 Q1018 NOSIG,-9999.00,-9999.00,30.06,1018,0,0,71.6,22.0,0,0,"{u'mday': u'13', u'hour': u'12', u'min': u'30', u'mon': u'08', u'pretty': u'12:30 PM GMT on August 13, 2009', u'year': u'2009', u'tzname': u'UTC'}",6.2,10.0,300,WNW,-9999.0,-9999.0,-999,-999,8.1,13.0
31,Mostly Cloudy,"{u'mday': u'13', u'hour': u'15', u'min': u'00', u'mon': u'08', u'pretty': u'3:00 PM CEST on August 13, 2009', u'year': u'2009', u'tzname': u'Europe/Paris'}",59.0,15.0,0,0,-9999,-9999,61,mostlycloudy,METAR LFPB 131300Z 32008KT 280V350 9999 SCT028 BKN037 23/15 Q1018 NOSIG,-9999.00,-9999.00,30.06,1018,0,0,73.4,23.0,0,0,"{u'mday': u'13', u'hour': u'13', u'min': u'00', u'mon': u'08', u'pretty': u'1:00 PM GMT on August 13, 2009', u'year': u'2009', u'tzname': u'UTC'}",6.2,10.0,320,NW,-9999.0,-9999.0,-999,-999,9.2,14.8
32,Mostly Cloudy,"{u'mday': u'13', u'hour': u'16', u'min': u'00', u'mon': u'08', u'pretty': u'4:00 PM CEST on August 13, 2009', u'year': u'2009', u'tzname': u'Europe/Paris'}",59.0,15.0,0,0,-9999,-9999,64,mostlycloudy,METAR LFPB 131400Z 33008KT 290V010 9999 SCT026 BKN038 22/15 Q1018 NOSIG,-9999.00,-9999.00,30.06,1018,0,0,71.6,22.0,0,0,"{u'mday': u'13', u'hour': u'14', u'min': u'00', u'mon': u'08', u'pretty': u'2:00 PM GMT on August 13, 2009', u'year': u'2009', u'tzname': u'UTC'}",6.2,10.0,330,NNW,-9999.0,-9999.0,-999,-999,9.2,14.8
33,Mostly Cloudy,"{u'mday': u'13', u'hour': u'16', u'min': u'30', u'mon': u'08', u'pretty': u'4:30 PM CEST on August 13, 2009', u'year': u'2009', u'tzname': u'Europe/Paris'}",59.0,15.0,0,0,-9999,-9999,64,mostlycloudy,METAR LFPB 131430Z 31007KT 280V350 9999 SCT026 BKN038 22/15 Q1018 NOSIG,-9999.00,-9999.00,30.06,1018,0,0,71.6,22.0,0,0,"{u'mday': u'13', u'hour': u'14', u'min': u'30', u'mon': u'08', u'pretty': u'2:30 PM GMT on August 13, 2009', u'year': u'2009', u'tzname': u'UTC'}",6.2,10.0,310,NW,-9999.0,-9999.0,-999,-999,8.1,13.0
34,Mostly Cloudy,"{u'mday': u'13', u'hour': u'17', u'min': u'00', u'mon': u'08', u'pretty': u'5:00 PM CEST on August 13, 2009', u'year': u'2009', u'tzname': u'Europe/Paris'}",60.8,16.0,0,0,-9999,-9999,65,mostlycloudy,METAR LFPB 131500Z 29007KT 260V320 9999 SCT026 BKN038 23/16 Q1017 NOSIG,-9999.00,-9999.00,30.04,1017,0,0,73.4,23.0,0,0,"{u'mday': u'13', u'hour': u'15', u'min': u'00', u'mon': u'08', u'pretty': u'3:00 PM GMT on August 13, 2009', u'year': u'2009', u'tzname': u'UTC'}",6.2,10.0,290,WNW,-9999.0,-9999.0,-999,-999,8.1,13.0
35,Mostly Cloudy,"{u'mday': u'13', u'hour': u'17', u'min': u'30', u'mon': u'08', u'pretty': u'5:30 PM CEST on August 13, 2009', u'year': u'2009', u'tzname': u'Europe/Paris'}",59.0,15.0,0,0,-9999,-9999,61,mostlycloudy,METAR LFPB 131530Z 31008KT 280V360 9999 SCT026 BKN038 23/15 Q1017 NOSIG,-9999.00,-9999.00,30.04,1017,0,0,73.4,23.0,0,0,"{u'mday': u'13', u'hour': u'15', u'min': u'30', u'mon': u'08', u'pretty': u'3:30 PM GMT on August 13, 2009', u'year': u'2009', u'tzname': u'UTC'}",6.2,10.0,310,NW,-9999.0,-9999.0,-999,-999,9.2,14.8
36,Mostly Cloudy,"{u'mday': u'13', u'hour': u'18', u'min': u'00', u'mon': u'08', u'pretty': u'6:00 PM CEST on August 13, 2009', u'year': u'2009', u'tzname': u'Europe/Paris'}",59.0,15.0,0,0,-9999,-9999,61,mostlycloudy,METAR LFPB 131600Z 31007KT 280V360 9999 SCT026 BKN038 23/15 Q1017 NOSIG,-9999.00,-9999.00,30.04,1017,0,0,73.4,23.0,0,0,"{u'mday': u'13', u'hour': u'16', u'min': u'00', u'mon': u'08', u'pretty': u'4:00 PM GMT on August 13, 2009', u'year': u'2009', u'tzname': u'UTC'}",6.2,10.0,310,NW,-9999.0,-9999.0,-999,-999,8.1,13.0
37,Mostly Cloudy,"{u'mday': u'13', u'hour': u'18', u'min': u'30', u'mon': u'08', u'pretty': u'6:30 PM CEST on August 13, 2009', u'year': u'2009', u'tzname': u'Europe/Paris'}",60.8,16.0,0,0,-9999,-9999,69,mostlycloudy,METAR LFPB 131630Z 34007KT 300V030 9999 SCT026 BKN046 22/16 Q1017 NOSIG,-9999.00,-9999.00,30.04,1017,0,0,71.6,22.0,0,0,"{u'mday': u'13', u'hour': u'16', u'min': u'30', u'mon': u'08', u'pretty': u'4:30 PM GMT on August 13, 2009', u'year': u'2009', u'tzname': u'UTC'}",6.2,10.0,340,NNW,-9999.0,-9999.0,-999,-999,8.1,13.0
38,Mostly Cloudy,"{u'mday': u'13', u'hour': u'19', u'min': u'00', u'mon': u'08', u'pretty': u'7:00 PM CEST on August 13, 2009', u'year': u'2009', u'tzname': u'Europe/Paris'}",60.8,16.0,0,0,-9999,-9999,73,mostlycloudy,METAR LFPB 131700Z AUTO 35007KT 320V030 9999NDV FEW026 BKN038 BKN045 21/16 Q1017,-9999.00,-9999.00,30.04,1017,0,0,69.8,21.0,0,0,"{u'mday': u'13', u'hour': u'17', u'min': u'00', u'mon': u'08', u'pretty': u'5:00 PM GMT on August 13, 2009', u'year': u'2009', u'tzname': u'UTC'}",6.2,10.0,350,North,-9999.0,-9999.0,-999,-999,8.1,13.0
39,Mostly Cloudy,"{u'mday': u'13', u'hour': u'19', u'min': u'30', u'mon': u'08', u'pretty': u'7:30 PM CEST on August 13, 2009', u'year': u'2009', u'tzname': u'Europe/Paris'}",60.8,16.0,0,0,-9999,-9999,78,mostlycloudy,METAR LFPB 131730Z AUTO 36008G18KT 320V030 9999NDV SCT016 BKN041 20/16 Q1017,-9999.00,-9999.00,30.04,1017,0,0,68.0,20.0,0,0,"{u'mday': u'13', u'hour': u'17', u'min': u'30', u'mon': u'08', u'pretty': u'5:30 PM GMT on August 13, 2009', u'year': u'2009', u'tzname': u'UTC'}",6.2,10.0,360,North,20.7,33.3,-999,-999,9.2,14.8
40,Mostly Cloudy,"{u'mday': u'13', u'hour': u'20', u'min': u'00', u'mon': u'08', u'pretty': u'8:00 PM CEST on August 13, 2009', u'year': u'2009', u'tzname': u'Europe/Paris'}",60.8,16.0,0,0,-9999,-9999,83,mostlycloudy,METAR LFPB 131800Z AUTO 01005KT 9999NDV FEW020 BKN040 19/16 Q1018,-9999.00,-9999.00,30.06,1018,0,0,66.2,19.0,0,0,"{u'mday': u'13', u'hour': u'18', u'min': u'00', u'mon': u'08', u'pretty': u'6:00 PM GMT on August 13, 2009', u'year': u'2009', u'tzname': u'UTC'}",6.2,10.0,10,North,-9999.0,-9999.0,-999,-999,5.8,9.3
41,Mostly Cloudy,"{u'mday': u'13', u'hour': u'20', u'min': u'30', u'mon': u'08', u'pretty': u'8:30 PM CEST on August 13, 2009', u'year': u'2009', u'tzname': u'Europe/Paris'}",60.8,16.0,0,0,-9999,-9999,83,mostlycloudy,METAR LFPB 131830Z AUTO 02005KT 9999NDV FEW028 BKN038 BKN047 19/16 Q1018,-9999.00,-9999.00,30.06,1018,0,0,66.2,19.0,0,0,"{u'mday': u'13', u'hour': u'18', u'min': u'30', u'mon': u'08', u'pretty': u'6:30 PM GMT on August 13, 2009', u'year': u'2009', u'tzname': u'UTC'}",6.2,10.0,20,NNE,-9999.0,-9999.0,-999,-999,5.8,9.3
42,Mostly Cloudy,"{u'mday': u'13', u'hour': u'21', u'min': u'00', u'mon': u'08', u'pretty': u'9:00 PM CEST on August 13, 2009', u'year': u'2009', u'tzname': u'Europe/Paris'}",60.8,16.0,0,0,-9999,-9999,83,mostlycloudy,METAR LFPB 131900Z AUTO 01004KT 9999NDV BKN030 BKN040 BKN048 19/16 Q1018,-9999.00,-9999.00,30.06,1018,0,0,66.2,19.0,0,0,"{u'mday': u'13', u'hour': u'19', u'min': u'00', u'mon': u'08', u'pretty': u'7:00 PM GMT on August 13, 2009', u'year': u'2009', u'tzname': u'UTC'}",6.2,10.0,10,North,-9999.0,-9999.0,-999,-999,4.6,7.4
43,Mostly Cloudy,"{u'mday': u'13', u'hour': u'21', u'min': u'30', u'mon': u'08', u'pretty': u'9:30 PM CEST on August 13, 2009', u'year': u'2009', u'tzname': u'Europe/Paris'}",60.8,16.0,0,0,-9999,-9999,83,mostlycloudy,METAR LFPB 131930Z AUTO 01004KT 9999NDV BKN036 BKN043 19/16 Q1018,-9999.00,-9999.00,30.06,1018,0,0,66.2,19.0,0,0,"{u'mday': u'13', u'hour': u'19', u'min': u'30', u'mon': u'08', u'pretty': u'7:30 PM GMT on August 13, 2009', u'year': u'2009', u'tzname': u'UTC'}",6.2,10.0,10,North,-9999.0,-9999.0,-999,-999,4.6,7.4
44,Mostly Cloudy,"{u'mday': u'13', u'hour': u'22', u'min': u'00', u'mon': u'08', u'pretty': u'10:00 PM CEST on August 13, 2009', u'year': u'2009', u'tzname': u'Europe/Paris'}",60.8,16.0,0,0,-9999,-9999,83,mostlycloudy,METAR LFPB 132000Z AUTO 02003KT 9999NDV FEW034 BKN042 BKN048 19/16 Q1018,-9999.00,-9999.00,30.06,1018,0,0,66.2,19.0,0,0,"{u'mday': u'13', u'hour': u'20', u'min': u'00', u'mon': u'08', u'pretty': u'8:00 PM GMT on August 13, 2009', u'year': u'2009', u'tzname': u'UTC'}",6.2,10.0,20,NNE,-9999.0,-9999.0,-999,-999,3.5,5.6
45,Mostly Cloudy,"{u'mday': u'13', u'hour': u'22', u'min': u'30', u'mon': u'08', u'pretty': u'10:30 PM CEST on August 13, 2009', u'year': u'2009', u'tzname': u'Europe/Paris'}",60.8,16.0,0,0,-9999,-9999,83,mostlycloudy,METAR LFPB 132030Z AUTO 01003KT 350V050 9999NDV BKN041 BKN048 19/16 Q1019,-9999.00,-9999.00,30.09,1019,0,0,66.2,19.0,0,0,"{u'mday': u'13', u'hour': u'20', u'min': u'30', u'mon': u'08', u'pretty': u'8:30 PM GMT on August 13, 2009', u'year': u'2009', u'tzname': u'UTC'}",6.2,10.0,10,North,-9999.0,-9999.0,-999,-999,3.5,5.6
46,Overcast,"{u'mday': u'13', u'hour': u'23', u'min': u'00', u'mon': u'08', u'pretty': u'11:00 PM CEST on August 13, 2009', u'year': u'2009', u'tzname': u'Europe/Paris'}",60.8,16.0,0,0,-9999,-9999,83,cloudy,METAR LFPB 132100Z AUTO 01004KT 340V040 9999NDV OVC042 19/16 Q1019,-9999.00,-9999.00,30.09,1019,0,0,66.2,19.0,0,0,"{u'mday': u'13', u'hour': u'21', u'min': u'00', u'mon': u'08', u'pretty': u'9:00 PM GMT on August 13, 2009', u'year': u'2009', u'tzname': u'UTC'}",6.2,10.0,10,North,-9999.0,-9999.0,-999,-999,4.6,7.4
47,Scattered Clouds,"{u'mday': u'13', u'hour': u'23', u'min': u'30', u'mon': u'08', u'pretty': u'11:30 PM CEST on August 13, 2009', u'year': u'2009', u'tzname': u'Europe/Paris'}",59.0,15.0,0,0,-9999,-9999,83,partlycloudy,METAR LFPB 132130Z AUTO 01004KT 9999NDV SCT044 18/15 Q1019,-9999.00,-9999.00,30.09,1019,0,0,64.4,18.0,0,0,"{u'mday': u'13', u'hour': u'21', u'min': u'30', u'mon': u'08', u'pretty': u'9:30 PM GMT on August 13, 2009', u'year': u'2009', u'tzname': u'UTC'}",6.2,10.0,10,North,-9999.0,-9999.0,-999,-999,4.6,7.4
0,Mist,"{u'mday': u'14', u'hour': u'00', u'min': u'00', u'mon': u'08', u'pretty': u'12:00 AM CEST on August 14, 2009', u'year': u'2009', u'tzname': u'Europe/Paris'}",57.2,14.0,0,0,-9999,-9999,82,hazy,METAR LFPB 132200Z AUTO 01003KT 9999 1600NDV BR NSC 17/14 Q1019,-9999.00,-9999.00,30.09,1019,0,0,62.6,17.0,0,0,"{u'mday': u'13', u'hour': u'22', u'min': u'00', u'mon': u'08', u'pretty': u'10:00 PM GMT on August 13, 2009', u'year': u'2009', u'tzname': u'UTC'}",6.2,10.0,10,North,-9999.0,-9999.0,-999,-999,3.5,5.6
1,Unknown,"{u'mday': u'14', u'hour': u'00', u'min': u'30', u'mon': u'08', u'pretty': u'12:30 AM CEST on August 14, 2009', u'year': u'2009', u'tzname': u'Europe/Paris'}",57.2,14.0,0,0,-9999,-9999,82,unknown,METAR LFPB 132230Z AUTO 01003KT 9999NDV NSC 17/14 Q1019,-9999.00,-9999.00,30.09,1019,0,0,62.6,17.0,0,0,"{u'mday': u'13', u'hour': u'22', u'min': u'30', u'mon': u'08', u'pretty': u'10:30 PM GMT on August 13, 2009', u'year': u'2009', u'tzname': u'UTC'}",6.2,10.0,10,North,-9999.0,-9999.0,-999,-999,3.5,5.6
2,Unknown,"{u'mday': u'14', u'hour': u'01', u'min': u'00', u'mon': u'08', u'pretty': u'1:00 AM CEST on August 14, 2009', u'year': u'2009', u'tzname': u'Europe/Paris'}",57.2,14.0,0,0,-9999,-9999,88,unknown,METAR LFPB 132300Z AUTO 01004KT 9999NDV NSC 16/14 Q1019,-9999.00,-9999.00,30.09,1019,0,0,60.8,16.0,0,0,"{u'mday': u'13', u'hour': u'23', u'min': u'00', u'mon': u'08', u'pretty': u'11:00 PM GMT on August 13, 2009', u'year': u'2009', u'tzname': u'UTC'}",6.2,10.0,10,North,-9999.0,-9999.0,-999,-999,4.6,7.4
3,Unknown,"{u'mday': u'14', u'hour': u'01', u'min': u'30', u'mon': u'08', u'pretty': u'1:30 AM CEST on August 14, 2009', u'year': u'2009', u'tzname': u'Europe/Paris'}",57.2,14.0,0,0,-9999,-9999,88,unknown,METAR LFPB 132330Z AUTO 36004KT 9999NDV NSC 16/14 Q1019,-9999.00,-9999.00,30.09,1019,0,0,60.8,16.0,0,0,"{u'mday': u'13', u'hour': u'23', u'min': u'30', u'mon': u'08', u'pretty': u'11:30 PM GMT on August 13, 2009', u'year': u'2009', u'tzname': u'UTC'}",6.2,10.0,360,North,-9999.0,-9999.0,-999,-999,4.6,7.4
4,Scattered Clouds,"{u'mday': u'14', u'hour': u'02', u'min': u'00', u'mon': u'08', u'pretty': u'2:00 AM CEST on August 14, 2009', u'year': u'2009', u'tzname': u'Europe/Paris'}",57.2,14.0,0,0,-9999,-9999,88,partlycloudy,METAR LFPB 140000Z AUTO 36004KT 9999NDV SCT033 16/14 Q1019,-9999.00,-9999.00,30.09,1019,0,0,60.8,16.0,0,0,"{u'mday': u'14', u'hour': u'00', u'min': u'00', u'mon': u'08', u'pretty': u'12:00 AM GMT on August 14, 2009', u'year': u'2009', u'tzname': u'UTC'}",6.2,10.0,360,North,-9999.0,-9999.0,-999,-999,4.6,7.4
5,Overcast,"{u'mday': u'14', u'hour': u'02', u'min': u'30', u'mon': u'08', u'pretty': u'2:30 AM CEST on August 14, 2009', u'year': u'2009', u'tzname': u'Europe/Paris'}",57.2,14.0,0,0,-9999,-9999,88,cloudy,METAR LFPB 140030Z AUTO 36004KT 9999NDV OVC033 16/14 Q1019,-9999.00,-9999.00,30.09,1019,0,0,60.8,16.0,0,0,"{u'mday': u'14', u'hour': u'00', u'min': u'30', u'mon': u'08', u'pretty': u'12:30 AM GMT on August 14, 2009', u'year': u'2009', u'tzname': u'UTC'}",6.2,10.0,360,North,-9999.0,-9999.0,-999,-999,4.6,7.4
6,Overcast,"{u'mday': u'14', u'hour': u'03', u'min': u'00', u'mon': u'08', u'pretty': u'3:00 AM CEST on August 14, 2009', u'year': u'2009', u'tzname': u'Europe/Paris'}",57.2,14.0,0,0,-9999,-9999,88,cloudy,METAR LFPB 140100Z AUTO 36002KT 9999NDV OVC034 16/14 Q1019,-9999.00,-9999.00,30.09,1019,0,0,60.8,16.0,0,0,"{u'mday': u'14', u'hour': u'01', u'min': u'00', u'mon': u'08', u'pretty': u'1:00 AM GMT on August 14, 2009', u'year': u'2009', u'tzname': u'UTC'}",6.2,10.0,360,North,-9999.0,-9999.0,-999,-999,2.3,3.7
7,Overcast,"{u'mday': u'14', u'hour': u'03', u'min': u'30', u'mon': u'08', u'pretty': u'3:30 AM CEST on August 14, 2009', u'year': u'2009', u'tzname': u'Europe/Paris'}",57.2,14.0,0,0,-9999,-9999,88,cloudy,METAR LFPB 140130Z AUTO VRB02KT 9999NDV OVC038 16/14 Q1019,-9999.00,-9999.00,30.09,1019,0,0,60.8,16.0,0,0,"{u'mday': u'14', u'hour': u'01', u'min': u'30', u'mon': u'08', u'pretty': u'1:30 AM GMT on August 14, 2009', u'year': u'2009', u'tzname': u'UTC'}",6.2,10.0,0,Variable,-9999.0,-9999.0,-999,-999,2.3,3.7
8,Overcast,"{u'mday': u'14', u'hour': u'04', u'min': u'00', u'mon': u'08', u'pretty': u'4:00 AM CEST on August 14, 2009', u'year': u'2009', u'tzname': u'Europe/Paris'}",55.4,13.0,0,0,-9999,-9999,82,cloudy,METAR LFPB 140200Z AUTO VRB03KT 9999NDV OVC041 16/13 Q1019,-9999.00,-9999.00,30.09,1019,0,0,60.8,16.0,0,0,"{u'mday': u'14', u'hour': u'02', u'min': u'00', u'mon': u'08', u'pretty': u'2:00 AM GMT on August 14, 2009', u'year': u'2009', u'tzname': u'UTC'}",6.2,10.0,0,Variable,-9999.0,-9999.0,-999,-999,3.5,5.6
9,Overcast,"{u'mday': u'14', u'hour': u'04', u'min': u'30', u'mon': u'08', u'pretty': u'4:30 AM CEST on August 14, 2009', u'year': u'2009', u'tzname': u'Europe/Paris'}",55.4,13.0,0,0,-9999,-9999,82,cloudy,METAR LFPB 140230Z AUTO 02005KT 9999NDV OVC044 16/13 Q1019,-9999.00,-9999.00,30.09,1019,0,0,60.8,16.0,0,0,"{u'mday': u'14', u'hour': u'02', u'min': u'30', u'mon': u'08', u'pretty': u'2:30 AM GMT on August 14, 2009', u'year': u'2009', u'tzname': u'UTC'}",6.2,10.0,20,NNE,-9999.0,-9999.0,-999,-999,5.8,9.3
10,Overcast,"{u'mday': u'14', u'hour': u'05', u'min': u'00', u'mon': u'08', u'pretty': u'5:00 AM CEST on August 14, 2009', u'year': u'2009', u'tzname': u'Europe/Paris'}",55.4,13.0,0,0,-9999,-9999,82,cloudy,METAR LFPB 140300Z AUTO 03004KT 360V060 9999NDV OVC044 16/13 Q1019,-9999.00,-9999.00,30.09,1019,0,0,60.8,16.0,0,0,"{u'mday': u'14', u'hour': u'03', u'min': u'00', u'mon': u'08', u'pretty': u'3:00 AM GMT on August 14, 2009', u'year': u'2009', u'tzname': u'UTC'}",6.2,10.0,30,NNE,-9999.0,-9999.0,-999,-999,4.6,7.4
11,Overcast,"{u'mday': u'14', u'hour': u'05', u'min': u'30', u'mon': u'08', u'pretty': u'5:30 AM CEST on August 14, 2009', u'year': u'2009', u'tzname': u'Europe/Paris'}",55.4,13.0,0,0,-9999,-9999,82,cloudy,METAR LFPB 140330Z AUTO 03004KT 360V060 9999NDV OVC045 16/13 Q1018,-9999.00,-9999.00,30.06,1018,0,0,60.8,16.0,0,0,"{u'mday': u'14', u'hour': u'03', u'min': u'30', u'mon': u'08', u'pretty': u'3:30 AM GMT on August 14, 2009', u'year': u'2009', u'tzname': u'UTC'}",6.2,10.0,30,NNE,-9999.0,-9999.0,-999,-999,4.6,7.4
12,Overcast,"{u'mday': u'14', u'hour': u'06', u'min': u'00', u'mon': u'08', u'pretty': u'6:00 AM CEST on August 14, 2009', u'year': u'2009', u'tzname': u'Europe/Paris'}",55.4,13.0,0,0,-9999,-9999,82,cloudy,METAR LFPB 140400Z AUTO 04003KT 9999NDV OVC047/// 16/13 Q1018,-9999.00,-9999.00,30.06,1018,0,0,60.8,16.0,0,0,"{u'mday': u'14', u'hour': u'04', u'min': u'00', u'mon': u'08', u'pretty': u'4:00 AM GMT on August 14, 2009', u'year': u'2009', u'tzname': u'UTC'}",6.2,10.0,40,NE,-9999.0,-9999.0,-999,-999,3.5,5.6
13,Mostly Cloudy,"{u'mday': u'14', u'hour': u'06', u'min': u'30', u'mon': u'08', u'pretty': u'6:30 AM CEST on August 14, 2009', u'year': u'2009', u'tzname': u'Europe/Paris'}",55.4,13.0,0,0,-9999,-9999,82,mostlycloudy,METAR LFPB 140430Z 05003KT 9999 BKN047 16/13 Q1018 NOSIG,-9999.00,-9999.00,30.06,1018,0,0,60.8,16.0,0,0,"{u'mday': u'14', u'hour': u'04', u'min': u'30', u'mon': u'08', u'pretty': u'4:30 AM GMT on August 14, 2009', u'year': u'2009', u'tzname': u'UTC'}",6.2,10.0,50,NE,-9999.0,-9999.0,-999,-999,3.5,5.6
14,Mostly Cloudy,"{u'mday': u'14', u'hour': u'07', u'min': u'00', u'mon': u'08', u'pretty': u'7:00 AM CEST on August 14, 2009', u'year': u'2009', u'tzname': u'Europe/Paris'}",55.4,13.0,0,0,-9999,-9999,82,mostlycloudy,METAR LFPB 140500Z 04004KT 010V070 9999 BKN047 16/13 Q1019 NOSIG,-9999.00,-9999.00,30.09,1019,0,0,60.8,16.0,0,0,"{u'mday': u'14', u'hour': u'05', u'min': u'00', u'mon': u'08', u'pretty': u'5:00 AM GMT on August 14, 2009', u'year': u'2009', u'tzname': u'UTC'}",6.2,10.0,40,NE,-9999.0,-9999.0,-999,-999,4.6,7.4
15,Mostly Cloudy,"{u'mday': u'14', u'hour': u'07', u'min': u'30', u'mon': u'08', u'pretty': u'7:30 AM CEST on August 14, 2009', u'year': u'2009', u'tzname': u'Europe/Paris'}",55.4,13.0,0,0,-9999,-9999,82,mostlycloudy,METAR LFPB 140530Z 05003KT 9999 BKN048 16/13 Q1019 NOSIG,-9999.00,-9999.00,30.09,1019,0,0,60.8,16.0,0,0,"{u'mday': u'14', u'hour': u'05', u'min': u'30', u'mon': u'08', u'pretty': u'5:30 AM GMT on August 14, 2009', u'year': u'2009', u'tzname': u'UTC'}",6.2,10.0,50,NE,-9999.0,-9999.0,-999,-999,3.5,5.6
16,Mostly Cloudy,"{u'mday': u'14', u'hour': u'08', u'min': u'00', u'mon': u'08', u'pretty': u'8:00 AM CEST on August 14, 2009', u'year': u'2009', u'tzname': u'Europe/Paris'}",55.4,13.0,0,0,-9999,-9999,77,mostlycloudy,METAR LFPB 140600Z VRB02KT 9999 SCT048 BKN230 17/13 Q1019 NOSIG,-9999.00,-9999.00,30.09,1019,0,0,62.6,17.0,0,0,"{u'mday': u'14', u'hour': u'06', u'min': u'00', u'mon': u'08', u'pretty': u'6:00 AM GMT on August 14, 2009', u'year': u'2009', u'tzname': u'UTC'}",6.2,10.0,0,Variable,-9999.0,-9999.0,-999,-999,2.3,3.7
17,Mostly Cloudy,"{u'mday': u'14', u'hour': u'08', u'min': u'30', u'mon': u'08', u'pretty': u'8:30 AM CEST on August 14, 2009', u'year': u'2009', u'tzname': u'Europe/Paris'}",55.4,13.0,0,0,-9999,-9999,77,mostlycloudy,METAR LFPB 140630Z VRB03KT 9999 SCT048 BKN230 17/13 Q1019 NOSIG,-9999.00,-9999.00,30.09,1019,0,0,62.6,17.0,0,0,"{u'mday': u'14', u'hour': u'06', u'min': u'30', u'mon': u'08', u'pretty': u'6:30 AM GMT on August 14, 2009', u'year': u'2009', u'tzname': u'UTC'}",6.2,10.0,0,Variable,-9999.0,-9999.0,-999,-999,3.5,5.6
18,Scattered Clouds,"{u'mday': u'14', u'hour': u'09', u'min': u'00', u'mon': u'08', u'pretty': u'9:00 AM CEST on August 14, 2009', u'year': u'2009', u'tzname': u'Europe/Paris'}",55.4,13.0,0,0,-9999,-9999,73,partlycloudy,METAR LFPB 140700Z VRB02KT 9999 FEW048 SCT230 18/13 Q1019 NOSIG,-9999.00,-9999.00,30.09,1019,0,0,64.4,18.0,0,0,"{u'mday': u'14', u'hour': u'07', u'min': u'00', u'mon': u'08', u'pretty': u'7:00 AM GMT on August 14, 2009', u'year': u'2009', u'tzname': u'UTC'}",6.2,10.0,0,Variable,-9999.0,-9999.0,-999,-999,2.3,3.7
19,Scattered Clouds,"{u'mday': u'14', u'hour': u'09', u'min': u'30', u'mon': u'08', u'pretty': u'9:30 AM CEST on August 14, 2009', u'year': u'2009', u'tzname': u'Europe/Paris'}",53.6,12.0,0,0,-9999,-9999,64,partlycloudy,METAR LFPB 140730Z 04003KT 340V120 9999 FEW048 SCT230 19/12 Q1019 NOSIG,-9999.00,-9999.00,30.09,1019,0,0,66.2,19.0,0,0,"{u'mday': u'14', u'hour': u'07', u'min': u'30', u'mon': u'08', u'pretty': u'7:30 AM GMT on August 14, 2009', u'year': u'2009', u'tzname': u'UTC'}",6.2,10.0,40,NE,-9999.0,-9999.0,-999,-999,3.5,5.6
20,Scattered Clouds,"{u'mday': u'14', u'hour': u'10', u'min': u'00', u'mon': u'08', u'pretty': u'10:00 AM CEST on August 14, 2009', u'year': u'2009', u'tzname': u'Europe/Paris'}",53.6,12.0,0,0,-9999,-9999,60,partlycloudy,METAR LFPB 140800Z 10004KT 050V130 9999 FEW048 SCT230 20/12 Q1019 NOSIG,-9999.00,-9999.00,30.09,1019,0,0,68.0,20.0,0,0,"{u'mday': u'14', u'hour': u'08', u'min': u'00', u'mon': u'08', u'pretty': u'8:00 AM GMT on August 14, 2009', u'year': u'2009', u'tzname': u'UTC'}",6.2,10.0,100,East,-9999.0,-9999.0,-999,-999,4.6,7.4
21,Clear,"{u'mday': u'14', u'hour': u'10', u'min': u'30', u'mon': u'08', u'pretty': u'10:30 AM CEST on August 14, 2009', u'year': u'2009', u'tzname': u'Europe/Paris'}",51.8,11.0,0,0,-9999,-9999,53,clear,METAR LFPB 140830Z 12007KT CAVOK 21/11 Q1019 NOSIG,-9999.00,-9999.00,30.09,1019,0,0,69.8,21.0,0,0,"{u'mday': u'14', u'hour': u'08', u'min': u'30', u'mon': u'08', u'pretty': u'8:30 AM GMT on August 14, 2009', u'year': u'2009', u'tzname': u'UTC'}",-9999.0,-9999.0,120,ESE,-9999.0,-9999.0,-999,-999,8.1,13.0
22,Clear,"{u'mday': u'14', u'hour': u'11', u'min': u'00', u'mon': u'08', u'pretty': u'11:00 AM CEST on August 14, 2009', u'year': u'2009', u'tzname': u'Europe/Paris'}",50.0,10.0,0,0,-9999,-9999,46,clear,METAR LFPB 140900Z 09007KT 060V130 CAVOK 22/10 Q1019 NOSIG,-9999.00,-9999.00,30.09,1019,0,0,71.6,22.0,0,0,"{u'mday': u'14', u'hour': u'09', u'min': u'00', u'mon': u'08', u'pretty': u'9:00 AM GMT on August 14, 2009', u'year': u'2009', u'tzname': u'UTC'}",-9999.0,-9999.0,90,East,-9999.0,-9999.0,-999,-999,8.1,13.0
23,Clear,"{u'mday': u'14', u'hour': u'11', u'min': u'30', u'mon': u'08', u'pretty': u'11:30 AM CEST on August 14, 2009', u'year': u'2009', u'tzname': u'Europe/Paris'}",48.2,9.0,0,0,-9999,-9999,43,clear,METAR LFPB 140930Z 11008KT 050V140 CAVOK 22/09 Q1019 NOSIG,-9999.00,-9999.00,30.09,1019,0,0,71.6,22.0,0,0,"{u'mday': u'14', u'hour': u'09', u'min': u'30', u'mon': u'08', u'pretty': u'9:30 AM GMT on August 14, 2009', u'year': u'2009', u'tzname': u'UTC'}",-9999.0,-9999.0,110,ESE,-9999.0,-9999.0,-999,-999,9.2,14.8
24,Clear,"{u'mday': u'14', u'hour': u'12', u'min': u'00', u'mon': u'08', u'pretty': u'12:00 PM CEST on August 14, 2009', u'year': u'2009', u'tzname': u'Europe/Paris'}",48.2,9.0,0,0,-9999,-9999,41,clear,METAR LFPB 141000Z 09006KT 030V160 CAVOK 23/09 Q1019 NOSIG,-9999.00,-9999.00,30.09,1019,0,0,73.4,23.0,0,0,"{u'mday': u'14', u'hour': u'10', u'min': u'00', u'mon': u'08', u'pretty': u'10:00 AM GMT on August 14, 2009', u'year': u'2009', u'tzname': u'UTC'}",-9999.0,-9999.0,90,East,-9999.0,-9999.0,-999,-999,6.9,11.1
25,Unknown,"{u'mday': u'14', u'hour': u'12', u'min': u'30', u'mon': u'08', u'pretty': u'12:30 PM CEST on August 14, 2009', u'year': u'2009', u'tzname': u'Europe/Paris'}",48.2,9.0,0,0,-9999,-9999,38,unknown,METAR LFPB 141030Z AUTO VRB05KT 9999NDV NSC 24/09 Q1019,-9999.00,-9999.00,30.09,1019,0,0,75.2,24.0,0,0,"{u'mday': u'14', u'hour': u'10', u'min': u'30', u'mon': u'08', u'pretty': u'10:30 AM GMT on August 14, 2009', u'year': u'2009', u'tzname': u'UTC'}",6.2,10.0,0,Variable,-9999.0,-9999.0,-999,-999,5.8,9.3
26,Clear,"{u'mday': u'14', u'hour': u'13', u'min': u'00', u'mon': u'08', u'pretty': u'1:00 PM CEST on August 14, 2009', u'year': u'2009', u'tzname': u'Europe/Paris'}",48.2,9.0,0,0,-9999,-9999,38,clear,METAR LFPB 141100Z 11004KT 040V170 CAVOK 24/09 Q1019 NOSIG,-9999.00,-9999.00,30.09,1019,0,0,75.2,24.0,0,0,"{u'mday': u'14', u'hour': u'11', u'min': u'00', u'mon': u'08', u'pretty': u'11:00 AM GMT on August 14, 2009', u'year': u'2009', u'tzname': u'UTC'}",-9999.0,-9999.0,110,ESE,-9999.0,-9999.0,-999,-999,4.6,7.4
27,Clear,"{u'mday': u'14', u'hour': u'14', u'min': u'00', u'mon': u'08', u'pretty': u'2:00 PM CEST on August 14, 2009', u'year': u'2009', u'tzname': u'Europe/Paris'}",46.4,8.0,0,0,-9999,-9999,34,clear,METAR LFPB 141200Z VRB05KT CAVOK 25/08 Q1018 NOSIG,-9999.00,-9999.00,30.06,1018,0,0,77.0,25.0,0,0,"{u'mday': u'14', u'hour': u'12', u'min': u'00', u'mon': u'08', u'pretty': u'12:00 PM GMT on August 14, 2009', u'year': u'2009', u'tzname': u'UTC'}",-9999.0,-9999.0,0,Variable,-9999.0,-9999.0,-999,-999,5.8,9.3
28,Clear,"{u'mday': u'14', u'hour': u'14', u'min': u'30', u'mon': u'08', u'pretty': u'2:30 PM CEST on August 14, 2009', u'year': u'2009', u'tzname': u'Europe/Paris'}",46.4,8.0,0,0,-9999,-9999,34,clear,METAR LFPB 141230Z 10005KT 050V180 CAVOK 25/08 Q1018 NOSIG,-9999.00,-9999.00,30.06,1018,0,0,77.0,25.0,0,0,"{u'mday': u'14', u'hour': u'12', u'min': u'30', u'mon': u'08', u'pretty': u'12:30 PM GMT on August 14, 2009', u'year': u'2009', u'tzname': u'UTC'}",-9999.0,-9999.0,100,East,-9999.0,-9999.0,-999,-999,5.8,9.3
29,Clear,"{u'mday': u'14', u'hour': u'15', u'min': u'00', u'mon': u'08', u'pretty': u'3:00 PM CEST on August 14, 2009', u'year': u'2009', u'tzname': u'Europe/Paris'}",46.4,8.0,0,0,-9999,-9999,32,clear,METAR LFPB 141300Z 01003KT 290V100 CAVOK 26/08 Q1018 NOSIG,-9999.00,-9999.00,30.06,1018,0,0,78.8,26.0,0,0,"{u'mday': u'14', u'hour': u'13', u'min': u'00', u'mon': u'08', u'pretty': u'1:00 PM GMT on August 14, 2009', u'year': u'2009', u'tzname': u'UTC'}",-9999.0,-9999.0,10,North,-9999.0,-9999.0,-999,-999,3.5,5.6
30,Clear,"{u'mday': u'14', u'hour': u'15', u'min': u'30', u'mon': u'08', u'pretty': u'3:30 PM CEST on August 14, 2009', u'year': u'2009', u'tzname': u'Europe/Paris'}",46.4,8.0,0,0,-9999,-9999,32,clear,METAR LFPB 141330Z 11005KT 040V190 CAVOK 26/08 Q1018 NOSIG,-9999.00,-9999.00,30.06,1018,0,0,78.8,26.0,0,0,"{u'mday': u'14', u'hour': u'13', u'min': u'30', u'mon': u'08', u'pretty': u'1:30 PM GMT on August 14, 2009', u'year': u'2009', u'tzname': u'UTC'}",-9999.0,-9999.0,110,ESE,-9999.0,-9999.0,-999,-999,5.8,9.3
31,Clear,"{u'mday': u'14', u'hour': u'16', u'min': u'00', u'mon': u'08', u'pretty': u'4:00 PM CEST on August 14, 2009', u'year': u'2009', u'tzname': u'Europe/Paris'}",44.6,7.0,0,0,-9999,-9999,30,clear,METAR LFPB 141400Z VRB04KT CAVOK 26/07 Q1018 NOSIG,-9999.00,-9999.00,30.06,1018,0,0,78.8,26.0,0,0,"{u'mday': u'14', u'hour': u'14', u'min': u'00', u'mon': u'08', u'pretty': u'2:00 PM GMT on August 14, 2009', u'year': u'2009', u'tzname': u'UTC'}",-9999.0,-9999.0,0,Variable,-9999.0,-9999.0,-999,-999,4.6,7.4
32,Clear,"{u'mday': u'14', u'hour': u'16', u'min': u'30', u'mon': u'08', u'pretty': u'4:30 PM CEST on August 14, 2009', u'year': u'2009', u'tzname': u'Europe/Paris'}",44.6,7.0,0,0,-9999,-9999,30,clear,METAR LFPB 141430Z VRB03KT CAVOK 26/07 Q1017 NOSIG,-9999.00,-9999.00,30.04,1017,0,0,78.8,26.0,0,0,"{u'mday': u'14', u'hour': u'14', u'min': u'30', u'mon': u'08', u'pretty': u'2:30 PM GMT on August 14, 2009', u'year': u'2009', u'tzname': u'UTC'}",-9999.0,-9999.0,0,Variable,-9999.0,-9999.0,-999,-999,3.5,5.6
33,Clear,"{u'mday': u'14', u'hour': u'17', u'min': u'00', u'mon': u'08', u'pretty': u'5:00 PM CEST on August 14, 2009', u'year': u'2009', u'tzname': u'Europe/Paris'}",44.6,7.0,0,0,-9999,-9999,28,clear,METAR LFPB 141500Z 15005KT 130V220 CAVOK 27/07 Q1017 NOSIG,-9999.00,-9999.00,30.04,1017,0,0,80.6,27.0,0,0,"{u'mday': u'14', u'hour': u'15', u'min': u'00', u'mon': u'08', u'pretty': u'3:00 PM GMT on August 14, 2009', u'year': u'2009', u'tzname': u'UTC'}",-9999.0,-9999.0,150,SSE,-9999.0,-9999.0,-999,-999,5.8,9.3
34,Clear,"{u'mday': u'14', u'hour': u'17', u'min': u'30', u'mon': u'08', u'pretty': u'5:30 PM CEST on August 14, 2009', u'year': u'2009', u'tzname': u'Europe/Paris'}",44.6,7.0,0,0,-9999,-9999,28,clear,METAR LFPB 141530Z 18004KT 140V250 CAVOK 27/07 Q1017 NOSIG,-9999.00,-9999.00,30.04,1017,0,0,80.6,27.0,0,0,"{u'mday': u'14', u'hour': u'15', u'min': u'30', u'mon': u'08', u'pretty': u'3:30 PM GMT on August 14, 2009', u'year': u'2009', u'tzname': u'UTC'}",-9999.0,-9999.0,180,South,-9999.0,-9999.0,-999,-999,4.6,7.4
35,Clear,"{u'mday': u'14', u'hour': u'18', u'min': u'00', u'mon': u'08', u'pretty': u'6:00 PM CEST on August 14, 2009', u'year': u'2009', u'tzname': u'Europe/Paris'}",44.6,7.0,0,0,-9999,-9999,28,clear,METAR LFPB 141600Z 19003KT 110V260 CAVOK 27/07 Q1017 NOSIG,-9999.00,-9999.00,30.04,1017,0,0,80.6,27.0,0,0,"{u'mday': u'14', u'hour': u'16', u'min': u'00', u'mon': u'08', u'pretty': u'4:00 PM GMT on August 14, 2009', u'year': u'2009', u'tzname': u'UTC'}",-9999.0,-9999.0,190,South,-9999.0,-9999.0,-999,-999,3.5,5.6
36,Clear,"{u'mday': u'14', u'hour': u'18', u'min': u'30', u'mon': u'08', u'pretty': u'6:30 PM CEST on August 14, 2009', u'year': u'2009', u'tzname': u'Europe/Paris'}",44.6,7.0,0,0,-9999,-9999,28,clear,METAR LFPB 141630Z VRB03KT CAVOK 27/07 Q1017 NOSIG,-9999.00,-9999.00,30.04,1017,0,0,80.6,27.0,0,0,"{u'mday': u'14', u'hour': u'16', u'min': u'30', u'mon': u'08', u'pretty': u'4:30 PM GMT on August 14, 2009', u'year': u'2009', u'tzname': u'UTC'}",-9999.0,-9999.0,0,Variable,-9999.0,-9999.0,-999,-999,3.5,5.6
37,Unknown,"{u'mday': u'14', u'hour': u'19', u'min': u'00', u'mon': u'08', u'pretty': u'7:00 PM CEST on August 14, 2009', u'year': u'2009', u'tzname': u'Europe/Paris'}",44.6,7.0,0,0,-9999,-9999,30,unknown,METAR LFPB 141700Z AUTO 06003KT 360V130 9999NDV NSC 26/07 Q1017,-9999.00,-9999.00,30.04,1017,0,0,78.8,26.0,0,0,"{u'mday': u'14', u'hour': u'17', u'min': u'00', u'mon': u'08', u'pretty': u'5:00 PM GMT on August 14, 2009', u'year': u'2009', u'tzname': u'UTC'}",6.2,10.0,60,ENE,-9999.0,-9999.0,-999,-999,3.5,5.6
38,Unknown,"{u'mday': u'14', u'hour': u'19', u'min': u'30', u'mon': u'08', u'pretty': u'7:30 PM CEST on August 14, 2009', u'year': u'2009', u'tzname': u'Europe/Paris'}",46.4,8.0,0,0,-9999,-9999,32,unknown,METAR LFPB 141730Z AUTO 07003KT 020V110 9999NDV NSC 26/08 Q1017,-9999.00,-9999.00,30.04,1017,0,0,78.8,26.0,0,0,"{u'mday': u'14', u'hour': u'17', u'min': u'30', u'mon': u'08', u'pretty': u'5:30 PM GMT on August 14, 2009', u'year': u'2009', u'tzname': u'UTC'}",6.2,10.0,70,ENE,-9999.0,-9999.0,-999,-999,3.5,5.6
39,Unknown,"{u'mday': u'14', u'hour': u'20', u'min': u'00', u'mon': u'08', u'pretty': u'8:00 PM CEST on August 14, 2009', u'year': u'2009', u'tzname': u'Europe/Paris'}",48.2,9.0,0,0,-9999,-9999,36,unknown,METAR LFPB 141800Z AUTO 07004KT 9999NDV NSC 25/09 Q1017,-9999.00,-9999.00,30.04,1017,0,0,77.0,25.0,0,0,"{u'mday': u'14', u'hour': u'18', u'min': u'00', u'mon': u'08', u'pretty': u'6:00 PM GMT on August 14, 2009', u'year': u'2009', u'tzname': u'UTC'}",6.2,10.0,70,ENE,-9999.0,-9999.0,-999,-999,4.6,7.4
40,Unknown,"{u'mday': u'14', u'hour': u'20', u'min': u'30', u'mon': u'08', u'pretty': u'8:30 PM CEST on August 14, 2009', u'year': u'2009', u'tzname': u'Europe/Paris'}",48.2,9.0,0,0,-9999,-9999,38,unknown,METAR LFPB 141830Z AUTO 06005KT 9999NDV NSC 24/09 Q1017,-9999.00,-9999.00,30.04,1017,0,0,75.2,24.0,0,0,"{u'mday': u'14', u'hour': u'18', u'min': u'30', u'mon': u'08', u'pretty': u'6:30 PM GMT on August 14, 2009', u'year': u'2009', u'tzname': u'UTC'}",6.2,10.0,60,ENE,-9999.0,-9999.0,-999,-999,5.8,9.3
41,Unknown,"{u'mday': u'14', u'hour': u'21', u'min': u'00', u'mon': u'08', u'pretty': u'9:00 PM CEST on August 14, 2009', u'year': u'2009', u'tzname': u'Europe/Paris'}",48.2,9.0,0,0,-9999,-9999,43,unknown,METAR LFPB 141900Z AUTO 09006KT 9999NDV NSC 22/09 Q1017,-9999.00,-9999.00,30.04,1017,0,0,71.6,22.0,0,0,"{u'mday': u'14', u'hour': u'19', u'min': u'00', u'mon': u'08', u'pretty': u'7:00 PM GMT on August 14, 2009', u'year': u'2009', u'tzname': u'UTC'}",6.2,10.0,90,East,-9999.0,-9999.0,-999,-999,6.9,11.1
42,Unknown,"{u'mday': u'14', u'hour': u'21', u'min': u'30', u'mon': u'08', u'pretty': u'9:30 PM CEST on August 14, 2009', u'year': u'2009', u'tzname': u'Europe/Paris'}",48.2,9.0,0,0,-9999,-9999,46,unknown,METAR LFPB 141930Z AUTO 10006KT 9999NDV NSC 21/09 Q1017,-9999.00,-9999.00,30.04,1017,0,0,69.8,21.0,0,0,"{u'mday': u'14', u'hour': u'19', u'min': u'30', u'mon': u'08', u'pretty': u'7:30 PM GMT on August 14, 2009', u'year': u'2009', u'tzname': u'UTC'}",6.2,10.0,100,East,-9999.0,-9999.0,-999,-999,6.9,11.1
43,Unknown,"{u'mday': u'14', u'hour': u'22', u'min': u'00', u'mon': u'08', u'pretty': u'10:00 PM CEST on August 14, 2009', u'year': u'2009', u'tzname': u'Europe/Paris'}",48.2,9.0,0,0,-9999,-9999,49,unknown,METAR LFPB 142000Z AUTO 08005KT 9999NDV NSC 20/09 Q1017,-9999.00,-9999.00,30.04,1017,0,0,68.0,20.0,0,0,"{u'mday': u'14', u'hour': u'20', u'min': u'00', u'mon': u'08', u'pretty': u'8:00 PM GMT on August 14, 2009', u'year': u'2009', u'tzname': u'UTC'}",6.2,10.0,80,East,-9999.0,-9999.0,-999,-999,5.8,9.3
44,Unknown,"{u'mday': u'14', u'hour': u'22', u'min': u'30', u'mon': u'08', u'pretty': u'10:30 PM CEST on August 14, 2009', u'year': u'2009', u'tzname': u'Europe/Paris'}",50.0,10.0,0,0,-9999,-9999,56,unknown,METAR LFPB 142030Z AUTO 08005KT 9999NDV NSC 19/10 Q1017,-9999.00,-9999.00,30.04,1017,0,0,66.2,19.0,0,0,"{u'mday': u'14', u'hour': u'20', u'min': u'30', u'mon': u'08', u'pretty': u'8:30 PM GMT on August 14, 2009', u'year': u'2009', u'tzname': u'UTC'}",6.2,10.0,80,East,-9999.0,-9999.0,-999,-999,5.8,9.3
45,Unknown,"{u'mday': u'14', u'hour': u'23', u'min': u'00', u'mon': u'08', u'pretty': u'11:00 PM CEST on August 14, 2009', u'year': u'2009', u'tzname': u'Europe/Paris'}",50.0,10.0,0,0,-9999,-9999,56,unknown,METAR LFPB 142100Z AUTO 07005KT 9999NDV NSC 19/10 Q1017,-9999.00,-9999.00,30.04,1017,0,0,66.2,19.0,0,0,"{u'mday': u'14', u'hour': u'21', u'min': u'00', u'mon': u'08', u'pretty': u'9:00 PM GMT on August 14, 2009', u'year': u'2009', u'tzname': u'UTC'}",6.2,10.0,70,ENE,-9999.0,-9999.0,-999,-999,5.8,9.3
46,Unknown,"{u'mday': u'14', u'hour': u'23', u'min': u'30', u'mon': u'08', u'pretty': u'11:30 PM CEST on August 14, 2009', u'year': u'2009', u'tzname': u'Europe/Paris'}",50.0,10.0,0,0,-9999,-9999,59,unknown,METAR LFPB 142130Z AUTO 07004KT 9999NDV NSC 18/10 Q1017,-9999.00,-9999.00,30.04,1017,0,0,64.4,18.0,0,0,"{u'mday': u'14', u'hour': u'21', u'min': u'30', u'mon': u'08', u'pretty': u'9:30 PM GMT on August 14, 2009', u'year': u'2009', u'tzname': u'UTC'}",6.2,10.0,70,ENE,-9999.0,-9999.0,-999,-999,4.6,7.4
0,Unknown,"{u'mday': u'15', u'hour': u'00', u'min': u'00', u'mon': u'08', u'pretty': u'12:00 AM CEST on August 15, 2009', u'year': u'2009', u'tzname': u'Europe/Paris'}",50.0,10.0,0,0,-9999,-9999,59,unknown,METAR LFPB 142200Z AUTO 06003KT 9999NDV NSC 18/10 Q1017,-9999.00,-9999.00,30.04,1017,0,0,64.4,18.0,0,0,"{u'mday': u'14', u'hour': u'22', u'min': u'00', u'mon': u'08', u'pretty': u'10:00 PM GMT on August 14, 2009', u'year': u'2009', u'tzname': u'UTC'}",6.2,10.0,60,ENE,-9999.0,-9999.0,-999,-999,3.5,5.6
1,Unknown,"{u'mday': u'15', u'hour': u'00', u'min': u'30', u'mon': u'08', u'pretty': u'12:30 AM CEST on August 15, 2009', u'year': u'2009', u'tzname': u'Europe/Paris'}",50.0,10.0,0,0,-9999,-9999,59,unknown,METAR LFPB 142230Z AUTO 06004KT 9999NDV NSC 18/10 Q1017,-9999.00,-9999.00,30.04,1017,0,0,64.4,18.0,0,0,"{u'mday': u'14', u'hour': u'22', u'min': u'30', u'mon': u'08', u'pretty': u'10:30 PM GMT on August 14, 2009', u'year': u'2009', u'tzname': u'UTC'}",6.2,10.0,60,ENE,-9999.0,-9999.0,-999,-999,4.6,7.4
2,Unknown,"{u'mday': u'15', u'hour': u'01', u'min': u'00', u'mon': u'08', u'pretty': u'1:00 AM CEST on August 15, 2009', u'year': u'2009', u'tzname': u'Europe/Paris'}",50.0,10.0,0,0,-9999,-9999,63,unknown,METAR LFPB 142300Z AUTO 07003KT 9999NDV NSC 17/10 Q1017,-9999.00,-9999.00,30.04,1017,0,0,62.6,17.0,0,0,"{u'mday': u'14', u'hour': u'23', u'min': u'00', u'mon': u'08', u'pretty': u'11:00 PM GMT on August 14, 2009', u'year': u'2009', u'tzname': u'UTC'}",6.2,10.0,70,ENE,-9999.0,-9999.0,-999,-999,3.5,5.6
3,Unknown,"{u'mday': u'15', u'hour': u'01', u'min': u'30', u'mon': u'08', u'pretty': u'1:30 AM CEST on August 15, 2009', u'year': u'2009', u'tzname': u'Europe/Paris'}",50.0,10.0,0,0,-9999,-9999,63,unknown,METAR LFPB 142330Z AUTO 08003KT 9999NDV NSC 17/10 Q1017,-9999.00,-9999.00,30.04,1017,0,0,62.6,17.0,0,0,"{u'mday': u'14', u'hour': u'23', u'min': u'30', u'mon': u'08', u'pretty': u'11:30 PM GMT on August 14, 2009', u'year': u'2009', u'tzname': u'UTC'}",6.2,10.0,80,East,-9999.0,-9999.0,-999,-999,3.5,5.6
4,Unknown,"{u'mday': u'15', u'hour': u'02', u'min': u'00', u'mon': u'08', u'pretty': u'2:00 AM CEST on August 15, 2009', u'year': u'2009', u'tzname': u'Europe/Paris'}",50.0,10.0,0,0,-9999,-9999,63,unknown,METAR LFPB 150000Z AUTO 06004KT 9999NDV NSC 17/10 Q1017,-9999.00,-9999.00,30.04,1017,0,0,62.6,17.0,0,0,"{u'mday': u'15', u'hour': u'00', u'min': u'00', u'mon': u'08', u'pretty': u'12:00 AM GMT on August 15, 2009', u'year': u'2009', u'tzname': u'UTC'}",6.2,10.0,60,ENE,-9999.0,-9999.0,-999,-999,4.6,7.4
5,Unknown,"{u'mday': u'15', u'hour': u'02', u'min': u'30', u'mon': u'08', u'pretty': u'2:30 AM CEST on August 15, 2009', u'year': u'2009', u'tzname': u'Europe/Paris'}",50.0,10.0,0,0,-9999,-9999,68,unknown,METAR LFPB 150030Z AUTO 05004KT 9999NDV NSC 16/10 Q1017,-9999.00,-9999.00,30.04,1017,0,0,60.8,16.0,0,0,"{u'mday': u'15', u'hour': u'00', u'min': u'30', u'mon': u'08', u'pretty': u'12:30 AM GMT on August 15, 2009', u'year': u'2009', u'tzname': u'UTC'}",6.2,10.0,50,NE,-9999.0,-9999.0,-999,-999,4.6,7.4
6,Unknown,"{u'mday': u'15', u'hour': u'03', u'min': u'00', u'mon': u'08', u'pretty': u'3:00 AM CEST on August 15, 2009', u'year': u'2009', u'tzname': u'Europe/Paris'}",50.0,10.0,0,0,-9999,-9999,68,unknown,METAR LFPB 150100Z AUTO 05003KT 9999NDV NSC 16/10 Q1017,-9999.00,-9999.00,30.04,1017,0,0,60.8,16.0,0,0,"{u'mday': u'15', u'hour': u'01', u'min': u'00', u'mon': u'08', u'pretty': u'1:00 AM GMT on August 15, 2009', u'year': u'2009', u'tzname': u'UTC'}",6.2,10.0,50,NE,-9999.0,-9999.0,-999,-999,3.5,5.6
7,Unknown,"{u'mday': u'15', u'hour': u'03', u'min': u'30', u'mon': u'08', u'pretty': u'3:30 AM CEST on August 15, 2009', u'year': u'2009', u'tzname': u'Europe/Paris'}",50.0,10.0,0,0,-9999,-9999,68,unknown,METAR LFPB 150130Z AUTO 06003KT 9999NDV NSC 16/10 Q1017,-9999.00,-9999.00,30.04,1017,0,0,60.8,16.0,0,0,"{u'mday': u'15', u'hour': u'01', u'min': u'30', u'mon': u'08', u'pretty': u'1:30 AM GMT on August 15, 2009', u'year': u'2009', u'tzname': u'UTC'}",6.2,10.0,60,ENE,-9999.0,-9999.0,-999,-999,3.5,5.6
8,Unknown,"{u'mday': u'15', u'hour': u'04', u'min': u'00', u'mon': u'08', u'pretty': u'4:00 AM CEST on August 15, 2009', u'year': u'2009', u'tzname': u'Europe/Paris'}",50.0,10.0,0,0,-9999,-9999,72,unknown,METAR LFPB 150200Z AUTO VRB03KT 9999NDV NSC 15/10 Q1017,-9999.00,-9999.00,30.04,1017,0,0,59.0,15.0,0,0,"{u'mday': u'15', u'hour': u'02', u'min': u'00', u'mon': u'08', u'pretty': u'2:00 AM GMT on August 15, 2009', u'year': u'2009', u'tzname': u'UTC'}",6.2,10.0,0,Variable,-9999.0,-9999.0,-999,-999,3.5,5.6
9,Unknown,"{u'mday': u'15', u'hour': u'04', u'min': u'30', u'mon': u'08', u'pretty': u'4:30 AM CEST on August 15, 2009', u'year': u'2009', u'tzname': u'Europe/Paris'}",50.0,10.0,0,0,-9999,-9999,72,unknown,METAR LFPB 150230Z AUTO 08003KT 9999NDV NSC 15/10 Q1017,-9999.00,-9999.00,30.04,1017,0,0,59.0,15.0,0,0,"{u'mday': u'15', u'hour': u'02', u'min': u'30', u'mon': u'08', u'pretty': u'2:30 AM GMT on August 15, 2009', u'year': u'2009', u'tzname': u'UTC'}",6.2,10.0,80,East,-9999.0,-9999.0,-999,-999,3.5,5.6
10,Unknown,"{u'mday': u'15', u'hour': u'05', u'min': u'00', u'mon': u'08', u'pretty': u'5:00 AM CEST on August 15, 2009', u'year': u'2009', u'tzname': u'Europe/Paris'}",50.0,10.0,0,0,-9999,-9999,72,unknown,METAR LFPB 150300Z AUTO 08003KT 9999NDV NSC 15/10 Q1017,-9999.00,-9999.00,30.04,1017,0,0,59.0,15.0,0,0,"{u'mday': u'15', u'hour': u'03', u'min': u'00', u'mon': u'08', u'pretty': u'3:00 AM GMT on August 15, 2009', u'year': u'2009', u'tzname': u'UTC'}",6.2,10.0,80,East,-9999.0,-9999.0,-999,-999,3.5,5.6
11,Unknown,"{u'mday': u'15', u'hour': u'05', u'min': u'30', u'mon': u'08', u'pretty': u'5:30 AM CEST on August 15, 2009', u'year': u'2009', u'tzname': u'Europe/Paris'}",50.0,10.0,0,0,-9999,-9999,72,unknown,METAR LFPB 150330Z AUTO 07004KT 9999NDV NSC 15/10 Q1017,-9999.00,-9999.00,30.04,1017,0,0,59.0,15.0,0,0,"{u'mday': u'15', u'hour': u'03', u'min': u'30', u'mon': u'08', u'pretty': u'3:30 AM GMT on August 15, 2009', u'year': u'2009', u'tzname': u'UTC'}",6.2,10.0,70,ENE,-9999.0,-9999.0,-999,-999,4.6,7.4
12,Unknown,"{u'mday': u'15', u'hour': u'06', u'min': u'00', u'mon': u'08', u'pretty': u'6:00 AM CEST on August 15, 2009', u'year': u'2009', u'tzname': u'Europe/Paris'}",50.0,10.0,0,0,-9999,-9999,72,unknown,METAR LFPB 150400Z AUTO 05004KT 9999NDV NCD 15/10 Q1016,-9999.00,-9999.00,30.01,1016,0,0,59.0,15.0,0,0,"{u'mday': u'15', u'hour': u'04', u'min': u'00', u'mon': u'08', u'pretty': u'4:00 AM GMT on August 15, 2009', u'year': u'2009', u'tzname': u'UTC'}",6.2,10.0,50,NE,-9999.0,-9999.0,-999,-999,4.6,7.4
13,Clear,"{u'mday': u'15', u'hour': u'06', u'min': u'30', u'mon': u'08', u'pretty': u'6:30 AM CEST on August 15, 2009', u'year': u'2009', u'tzname': u'Europe/Paris'}",50.0,10.0,0,0,-9999,-9999,77,clear,METAR LFPB 150430Z 05004KT CAVOK 14/10 Q1017 NOSIG,-9999.00,-9999.00,30.04,1017,0,0,57.2,14.0,0,0,"{u'mday': u'15', u'hour': u'04', u'min': u'30', u'mon': u'08', u'pretty': u'4:30 AM GMT on August 15, 2009', u'year': u'2009', u'tzname': u'UTC'}",-9999.0,-9999.0,50,NE,-9999.0,-9999.0,-999,-999,4.6,7.4
14,Clear,"{u'mday': u'15', u'hour': u'07', u'min': u'00', u'mon': u'08', u'pretty': u'7:00 AM CEST on August 15, 2009', u'year': u'2009', u'tzname': u'Europe/Paris'}",50.0,10.0,0,0,-9999,-9999,77,clear,METAR LFPB 150500Z 07005KT CAVOK 14/10 Q1017 NOSIG,-9999.00,-9999.00,30.04,1017,0,0,57.2,14.0,0,0,"{u'mday': u'15', u'hour': u'05', u'min': u'00', u'mon': u'08', u'pretty': u'5:00 AM GMT on August 15, 2009', u'year': u'2009', u'tzname': u'UTC'}",-9999.0,-9999.0,70,ENE,-9999.0,-9999.0,-999,-999,5.8,9.3
15,Clear,"{u'mday': u'15', u'hour': u'07', u'min': u'30', u'mon': u'08', u'pretty': u'7:30 AM CEST on August 15, 2009', u'year': u'2009', u'tzname': u'Europe/Paris'}",51.8,11.0,0,0,-9999,-9999,82,clear,METAR LFPB 150530Z 09005KT CAVOK 14/11 Q1017 NOSIG,-9999.00,-9999.00,30.04,1017,0,0,57.2,14.0,0,0,"{u'mday': u'15', u'hour': u'05', u'min': u'30', u'mon': u'08', u'pretty': u'5:30 AM GMT on August 15, 2009', u'year': u'2009', u'tzname': u'UTC'}",-9999.0,-9999.0,90,East,-9999.0,-9999.0,-999,-999,5.8,9.3
16,Clear,"{u'mday': u'15', u'hour': u'08', u'min': u'00', u'mon': u'08', u'pretty': u'8:00 AM CEST on August 15, 2009', u'year': u'2009', u'tzname': u'Europe/Paris'}",53.6,12.0,0,0,-9999,-9999,77,clear,METAR LFPB 150600Z 07004KT CAVOK 16/12 Q1017 NOSIG,-9999.00,-9999.00,30.04,1017,0,0,60.8,16.0,0,0,"{u'mday': u'15', u'hour': u'06', u'min': u'00', u'mon': u'08', u'pretty': u'6:00 AM GMT on August 15, 2009', u'year': u'2009', u'tzname': u'UTC'}",-9999.0,-9999.0,70,ENE,-9999.0,-9999.0,-999,-999,4.6,7.4
17,Clear,"{u'mday': u'15', u'hour': u'08', u'min': u'30', u'mon': u'08', u'pretty': u'8:30 AM CEST on August 15, 2009', u'year': u'2009', u'tzname': u'Europe/Paris'}",51.8,11.0,0,0,-9999,-9999,64,clear,METAR LFPB 150630Z 08003KT CAVOK 18/11 Q1017 NOSIG,-9999.00,-9999.00,30.04,1017,0,0,64.4,18.0,0,0,"{u'mday': u'15', u'hour': u'06', u'min': u'30', u'mon': u'08', u'pretty': u'6:30 AM GMT on August 15, 2009', u'year': u'2009', u'tzname': u'UTC'}",-9999.0,-9999.0,80,East,-9999.0,-9999.0,-999,-999,3.5,5.6
18,Clear,"{u'mday': u'15', u'hour': u'09', u'min': u'00', u'mon': u'08', u'pretty': u'9:00 AM CEST on August 15, 2009', u'year': u'2009', u'tzname': u'Europe/Paris'}",51.8,11.0,0,0,-9999,-9999,56,clear,METAR LFPB 150700Z VRB03KT CAVOK 20/11 Q1017 NOSIG,-9999.00,-9999.00,30.04,1017,0,0,68.0,20.0,0,0,"{u'mday': u'15', u'hour': u'07', u'min': u'00', u'mon': u'08', u'pretty': u'7:00 AM GMT on August 15, 2009', u'year': u'2009', u'tzname': u'UTC'}",-9999.0,-9999.0,0,Variable,-9999.0,-9999.0,-999,-999,3.5,5.6
19,Clear,"{u'mday': u'15', u'hour': u'09', u'min': u'30', u'mon': u'08', u'pretty': u'9:30 AM CEST on August 15, 2009', u'year': u'2009', u'tzname': u'Europe/Paris'}",51.8,11.0,0,0,-9999,-9999,53,clear,METAR LFPB 150730Z VRB03KT CAVOK 21/11 Q1017 NOSIG,-9999.00,-9999.00,30.04,1017,0,0,69.8,21.0,0,0,"{u'mday': u'15', u'hour': u'07', u'min': u'30', u'mon': u'08', u'pretty': u'7:30 AM GMT on August 15, 2009', u'year': u'2009', u'tzname': u'UTC'}",-9999.0,-9999.0,0,Variable,-9999.0,-9999.0,-999,-999,3.5,5.6
20,Clear,"{u'mday': u'15', u'hour': u'10', u'min': u'00', u'mon': u'08', u'pretty': u'10:00 AM CEST on August 15, 2009', u'year': u'2009', u'tzname': u'Europe/Paris'}",51.8,11.0,0,0,-9999,-9999,50,clear,METAR LFPB 150800Z 17003KT 110V210 CAVOK 22/11 Q1017 NOSIG,-9999.00,-9999.00,30.04,1017,0,0,71.6,22.0,0,0,"{u'mday': u'15', u'hour': u'08', u'min': u'00', u'mon': u'08', u'pretty': u'8:00 AM GMT on August 15, 2009', u'year': u'2009', u'tzname': u'UTC'}",-9999.0,-9999.0,170,South,-9999.0,-9999.0,-999,-999,3.5,5.6
21,Clear,"{u'mday': u'15', u'hour': u'10', u'min': u'30', u'mon': u'08', u'pretty': u'10:30 AM CEST on August 15, 2009', u'year': u'2009', u'tzname': u'Europe/Paris'}",51.8,11.0,0,0,-9999,-9999,47,clear,METAR LFPB 150830Z 17004KT 130V200 CAVOK 23/11 Q1016 NOSIG,-9999.00,-9999.00,30.01,1016,0,0,73.4,23.0,0,0,"{u'mday': u'15', u'hour': u'08', u'min': u'30', u'mon': u'08', u'pretty': u'8:30 AM GMT on August 15, 2009', u'year': u'2009', u'tzname': u'UTC'}",-9999.0,-9999.0,170,South,-9999.0,-9999.0,-999,-999,4.6,7.4
22,Clear,"{u'mday': u'15', u'hour': u'11', u'min': u'00', u'mon': u'08', u'pretty': u'11:00 AM CEST on August 15, 2009', u'year': u'2009', u'tzname': u'Europe/Paris'}",53.6,12.0,0,0,-9999,-9999,44,clear,METAR LFPB 150900Z 18004KT 120V220 CAVOK 25/12 Q1016 NOSIG,-9999.00,-9999.00,30.01,1016,0,0,77.0,25.0,0,0,"{u'mday': u'15', u'hour': u'09', u'min': u'00', u'mon': u'08', u'pretty': u'9:00 AM GMT on August 15, 2009', u'year': u'2009', u'tzname': u'UTC'}",-9999.0,-9999.0,180,South,-9999.0,-9999.0,-999,-999,4.6,7.4
23,Clear,"{u'mday': u'15', u'hour': u'11', u'min': u'30', u'mon': u'08', u'pretty': u'11:30 AM CEST on August 15, 2009', u'year': u'2009', u'tzname': u'Europe/Paris'}",53.6,12.0,0,0,-9999,-9999,42,clear,METAR LFPB 150930Z 16005KT 110V220 CAVOK 26/12 Q1016 NOSIG,-9999.00,-9999.00,30.01,1016,0,0,78.8,26.0,0,0,"{u'mday': u'15', u'hour': u'09', u'min': u'30', u'mon': u'08', u'pretty': u'9:30 AM GMT on August 15, 2009', u'year': u'2009', u'tzname': u'UTC'}",-9999.0,-9999.0,160,SSE,-9999.0,-9999.0,-999,-999,5.8,9.3
24,Clear,"{u'mday': u'15', u'hour': u'12', u'min': u'00', u'mon': u'08', u'pretty': u'12:00 PM CEST on August 15, 2009', u'year': u'2009', u'tzname': u'Europe/Paris'}",53.6,12.0,0,0,80.3,26.8,39,clear,METAR LFPB 151000Z 17007KT 130V220 CAVOK 27/12 Q1016 NOSIG,-9999.00,-9999.00,30.01,1016,0,0,80.6,27.0,0,0,"{u'mday': u'15', u'hour': u'10', u'min': u'00', u'mon': u'08', u'pretty': u'10:00 AM GMT on August 15, 2009', u'year': u'2009', u'tzname': u'UTC'}",-9999.0,-9999.0,170,South,-9999.0,-9999.0,-999,-999,8.1,13.0
25,Clear,"{u'mday': u'15', u'hour': u'12', u'min': u'30', u'mon': u'08', u'pretty': u'12:30 PM CEST on August 15, 2009', u'year': u'2009', u'tzname': u'Europe/Paris'}",53.6,12.0,0,0,81.4,27.5,37,clear,METAR LFPB 151030Z 18008KT 130V230 CAVOK 28/12 Q1016 NOSIG,-9999.00,-9999.00,30.01,1016,0,0,82.4,28.0,0,0,"{u'mday': u'15', u'hour': u'10', u'min': u'30', u'mon': u'08', u'pretty': u'10:30 AM GMT on August 15, 2009', u'year': u'2009', u'tzname': u'UTC'}",-9999.0,-9999.0,180,South,-9999.0,-9999.0,-999,-999,9.2,14.8
26,Clear,"{u'mday': u'15', u'hour': u'13', u'min': u'00', u'mon': u'08', u'pretty': u'1:00 PM CEST on August 15, 2009', u'year': u'2009', u'tzname': u'Europe/Paris'}",53.6,12.0,0,0,81.4,27.5,37,clear,METAR LFPB 151100Z 17007KT 130V220 CAVOK 28/12 Q1016 NOSIG,-9999.00,-9999.00,30.01,1016,0,0,82.4,28.0,0,0,"{u'mday': u'15', u'hour': u'11', u'min': u'00', u'mon': u'08', u'pretty': u'11:00 AM GMT on August 15, 2009', u'year': u'2009', u'tzname': u'UTC'}",-9999.0,-9999.0,170,South,-9999.0,-9999.0,-999,-999,8.1,13.0
27,Clear,"{u'mday': u'15', u'hour': u'13', u'min': u'30', u'mon': u'08', u'pretty': u'1:30 PM CEST on August 15, 2009', u'year': u'2009', u'tzname': u'Europe/Paris'}",51.8,11.0,0,0,-9999,-9999,35,clear,METAR LFPB 151130Z 22008KT 160V260 CAVOK 28/11 Q1015 NOSIG,-9999.00,-9999.00,29.98,1015,0,0,82.4,28.0,0,0,"{u'mday': u'15', u'hour': u'11', u'min': u'30', u'mon': u'08', u'pretty': u'11:30 AM GMT on August 15, 2009', u'year': u'2009', u'tzname': u'UTC'}",-9999.0,-9999.0,220,SW,-9999.0,-9999.0,-999,-999,9.2,14.8
28,Clear,"{u'mday': u'15', u'hour': u'14', u'min': u'08', u'mon': u'08', u'pretty': u'2:08 PM CEST on August 15, 2009', u'year': u'2009', u'tzname': u'Europe/Paris'}",51.8,11.0,0,0,-9999,-9999,33,clear,METAR LFPB 151208Z 19008KT 120V260 CAVOK 29/11 Q1015 NOSIG,-9999.00,-9999.00,29.98,1015,0,0,84.2,29.0,0,0,"{u'mday': u'15', u'hour': u'12', u'min': u'08', u'mon': u'08', u'pretty': u'12:08 PM GMT on August 15, 2009', u'year': u'2009', u'tzname': u'UTC'}",-9999.0,-9999.0,190,South,-9999.0,-9999.0,-999,-999,9.2,14.8
29,Clear,"{u'mday': u'15', u'hour': u'14', u'min': u'30', u'mon': u'08', u'pretty': u'2:30 PM CEST on August 15, 2009', u'year': u'2009', u'tzname': u'Europe/Paris'}",51.8,11.0,0,0,-9999,-9999,31,clear,METAR LFPB 151230Z VRB06KT CAVOK 30/11 Q1015 NOSIG,-9999.00,-9999.00,29.98,1015,0,0,86.0,30.0,0,0,"{u'mday': u'15', u'hour': u'12', u'min': u'30', u'mon': u'08', u'pretty': u'12:30 PM GMT on August 15, 2009', u'year': u'2009', u'tzname': u'UTC'}",-9999.0,-9999.0,0,Variable,-9999.0,-9999.0,-999,-999,6.9,11.1
30,Clear,"{u'mday': u'15', u'hour': u'15', u'min': u'00', u'mon': u'08', u'pretty': u'3:00 PM CEST on August 15, 2009', u'year': u'2009', u'tzname': u'Europe/Paris'}",51.8,11.0,0,0,-9999,-9999,31,clear,METAR LFPB 151300Z VRB05KT CAVOK 30/11 Q1015 NOSIG,-9999.00,-9999.00,29.98,1015,0,0,86.0,30.0,0,0,"{u'mday': u'15', u'hour': u'13', u'min': u'00', u'mon': u'08', u'pretty': u'1:00 PM GMT on August 15, 2009', u'year': u'2009', u'tzname': u'UTC'}",-9999.0,-9999.0,0,Variable,-9999.0,-9999.0,-999,-999,5.8,9.3
31,Clear,"{u'mday': u'15', u'hour': u'15', u'min': u'30', u'mon': u'08', u'pretty': u'3:30 PM CEST on August 15, 2009', u'year': u'2009', u'tzname': u'Europe/Paris'}",51.8,11.0,0,0,-9999,-9999,29,clear,METAR LFPB 151330Z 22009KT 160V270 CAVOK 31/11 Q1015 NOSIG,-9999.00,-9999.00,29.98,1015,0,0,87.8,31.0,0,0,"{u'mday': u'15', u'hour': u'13', u'min': u'30', u'mon': u'08', u'pretty': u'1:30 PM GMT on August 15, 2009', u'year': u'2009', u'tzname': u'UTC'}",-9999.0,-9999.0,220,SW,-9999.0,-9999.0,-999,-999,10.4,16.7
32,Clear,"{u'mday': u'15', u'hour': u'16', u'min': u'30', u'mon': u'08', u'pretty': u'4:30 PM CEST on August 15, 2009', u'year': u'2009', u'tzname': u'Europe/Paris'}",51.8,11.0,0,0,-9999,-9999,27,clear,METAR LFPB 151430Z 23006KT 170V290 CAVOK 32/11 Q1014 NOSIG,-9999.00,-9999.00,29.95,1014,0,0,89.6,32.0,0,0,"{u'mday': u'15', u'hour': u'14', u'min': u'30', u'mon': u'08', u'pretty': u'2:30 PM GMT on August 15, 2009', u'year': u'2009', u'tzname': u'UTC'}",-9999.0,-9999.0,230,SW,-9999.0,-9999.0,-999,-999,6.9,11.1
33,Clear,"{u'mday': u'15', u'hour': u'17', u'min': u'00', u'mon': u'08', u'pretty': u'5:00 PM CEST on August 15, 2009', u'year': u'2009', u'tzname': u'Europe/Paris'}",51.8,11.0,0,0,-9999,-9999,27,clear,METAR LFPB 151500Z 23005KT 180V290 CAVOK 32/11 Q1014 NOSIG,-9999.00,-9999.00,29.95,1014,0,0,89.6,32.0,0,0,"{u'mday': u'15', u'hour': u'15', u'min': u'00', u'mon': u'08', u'pretty': u'3:00 PM GMT on August 15, 2009', u'year': u'2009', u'tzname': u'UTC'}",-9999.0,-9999.0,230,SW,-9999.0,-9999.0,-999,-999,5.8,9.3
34,Clear,"{u'mday': u'15', u'hour': u'17', u'min': u'30', u'mon': u'08', u'pretty': u'5:30 PM CEST on August 15, 2009', u'year': u'2009', u'tzname': u'Europe/Paris'}",50.0,10.0,0,0,-9999,-9999,26,clear,METAR LFPB 151530Z 21006KT 170V280 CAVOK 32/10 Q1014 NOSIG,-9999.00,-9999.00,29.95,1014,0,0,89.6,32.0,0,0,"{u'mday': u'15', u'hour': u'15', u'min': u'30', u'mon': u'08', u'pretty': u'3:30 PM GMT on August 15, 2009', u'year': u'2009', u'tzname': u'UTC'}",-9999.0,-9999.0,210,SSW,-9999.0,-9999.0,-999,-999,6.9,11.1
35,Clear,"{u'mday': u'15', u'hour': u'18', u'min': u'00', u'mon': u'08', u'pretty': u'6:00 PM CEST on August 15, 2009', u'year': u'2009', u'tzname': u'Europe/Paris'}",48.2,9.0,0,0,-9999,-9999,23,clear,METAR LFPB 151600Z 21008KT 180V250 CAVOK 33/09 Q1014 NOSIG,-9999.00,-9999.00,29.95,1014,0,0,91.4,33.0,0,0,"{u'mday': u'15', u'hour': u'16', u'min': u'00', u'mon': u'08', u'pretty': u'4:00 PM GMT on August 15, 2009', u'year': u'2009', u'tzname': u'UTC'}",-9999.0,-9999.0,210,SSW,-9999.0,-9999.0,-999,-999,9.2,14.8
36,Clear,"{u'mday': u'15', u'hour': u'18', u'min': u'30', u'mon': u'08', u'pretty': u'6:30 PM CEST on August 15, 2009', u'year': u'2009', u'tzname': u'Europe/Paris'}",50.0,10.0,0,0,-9999,-9999,24,clear,METAR LFPB 151630Z VRB05KT CAVOK 33/10 Q1013 NOSIG,-9999.00,-9999.00,29.92,1013,0,0,91.4,33.0,0,0,"{u'mday': u'15', u'hour': u'16', u'min': u'30', u'mon': u'08', u'pretty': u'4:30 PM GMT on August 15, 2009', u'year': u'2009', u'tzname': u'UTC'}",-9999.0,-9999.0,0,Variable,-9999.0,-9999.0,-999,-999,5.8,9.3
37,Unknown,"{u'mday': u'15', u'hour': u'19', u'min': u'00', u'mon': u'08', u'pretty': u'7:00 PM CEST on August 15, 2009', u'year': u'2009', u'tzname': u'Europe/Paris'}",50.0,10.0,0,0,-9999,-9999,24,unknown,METAR LFPB 151700Z AUTO 23006KT 190V250 9999NDV NSC 33/10 Q1013,-9999.00,-9999.00,29.92,1013,0,0,91.4,33.0,0,0,"{u'mday': u'15', u'hour': u'17', u'min': u'00', u'mon': u'08', u'pretty': u'5:00 PM GMT on August 15, 2009', u'year': u'2009', u'tzname': u'UTC'}",6.2,10.0,230,SW,-9999.0,-9999.0,-999,-999,6.9,11.1
38,Unknown,"{u'mday': u'15', u'hour': u'19', u'min': u'30', u'mon': u'08', u'pretty': u'7:30 PM CEST on August 15, 2009', u'year': u'2009', u'tzname': u'Europe/Paris'}",50.0,10.0,0,0,-9999,-9999,24,unknown,METAR LFPB 151730Z AUTO 24006KT 190V270 9999NDV NSC 33/10 Q1013,-9999.00,-9999.00,29.92,1013,0,0,91.4,33.0,0,0,"{u'mday': u'15', u'hour': u'17', u'min': u'30', u'mon': u'08', u'pretty': u'5:30 PM GMT on August 15, 2009', u'year': u'2009', u'tzname': u'UTC'}",6.2,10.0,240,WSW,-9999.0,-9999.0,-999,-999,6.9,11.1
39,Unknown,"{u'mday': u'15', u'hour': u'20', u'min': u'00', u'mon': u'08', u'pretty': u'8:00 PM CEST on August 15, 2009', u'year': u'2009', u'tzname': u'Europe/Paris'}",50.0,10.0,0,0,-9999,-9999,26,unknown,METAR LFPB 151800Z AUTO 24004KT 210V280 9999NDV NSC 32/10 Q1013,-9999.00,-9999.00,29.92,1013,0,0,89.6,32.0,0,0,"{u'mday': u'15', u'hour': u'18', u'min': u'00', u'mon': u'08', u'pretty': u'6:00 PM GMT on August 15, 2009', u'year': u'2009', u'tzname': u'UTC'}",6.2,10.0,240,WSW,-9999.0,-9999.0,-999,-999,4.6,7.4
40,Unknown,"{u'mday': u'15', u'hour': u'20', u'min': u'30', u'mon': u'08', u'pretty': u'8:30 PM CEST on August 15, 2009', u'year': u'2009', u'tzname': u'Europe/Paris'}",50.0,10.0,0,0,-9999,-9999,27,unknown,METAR LFPB 151830Z AUTO 31003KT 270V350 9999NDV NSC 31/10 Q1013,-9999.00,-9999.00,29.92,1013,0,0,87.8,31.0,0,0,"{u'mday': u'15', u'hour': u'18', u'min': u'30', u'mon': u'08', u'pretty': u'6:30 PM GMT on August 15, 2009', u'year': u'2009', u'tzname': u'UTC'}",6.2,10.0,310,NW,-9999.0,-9999.0,-999,-999,3.5,5.6
41,Unknown,"{u'mday': u'15', u'hour': u'21', u'min': u'00', u'mon': u'08', u'pretty': u'9:00 PM CEST on August 15, 2009', u'year': u'2009', u'tzname': u'Europe/Paris'}",51.8,11.0,0,0,-9999,-9999,33,unknown,METAR LFPB 151900Z AUTO 34003KT 9999NDV NSC 29/11 Q1013,-9999.00,-9999.00,29.92,1013,0,0,84.2,29.0,0,0,"{u'mday': u'15', u'hour': u'19', u'min': u'00', u'mon': u'08', u'pretty': u'7:00 PM GMT on August 15, 2009', u'year': u'2009', u'tzname': u'UTC'}",6.2,10.0,340,NNW,-9999.0,-9999.0,-999,-999,3.5,5.6
42,Unknown,"{u'mday': u'15', u'hour': u'21', u'min': u'30', u'mon': u'08', u'pretty': u'9:30 PM CEST on August 15, 2009', u'year': u'2009', u'tzname': u'Europe/Paris'}",51.8,11.0,0,0,-9999,-9999,35,unknown,METAR LFPB 151930Z AUTO 32004KT 280V340 9999NDV NSC 28/11 Q1014,-9999.00,-9999.00,29.95,1014,0,0,82.4,28.0,0,0,"{u'mday': u'15', u'hour': u'19', u'min': u'30', u'mon': u'08', u'pretty': u'7:30 PM GMT on August 15, 2009', u'year': u'2009', u'tzname': u'UTC'}",6.2,10.0,320,NW,-9999.0,-9999.0,-999,-999,4.6,7.4
43,Unknown,"{u'mday': u'15', u'hour': u'22', u'min': u'00', u'mon': u'08', u'pretty': u'10:00 PM CEST on August 15, 2009', u'year': u'2009', u'tzname': u'Europe/Paris'}",53.6,12.0,0,0,81.4,27.5,37,unknown,METAR LFPB 152000Z AUTO 32004KT 290V350 9999NDV NSC 28/12 Q1014,-9999.00,-9999.00,29.95,1014,0,0,82.4,28.0,0,0,"{u'mday': u'15', u'hour': u'20', u'min': u'00', u'mon': u'08', u'pretty': u'8:00 PM GMT on August 15, 2009', u'year': u'2009', u'tzname': u'UTC'}",6.2,10.0,320,NW,-9999.0,-9999.0,-999,-999,4.6,7.4
44,Unknown,"{u'mday': u'15', u'hour': u'22', u'min': u'30', u'mon': u'08', u'pretty': u'10:30 PM CEST on August 15, 2009', u'year': u'2009', u'tzname': u'Europe/Paris'}",57.2,14.0,0,0,-9999,-9999,47,unknown,METAR LFPB 152030Z AUTO 35007KT 9999NDV NSC 26/14 Q1015,-9999.00,-9999.00,29.98,1015,0,0,78.8,26.0,0,0,"{u'mday': u'15', u'hour': u'20', u'min': u'30', u'mon': u'08', u'pretty': u'8:30 PM GMT on August 15, 2009', u'year': u'2009', u'tzname': u'UTC'}",6.2,10.0,350,North,-9999.0,-9999.0,-999,-999,8.1,13.0
45,Unknown,"{u'mday': u'15', u'hour': u'23', u'min': u'00', u'mon': u'08', u'pretty': u'11:00 PM CEST on August 15, 2009', u'year': u'2009', u'tzname': u'Europe/Paris'}",60.8,16.0,0,0,-9999,-9999,61,unknown,METAR LFPB 152100Z AUTO 35008KT 9999NDV NSC 24/16 Q1015,-9999.00,-9999.00,29.98,1015,0,0,75.2,24.0,0,0,"{u'mday': u'15', u'hour': u'21', u'min': u'00', u'mon': u'08', u'pretty': u'9:00 PM GMT on August 15, 2009', u'year': u'2009', u'tzname': u'UTC'}",6.2,10.0,350,North,-9999.0,-9999.0,-999,-999,9.2,14.8
46,Unknown,"{u'mday': u'15', u'hour': u'23', u'min': u'30', u'mon': u'08', u'pretty': u'11:30 PM CEST on August 15, 2009', u'year': u'2009', u'tzname': u'Europe/Paris'}",60.8,16.0,0,0,-9999,-9999,65,unknown,METAR LFPB 152130Z AUTO 33005KT 280V360 9999NDV NSC 23/16 Q1016,-9999.00,-9999.00,30.01,1016,0,0,73.4,23.0,0,0,"{u'mday': u'15', u'hour': u'21', u'min': u'30', u'mon': u'08', u'pretty': u'9:30 PM GMT on August 15, 2009', u'year': u'2009', u'tzname': u'UTC'}",6.2,10.0,330,NNW,-9999.0,-9999.0,-999,-999,5.8,9.3
0,Unknown,"{u'mday': u'16', u'hour': u'00', u'min': u'00', u'mon': u'08', u'pretty': u'12:00 AM CEST on August 16, 2009', u'year': u'2009', u'tzname': u'Europe/Paris'}",60.8,16.0,0,0,-9999,-9999,69,unknown,METAR LFPB 152200Z AUTO 34006KT 280V010 9999NDV NSC 22/16 Q1016,-9999.00,-9999.00,30.01,1016,0,0,71.6,22.0,0,0,"{u'mday': u'15', u'hour': u'22', u'min': u'00', u'mon': u'08', u'pretty': u'10:00 PM GMT on August 15, 2009', u'year': u'2009', u'tzname': u'UTC'}",6.2,10.0,340,NNW,-9999.0,-9999.0,-999,-999,6.9,11.1
1,Unknown,"{u'mday': u'16', u'hour': u'00', u'min': u'30', u'mon': u'08', u'pretty': u'12:30 AM CEST on August 16, 2009', u'year': u'2009', u'tzname': u'Europe/Paris'}",60.8,16.0,0,0,-9999,-9999,69,unknown,METAR LFPB 152230Z AUTO 34002KT 9999NDV NSC 22/16 Q1016,-9999.00,-9999.00,30.01,1016,0,0,71.6,22.0,0,0,"{u'mday': u'15', u'hour': u'22', u'min': u'30', u'mon': u'08', u'pretty': u'10:30 PM GMT on August 15, 2009', u'year': u'2009', u'tzname': u'UTC'}",6.2,10.0,340,NNW,-9999.0,-9999.0,-999,-999,2.3,3.7
2,Unknown,"{u'mday': u'16', u'hour': u'01', u'min': u'00', u'mon': u'08', u'pretty': u'1:00 AM CEST on August 16, 2009', u'year': u'2009', u'tzname': u'Europe/Paris'}",60.8,16.0,0,0,-9999,-9999,73,unknown,METAR LFPB 152300Z AUTO VRB02KT 9999NDV NSC 21/16 Q1016,-9999.00,-9999.00,30.01,1016,0,0,69.8,21.0,0,0,"{u'mday': u'15', u'hour': u'23', u'min': u'00', u'mon': u'08', u'pretty': u'11:00 PM GMT on August 15, 2009', u'year': u'2009', u'tzname': u'UTC'}",6.2,10.0,0,Variable,-9999.0,-9999.0,-999,-999,2.3,3.7
3,Unknown,"{u'mday': u'16', u'hour': u'01', u'min': u'30', u'mon': u'08', u'pretty': u'1:30 AM CEST on August 16, 2009', u'year': u'2009', u'tzname': u'Europe/Paris'}",60.8,16.0,0,0,-9999,-9999,73,unknown,METAR LFPB 152330Z AUTO 35002KT 9999NDV NSC 21/16 Q1016,-9999.00,-9999.00,30.01,1016,0,0,69.8,21.0,0,0,"{u'mday': u'15', u'hour': u'23', u'min': u'30', u'mon': u'08', u'pretty': u'11:30 PM GMT on August 15, 2009', u'year': u'2009', u'tzname': u'UTC'}",6.2,10.0,350,North,-9999.0,-9999.0,-999,-999,2.3,3.7
4,Unknown,"{u'mday': u'16', u'hour': u'02', u'min': u'00', u'mon': u'08', u'pretty': u'2:00 AM CEST on August 16, 2009', u'year': u'2009', u'tzname': u'Europe/Paris'}",60.8,16.0,0,0,-9999,-9999,78,unknown,METAR LFPB 160000Z AUTO VRB02KT 9999NDV NSC 20/16 Q1016,-9999.00,-9999.00,30.01,1016,0,0,68.0,20.0,0,0,"{u'mday': u'16', u'hour': u'00', u'min': u'00', u'mon': u'08', u'pretty': u'12:00 AM GMT on August 16, 2009', u'year': u'2009', u'tzname': u'UTC'}",6.2,10.0,0,Variable,-9999.0,-9999.0,-999,-999,2.3,3.7
5,Unknown,"{u'mday': u'16', u'hour': u'02', u'min': u'30', u'mon': u'08', u'pretty': u'2:30 AM CEST on August 16, 2009', u'year': u'2009', u'tzname': u'Europe/Paris'}",60.8,16.0,0,0,-9999,-9999,78,unknown,METAR LFPB 160030Z AUTO VRB02KT 9999NDV NSC 20/16 Q1016,-9999.00,-9999.00,30.01,1016,0,0,68.0,20.0,0,0,"{u'mday': u'16', u'hour': u'00', u'min': u'30', u'mon': u'08', u'pretty': u'12:30 AM GMT on August 16, 2009', u'year': u'2009', u'tzname': u'UTC'}",6.2,10.0,0,Variable,-9999.0,-9999.0,-999,-999,2.3,3.7
6,Unknown,"{u'mday': u'16', u'hour': u'03', u'min': u'00', u'mon': u'08', u'pretty': u'3:00 AM CEST on August 16, 2009', u'year': u'2009', u'tzname': u'Europe/Paris'}",59.0,15.0,0,0,-9999,-9999,78,unknown,METAR LFPB 160100Z AUTO VRB02KT 9999NDV NSC 19/15 Q1016,-9999.00,-9999.00,30.01,1016,0,0,66.2,19.0,0,0,"{u'mday': u'16', u'hour': u'01', u'min': u'00', u'mon': u'08', u'pretty': u'1:00 AM GMT on August 16, 2009', u'year': u'2009', u'tzname': u'UTC'}",6.2,10.0,0,Variable,-9999.0,-9999.0,-999,-999,2.3,3.7
7,Unknown,"{u'mday': u'16', u'hour': u'03', u'min': u'30', u'mon': u'08', u'pretty': u'3:30 AM CEST on August 16, 2009', u'year': u'2009', u'tzname': u'Europe/Paris'}",59.0,15.0,0,0,-9999,-9999,78,unknown,METAR LFPB 160130Z AUTO 34003KT 300V360 9999NDV NSC 19/15 Q1016,-9999.00,-9999.00,30.01,1016,0,0,66.2,19.0,0,0,"{u'mday': u'16', u'hour': u'01', u'min': u'30', u'mon': u'08', u'pretty': u'1:30 AM GMT on August 16, 2009', u'year': u'2009', u'tzname': u'UTC'}",6.2,10.0,340,NNW,-9999.0,-9999.0,-999,-999,3.5,5.6
8,Unknown,"{u'mday': u'16', u'hour': u'04', u'min': u'00', u'mon': u'08', u'pretty': u'4:00 AM CEST on August 16, 2009', u'year': u'2009', u'tzname': u'Europe/Paris'}",59.0,15.0,0,0,-9999,-9999,83,unknown,METAR LFPB 160200Z AUTO VRB03KT 9999NDV NSC 18/15 Q1016,-9999.00,-9999.00,30.01,1016,0,0,64.4,18.0,0,0,"{u'mday': u'16', u'hour': u'02', u'min': u'00', u'mon': u'08', u'pretty': u'2:00 AM GMT on August 16, 2009', u'year': u'2009', u'tzname': u'UTC'}",6.2,10.0,0,Variable,-9999.0,-9999.0,-999,-999,3.5,5.6
9,Unknown,"{u'mday': u'16', u'hour': u'04', u'min': u'30', u'mon': u'08', u'pretty': u'4:30 AM CEST on August 16, 2009', u'year': u'2009', u'tzname': u'Europe/Paris'}",59.0,15.0,0,0,-9999,-9999,83,unknown,METAR LFPB 160230Z AUTO VRB03KT 9999NDV NSC 18/15 Q1016,-9999.00,-9999.00,30.01,1016,0,0,64.4,18.0,0,0,"{u'mday': u'16', u'hour': u'02', u'min': u'30', u'mon': u'08', u'pretty': u'2:30 AM GMT on August 16, 2009', u'year': u'2009', u'tzname': u'UTC'}",6.2,10.0,0,Variable,-9999.0,-9999.0,-999,-999,3.5,5.6
10,Unknown,"{u'mday': u'16', u'hour': u'05', u'min': u'00', u'mon': u'08', u'pretty': u'5:00 AM CEST on August 16, 2009', u'year': u'2009', u'tzname': u'Europe/Paris'}",59.0,15.0,0,0,-9999,-9999,88,unknown,METAR LFPB 160300Z AUTO VRB01KT 9999NDV NSC 17/15 Q1016,-9999.00,-9999.00,30.01,1016,0,0,62.6,17.0,0,0,"{u'mday': u'16', u'hour': u'03', u'min': u'00', u'mon': u'08', u'pretty': u'3:00 AM GMT on August 16, 2009', u'year': u'2009', u'tzname': u'UTC'}",6.2,10.0,0,Variable,-9999.0,-9999.0,-999,-999,1.2,1.9
11,Unknown,"{u'mday': u'16', u'hour': u'05', u'min': u'30', u'mon': u'08', u'pretty': u'5:30 AM CEST on August 16, 2009', u'year': u'2009', u'tzname': u'Europe/Paris'}",59.0,15.0,0,0,-9999,-9999,88,unknown,METAR LFPB 160330Z AUTO 36003KT 9999NDV NCD 17/15 Q1016,-9999.00,-9999.00,30.01,1016,0,0,62.6,17.0,0,0,"{u'mday': u'16', u'hour': u'03', u'min': u'30', u'mon': u'08', u'pretty': u'3:30 AM GMT on August 16, 2009', u'year': u'2009', u'tzname': u'UTC'}",6.2,10.0,360,North,-9999.0,-9999.0,-999,-999,3.5,5.6
12,Mist,"{u'mday': u'16', u'hour': u'06', u'min': u'00', u'mon': u'08', u'pretty': u'6:00 AM CEST on August 16, 2009', u'year': u'2009', u'tzname': u'Europe/Paris'}",59.0,15.0,0,0,-9999,-9999,88,hazy,METAR LFPB 160400Z AUTO 36003KT 9999 1100NDV R27/P2000 R07/P2000 BR NSC 17/15 Q1016,-9999.00,-9999.00,30.01,1016,0,0,62.6,17.0,0,0,"{u'mday': u'16', u'hour': u'04', u'min': u'00', u'mon': u'08', u'pretty': u'4:00 AM GMT on August 16, 2009', u'year': u'2009', u'tzname': u'UTC'}",6.2,10.0,360,North,-9999.0,-9999.0,-999,-999,3.5,5.6
13,Unknown,"{u'mday': u'16', u'hour': u'06', u'min': u'30', u'mon': u'08', u'pretty': u'6:30 AM CEST on August 16, 2009', u'year': u'2009', u'tzname': u'Europe/Paris'}",59.0,15.0,0,0,-9999,-9999,94,unknown,METAR LFPB 160430Z 36003KT 9000 NSC 16/15 Q1016 NOSIG,-9999.00,-9999.00,30.01,1016,0,0,60.8,16.0,0,0,"{u'mday': u'16', u'hour': u'04', u'min': u'30', u'mon': u'08', u'pretty': u'4:30 AM GMT on August 16, 2009', u'year': u'2009', u'tzname': u'UTC'}",5.6,9.0,360,North,-9999.0,-9999.0,-999,-999,3.5,5.6
14,Unknown,"{u'mday': u'16', u'hour': u'07', u'min': u'00', u'mon': u'08', u'pretty': u'7:00 AM CEST on August 16, 2009', u'year': u'2009', u'tzname': u'Europe/Paris'}",59.0,15.0,0,0,-9999,-9999,94,unknown,METAR LFPB 160500Z 36002KT 9000 NSC 16/15 Q1017 NOSIG,-9999.00,-9999.00,30.04,1017,0,0,60.8,16.0,0,0,"{u'mday': u'16', u'hour': u'05', u'min': u'00', u'mon': u'08', u'pretty': u'5:00 AM GMT on August 16, 2009', u'year': u'2009', u'tzname': u'UTC'}",5.6,9.0,360,North,-9999.0,-9999.0,-999,-999,2.3,3.7
15,Clear,"{u'mday': u'16', u'hour': u'07', u'min': u'30', u'mon': u'08', u'pretty': u'7:30 AM CEST on August 16, 2009', u'year': u'2009', u'tzname': u'Europe/Paris'}",59.0,15.0,0,0,-9999,-9999,94,clear,METAR LFPB 160530Z 34002KT CAVOK 16/15 Q1017 NOSIG,-9999.00,-9999.00,30.04,1017,0,0,60.8,16.0,0,0,"{u'mday': u'16', u'hour': u'05', u'min': u'30', u'mon': u'08', u'pretty': u'5:30 AM GMT on August 16, 2009', u'year': u'2009', u'tzname': u'UTC'}",-9999.0,-9999.0,340,NNW,-9999.0,-9999.0,-999,-999,2.3,3.7
16,Clear,"{u'mday': u'16', u'hour': u'08', u'min': u'00', u'mon': u'08', u'pretty': u'8:00 AM CEST on August 16, 2009', u'year': u'2009', u'tzname': u'Europe/Paris'}",59.0,15.0,0,0,-9999,-9999,88,clear,METAR LFPB 160600Z 36002KT CAVOK 17/15 Q1017 NOSIG,-9999.00,-9999.00,30.04,1017,0,0,62.6,17.0,0,0,"{u'mday': u'16', u'hour': u'06', u'min': u'00', u'mon': u'08', u'pretty': u'6:00 AM GMT on August 16, 2009', u'year': u'2009', u'tzname': u'UTC'}",-9999.0,-9999.0,360,North,-9999.0,-9999.0,-999,-999,2.3,3.7
17,Clear,"{u'mday': u'16', u'hour': u'08', u'min': u'30', u'mon': u'08', u'pretty': u'8:30 AM CEST on August 16, 2009', u'year': u'2009', u'tzname': u'Europe/Paris'}",59.0,15.0,0,0,-9999,-9999,88,clear,METAR LFPB 160630Z 35002KT CAVOK 17/15 Q1017 NOSIG,-9999.00,-9999.00,30.04,1017,0,0,62.6,17.0,0,0,"{u'mday': u'16', u'hour': u'06', u'min': u'30', u'mon': u'08', u'pretty': u'6:30 AM GMT on August 16, 2009', u'year': u'2009', u'tzname': u'UTC'}",-9999.0,-9999.0,350,North,-9999.0,-9999.0,-999,-999,2.3,3.7
18,Partly Cloudy,"{u'mday': u'16', u'hour': u'09', u'min': u'00', u'mon': u'08', u'pretty': u'9:00 AM CEST on August 16, 2009', u'year': u'2009', u'tzname': u'Europe/Paris'}",59.0,15.0,0,0,-9999,-9999,83,partlycloudy,METAR LFPB 160700Z VRB02KT 9999 FEW015 18/15 Q1017 NOSIG,-9999.00,-9999.00,30.04,1017,0,0,64.4,18.0,0,0,"{u'mday': u'16', u'hour': u'07', u'min': u'00', u'mon': u'08', u'pretty': u'7:00 AM GMT on August 16, 2009', u'year': u'2009', u'tzname': u'UTC'}",6.2,10.0,0,Variable,-9999.0,-9999.0,-999,-999,2.3,3.7
19,Partly Cloudy,"{u'mday': u'16', u'hour': u'09', u'min': u'30', u'mon': u'08', u'pretty': u'9:30 AM CEST on August 16, 2009', u'year': u'2009', u'tzname': u'Europe/Paris'}",59.0,15.0,0,0,-9999,-9999,73,partlycloudy,METAR LFPB 160730Z 01005KT 340V040 9999 FEW013 20/15 Q1017 NOSIG,-9999.00,-9999.00,30.04,1017,0,0,68.0,20.0,0,0,"{u'mday': u'16', u'hour': u'07', u'min': u'30', u'mon': u'08', u'pretty': u'7:30 AM GMT on August 16, 2009', u'year': u'2009', u'tzname': u'UTC'}",6.2,10.0,10,North,-9999.0,-9999.0,-999,-999,5.8,9.3
20,Scattered Clouds,"{u'mday': u'16', u'hour': u'10', u'min': u'00', u'mon': u'08', u'pretty': u'10:00 AM CEST on August 16, 2009', u'year': u'2009', u'tzname': u'Europe/Paris'}",59.0,15.0,0,0,-9999,-9999,73,partlycloudy,METAR LFPB 160800Z 36005KT 330V050 9999 SCT014 20/15 Q1017 BECMG BKN015,-9999.00,-9999.00,30.04,1017,0,0,68.0,20.0,0,0,"{u'mday': u'16', u'hour': u'08', u'min': u'00', u'mon': u'08', u'pretty': u'8:00 AM GMT on August 16, 2009', u'year': u'2009', u'tzname': u'UTC'}",6.2,10.0,360,North,-9999.0,-9999.0,-999,-999,5.8,9.3
21,Scattered Clouds,"{u'mday': u'16', u'hour': u'10', u'min': u'30', u'mon': u'08', u'pretty': u'10:30 AM CEST on August 16, 2009', u'year': u'2009', u'tzname': u'Europe/Paris'}",59.0,15.0,0,0,-9999,-9999,73,partlycloudy,METAR LFPB 160830Z 34005KT 290V010 9999 SCT014 SCT230 20/15 Q1017 BECMG BKN015,-9999.00,-9999.00,30.04,1017,0,0,68.0,20.0,0,0,"{u'mday': u'16', u'hour': u'08', u'min': u'30', u'mon': u'08', u'pretty': u'8:30 AM GMT on August 16, 2009', u'year': u'2009', u'tzname': u'UTC'}",6.2,10.0,340,NNW,-9999.0,-9999.0,-999,-999,5.8,9.3
22,Partly Cloudy,"{u'mday': u'16', u'hour': u'11', u'min': u'00', u'mon': u'08', u'pretty': u'11:00 AM CEST on August 16, 2009', u'year': u'2009', u'tzname': u'Europe/Paris'}",59.0,15.0,0,0,-9999,-9999,73,partlycloudy,METAR LFPB 160900Z 05004KT 330V100 9999 FEW016 20/15 Q1017 BECMG BKN015,-9999.00,-9999.00,30.04,1017,0,0,68.0,20.0,0,0,"{u'mday': u'16', u'hour': u'09', u'min': u'00', u'mon': u'08', u'pretty': u'9:00 AM GMT on August 16, 2009', u'year': u'2009', u'tzname': u'UTC'}",6.2,10.0,50,NE,-9999.0,-9999.0,-999,-999,4.6,7.4
23,Clear,"{u'mday': u'16', u'hour': u'12', u'min': u'00', u'mon': u'08', u'pretty': u'12:00 PM CEST on August 16, 2009', u'year': u'2009', u'tzname': u'Europe/Paris'}",59.0,15.0,0,0,-9999,-9999,64,clear,METAR LFPB 161000Z VRB02KT CAVOK 22/15 Q1017 BECMG BKN015,-9999.00,-9999.00,30.04,1017,0,0,71.6,22.0,0,0,"{u'mday': u'16', u'hour': u'10', u'min': u'00', u'mon': u'08', u'pretty': u'10:00 AM GMT on August 16, 2009', u'year': u'2009', u'tzname': u'UTC'}",-9999.0,-9999.0,0,Variable,-9999.0,-9999.0,-999,-999,2.3,3.7
24,Clear,"{u'mday': u'16', u'hour': u'12', u'min': u'30', u'mon': u'08', u'pretty': u'12:30 PM CEST on August 16, 2009', u'year': u'2009', u'tzname': u'Europe/Paris'}",59.0,15.0,0,0,-9999,-9999,61,clear,METAR LFPB 161030Z VRB02KT CAVOK 23/15 Q1017 NOSIG,-9999.00,-9999.00,30.04,1017,0,0,73.4,23.0,0,0,"{u'mday': u'16', u'hour': u'10', u'min': u'30', u'mon': u'08', u'pretty': u'10:30 AM GMT on August 16, 2009', u'year': u'2009', u'tzname': u'UTC'}",-9999.0,-9999.0,0,Variable,-9999.0,-9999.0,-999,-999,2.3,3.7
25,Clear,"{u'mday': u'16', u'hour': u'13', u'min': u'00', u'mon': u'08', u'pretty': u'1:00 PM CEST on August 16, 2009', u'year': u'2009', u'tzname': u'Europe/Paris'}",59.0,15.0,0,0,-9999,-9999,54,clear,METAR LFPB 161100Z VRB02KT CAVOK 25/15 Q1017 NOSIG,-9999.00,-9999.00,30.04,1017,0,0,77.0,25.0,0,0,"{u'mday': u'16', u'hour': u'11', u'min': u'00', u'mon': u'08', u'pretty': u'11:00 AM GMT on August 16, 2009', u'year': u'2009', u'tzname': u'UTC'}",-9999.0,-9999.0,0,Variable,-9999.0,-9999.0,-999,-999,2.3,3.7
26,Clear,"{u'mday': u'16', u'hour': u'13', u'min': u'30', u'mon': u'08', u'pretty': u'1:30 PM CEST on August 16, 2009', u'year': u'2009', u'tzname': u'Europe/Paris'}",59.0,15.0,0,0,-9999,-9999,51,clear,METAR LFPB 161130Z VRB03KT CAVOK 26/15 Q1016 NOSIG,-9999.00,-9999.00,30.01,1016,0,0,78.8,26.0,0,0,"{u'mday': u'16', u'hour': u'11', u'min': u'30', u'mon': u'08', u'pretty': u'11:30 AM GMT on August 16, 2009', u'year': u'2009', u'tzname': u'UTC'}",-9999.0,-9999.0,0,Variable,-9999.0,-9999.0,-999,-999,3.5,5.6
27,Clear,"{u'mday': u'16', u'hour': u'14', u'min': u'00', u'mon': u'08', u'pretty': u'2:00 PM CEST on August 16, 2009', u'year': u'2009', u'tzname': u'Europe/Paris'}",59.0,15.0,0,0,81.1,27.3,48,clear,METAR LFPB 161200Z VRB03KT CAVOK 27/15 Q1016 NOSIG,-9999.00,-9999.00,30.01,1016,0,0,80.6,27.0,0,0,"{u'mday': u'16', u'hour': u'12', u'min': u'00', u'mon': u'08', u'pretty': u'12:00 PM GMT on August 16, 2009', u'year': u'2009', u'tzname': u'UTC'}",-9999.0,-9999.0,0,Variable,-9999.0,-9999.0,-999,-999,3.5,5.6
28,Clear,"{u'mday': u'16', u'hour': u'14', u'min': u'30', u'mon': u'08', u'pretty': u'2:30 PM CEST on August 16, 2009', u'year': u'2009', u'tzname': u'Europe/Paris'}",57.2,14.0,0,0,80.8,27.1,45,clear,METAR LFPB 161230Z 25004KT 210V010 CAVOK 27/14 Q1016 NOSIG,-9999.00,-9999.00,30.01,1016,0,0,80.6,27.0,0,0,"{u'mday': u'16', u'hour': u'12', u'min': u'30', u'mon': u'08', u'pretty': u'12:30 PM GMT on August 16, 2009', u'year': u'2009', u'tzname': u'UTC'}",-9999.0,-9999.0,250,WSW,-9999.0,-9999.0,-999,-999,4.6,7.4
29,Clear,"{u'mday': u'16', u'hour': u'15', u'min': u'00', u'mon': u'08', u'pretty': u'3:00 PM CEST on August 16, 2009', u'year': u'2009', u'tzname': u'Europe/Paris'}",57.2,14.0,0,0,82.0,27.8,42,clear,METAR LFPB 161300Z 29004KT 220V350 CAVOK 28/14 Q1016 NOSIG,-9999.00,-9999.00,30.01,1016,0,0,82.4,28.0,0,0,"{u'mday': u'16', u'hour': u'13', u'min': u'00', u'mon': u'08', u'pretty': u'1:00 PM GMT on August 16, 2009', u'year': u'2009', u'tzname': u'UTC'}",-9999.0,-9999.0,290,WNW,-9999.0,-9999.0,-999,-999,4.6,7.4
30,Clear,"{u'mday': u'16', u'hour': u'15', u'min': u'30', u'mon': u'08', u'pretty': u'3:30 PM CEST on August 16, 2009', u'year': u'2009', u'tzname': u'Europe/Paris'}",57.2,14.0,0,0,83.5,28.6,40,clear,METAR LFPB 161330Z 30006KT 250V350 CAVOK 29/14 Q1016 NOSIG,-9999.00,-9999.00,30.01,1016,0,0,84.2,29.0,0,0,"{u'mday': u'16', u'hour': u'13', u'min': u'30', u'mon': u'08', u'pretty': u'1:30 PM GMT on August 16, 2009', u'year': u'2009', u'tzname': u'UTC'}",-9999.0,-9999.0,300,WNW,-9999.0,-9999.0,-999,-999,6.9,11.1
31,Clear,"{u'mday': u'16', u'hour': u'16', u'min': u'00', u'mon': u'08', u'pretty': u'4:00 PM CEST on August 16, 2009', u'year': u'2009', u'tzname': u'Europe/Paris'}",57.2,14.0,0,0,83.5,28.6,40,clear,METAR LFPB 161400Z 28006KT 210V320 CAVOK 29/14 Q1016 NOSIG,-9999.00,-9999.00,30.01,1016,0,0,84.2,29.0,0,0,"{u'mday': u'16', u'hour': u'14', u'min': u'00', u'mon': u'08', u'pretty': u'2:00 PM GMT on August 16, 2009', u'year': u'2009', u'tzname': u'UTC'}",-9999.0,-9999.0,280,West,-9999.0,-9999.0,-999,-999,6.9,11.1
32,Clear,"{u'mday': u'16', u'hour': u'16', u'min': u'30', u'mon': u'08', u'pretty': u'4:30 PM CEST on August 16, 2009', u'year': u'2009', u'tzname': u'Europe/Paris'}",59.0,15.0,0,0,85.4,29.7,40,clear,METAR LFPB 161430Z VRB04KT CAVOK 30/15 Q1016 NOSIG,-9999.00,-9999.00,30.01,1016,0,0,86.0,30.0,0,0,"{u'mday': u'16', u'hour': u'14', u'min': u'30', u'mon': u'08', u'pretty': u'2:30 PM GMT on August 16, 2009', u'year': u'2009', u'tzname': u'UTC'}",-9999.0,-9999.0,0,Variable,-9999.0,-9999.0,-999,-999,4.6,7.4
33,Clear,"{u'mday': u'16', u'hour': u'17', u'min': u'00', u'mon': u'08', u'pretty': u'5:00 PM CEST on August 16, 2009', u'year': u'2009', u'tzname': u'Europe/Paris'}",59.0,15.0,0,0,83.8,28.8,42,clear,METAR LFPB 161500Z 30006KT 240V020 CAVOK 29/15 Q1015 NOSIG,-9999.00,-9999.00,29.98,1015,0,0,84.2,29.0,0,0,"{u'mday': u'16', u'hour': u'15', u'min': u'00', u'mon': u'08', u'pretty': u'3:00 PM GMT on August 16, 2009', u'year': u'2009', u'tzname': u'UTC'}",-9999.0,-9999.0,300,WNW,-9999.0,-9999.0,-999,-999,6.9,11.1
34,Partly Cloudy,"{u'mday': u'16', u'hour': u'18', u'min': u'00', u'mon': u'08', u'pretty': u'6:00 PM CEST on August 16, 2009', u'year': u'2009', u'tzname': u'Europe/Paris'}",57.2,14.0,0,0,84.9,29.4,37,partlycloudy,METAR LFPB 161600Z 30005KT 270V010 9999 FEW038 30/14 Q1015 NOSIG,-9999.00,-9999.00,29.98,1015,0,0,86.0,30.0,0,0,"{u'mday': u'16', u'hour': u'16', u'min': u'00', u'mon': u'08', u'pretty': u'4:00 PM GMT on August 16, 2009', u'year': u'2009', u'tzname': u'UTC'}",6.2,10.0,300,WNW,-9999.0,-9999.0,-999,-999,5.8,9.3
35,Partly Cloudy,"{u'mday': u'16', u'hour': u'18', u'min': u'30', u'mon': u'08', u'pretty': u'6:30 PM CEST on August 16, 2009', u'year': u'2009', u'tzname': u'Europe/Paris'}",59.0,15.0,0,0,85.4,29.7,40,partlycloudy,METAR LFPB 161630Z 32006KT 260V360 9999 FEW038 30/15 Q1015 NOSIG,-9999.00,-9999.00,29.98,1015,0,0,86.0,30.0,0,0,"{u'mday': u'16', u'hour': u'16', u'min': u'30', u'mon': u'08', u'pretty': u'4:30 PM GMT on August 16, 2009', u'year': u'2009', u'tzname': u'UTC'}",6.2,10.0,320,NW,-9999.0,-9999.0,-999,-999,6.9,11.1
36,Unknown,"{u'mday': u'16', u'hour': u'19', u'min': u'00', u'mon': u'08', u'pretty': u'7:00 PM CEST on August 16, 2009', u'year': u'2009', u'tzname': u'Europe/Paris'}",60.8,16.0,0,0,84.4,29.1,45,unknown,METAR LFPB 161700Z AUTO 34007KT 300V010 9999NDV NSC 29/16 Q1015,-9999.00,-9999.00,29.98,1015,0,0,84.2,29.0,0,0,"{u'mday': u'16', u'hour': u'17', u'min': u'00', u'mon': u'08', u'pretty': u'5:00 PM GMT on August 16, 2009', u'year': u'2009', u'tzname': u'UTC'}",6.2,10.0,340,NNW,-9999.0,-9999.0,-999,-999,8.1,13.0
37,Unknown,"{u'mday': u'16', u'hour': u'19', u'min': u'30', u'mon': u'08', u'pretty': u'7:30 PM CEST on August 16, 2009', u'year': u'2009', u'tzname': u'Europe/Paris'}",60.8,16.0,0,0,82.9,28.3,48,unknown,METAR LFPB 161730Z AUTO 34006KT 310V010 9999NDV NSC 28/16 Q1015,-9999.00,-9999.00,29.98,1015,0,0,82.4,28.0,0,0,"{u'mday': u'16', u'hour': u'17', u'min': u'30', u'mon': u'08', u'pretty': u'5:30 PM GMT on August 16, 2009', u'year': u'2009', u'tzname': u'UTC'}",6.2,10.0,340,NNW,-9999.0,-9999.0,-999,-999,6.9,11.1
38,Unknown,"{u'mday': u'16', u'hour': u'20', u'min': u'00', u'mon': u'08', u'pretty': u'8:00 PM CEST on August 16, 2009', u'year': u'2009', u'tzname': u'Europe/Paris'}",60.8,16.0,0,0,81.5,27.5,51,unknown,METAR LFPB 161800Z AUTO 35008KT 9999NDV NSC 27/16 Q1015,-9999.00,-9999.00,29.98,1015,0,0,80.6,27.0,0,0,"{u'mday': u'16', u'hour': u'18', u'min': u'00', u'mon': u'08', u'pretty': u'6:00 PM GMT on August 16, 2009', u'year': u'2009', u'tzname': u'UTC'}",6.2,10.0,350,North,-9999.0,-9999.0,-999,-999,9.2,14.8
39,Unknown,"{u'mday': u'16', u'hour': u'20', u'min': u'30', u'mon': u'08', u'pretty': u'8:30 PM CEST on August 16, 2009', u'year': u'2009', u'tzname': u'Europe/Paris'}",60.8,16.0,0,0,-9999,-9999,54,unknown,METAR LFPB 161830Z AUTO 35007KT 9999NDV NSC 26/16 Q1015,-9999.00,-9999.00,29.98,1015,0,0,78.8,26.0,0,0,"{u'mday': u'16', u'hour': u'18', u'min': u'30', u'mon': u'08', u'pretty': u'6:30 PM GMT on August 16, 2009', u'year': u'2009', u'tzname': u'UTC'}",6.2,10.0,350,North,-9999.0,-9999.0,-999,-999,8.1,13.0
40,Unknown,"{u'mday': u'16', u'hour': u'21', u'min': u'00', u'mon': u'08', u'pretty': u'9:00 PM CEST on August 16, 2009', u'year': u'2009', u'tzname': u'Europe/Paris'}",60.8,16.0,0,0,-9999,-9999,57,unknown,METAR LFPB 161900Z AUTO 34006KT 310V020 9999NDV NSC 25/16 Q1015,-9999.00,-9999.00,29.98,1015,0,0,77.0,25.0,0,0,"{u'mday': u'16', u'hour': u'19', u'min': u'00', u'mon': u'08', u'pretty': u'7:00 PM GMT on August 16, 2009', u'year': u'2009', u'tzname': u'UTC'}",6.2,10.0,340,NNW,-9999.0,-9999.0,-999,-999,6.9,11.1
41,Unknown,"{u'mday': u'16', u'hour': u'21', u'min': u'30', u'mon': u'08', u'pretty': u'9:30 PM CEST on August 16, 2009', u'year': u'2009', u'tzname': u'Europe/Paris'}",60.8,16.0,0,0,-9999,-9999,61,unknown,METAR LFPB 161930Z AUTO 01003KT 9999NDV NSC 24/16 Q1015,-9999.00,-9999.00,29.98,1015,0,0,75.2,24.0,0,0,"{u'mday': u'16', u'hour': u'19', u'min': u'30', u'mon': u'08', u'pretty': u'7:30 PM GMT on August 16, 2009', u'year': u'2009', u'tzname': u'UTC'}",6.2,10.0,10,North,-9999.0,-9999.0,-999,-999,3.5,5.6
42,Unknown,"{u'mday': u'16', u'hour': u'22', u'min': u'00', u'mon': u'08', u'pretty': u'10:00 PM CEST on August 16, 2009', u'year': u'2009', u'tzname': u'Europe/Paris'}",60.8,16.0,0,0,-9999,-9999,61,unknown,METAR LFPB 162000Z AUTO 34005KT 300V360 9999NDV NSC 24/16 Q1016,-9999.00,-9999.00,30.01,1016,0,0,75.2,24.0,0,0,"{u'mday': u'16', u'hour': u'20', u'min': u'00', u'mon': u'08', u'pretty': u'8:00 PM GMT on August 16, 2009', u'year': u'2009', u'tzname': u'UTC'}",6.2,10.0,340,NNW,-9999.0,-9999.0,-999,-999,5.8,9.3
43,Unknown,"{u'mday': u'16', u'hour': u'22', u'min': u'30', u'mon': u'08', u'pretty': u'10:30 PM CEST on August 16, 2009', u'year': u'2009', u'tzname': u'Europe/Paris'}",60.8,16.0,0,0,-9999,-9999,65,unknown,METAR LFPB 162030Z AUTO 35004KT 9999NDV NSC 23/16 Q1016,-9999.00,-9999.00,30.01,1016,0,0,73.4,23.0,0,0,"{u'mday': u'16', u'hour': u'20', u'min': u'30', u'mon': u'08', u'pretty': u'8:30 PM GMT on August 16, 2009', u'year': u'2009', u'tzname': u'UTC'}",6.2,10.0,350,North,-9999.0,-9999.0,-999,-999,4.6,7.4
44,Unknown,"{u'mday': u'16', u'hour': u'23', u'min': u'00', u'mon': u'08', u'pretty': u'11:00 PM CEST on August 16, 2009', u'year': u'2009', u'tzname': u'Europe/Paris'}",60.8,16.0,0,0,-9999,-9999,69,unknown,METAR LFPB 162100Z AUTO 35006KT 320V020 9999NDV NSC 22/16 Q1016,-9999.00,-9999.00,30.01,1016,0,0,71.6,22.0,0,0,"{u'mday': u'16', u'hour': u'21', u'min': u'00', u'mon': u'08', u'pretty': u'9:00 PM GMT on August 16, 2009', u'year': u'2009', u'tzname': u'UTC'}",6.2,10.0,350,North,-9999.0,-9999.0,-999,-999,6.9,11.1
45,Unknown,"{u'mday': u'16', u'hour': u'23', u'min': u'30', u'mon': u'08', u'pretty': u'11:30 PM CEST on August 16, 2009', u'year': u'2009', u'tzname': u'Europe/Paris'}",60.8,16.0,0,0,-9999,-9999,69,unknown,METAR LFPB 162130Z AUTO 36006KT 330V030 9999NDV NSC 22/16 Q1016,-9999.00,-9999.00,30.01,1016,0,0,71.6,22.0,0,0,"{u'mday': u'16', u'hour': u'21', u'min': u'30', u'mon': u'08', u'pretty': u'9:30 PM GMT on August 16, 2009', u'year': u'2009', u'tzname': u'UTC'}",6.2,10.0,360,North,-9999.0,-9999.0,-999,-999,6.9,11.1
0,Unknown,"{u'mday': u'17', u'hour': u'00', u'min': u'00', u'mon': u'08', u'pretty': u'12:00 AM CEST on August 17, 2009', u'year': u'2009', u'tzname': u'Europe/Paris'}",60.8,16.0,0,0,-9999,-9999,73,unknown,METAR LFPB 162200Z AUTO 01005KT 9999NDV NSC 21/16 Q1016,-9999.00,-9999.00,30.01,1016,0,0,69.8,21.0,0,0,"{u'mday': u'16', u'hour': u'22', u'min': u'00', u'mon': u'08', u'pretty': u'10:00 PM GMT on August 16, 2009', u'year': u'2009', u'tzname': u'UTC'}",6.2,10.0,10,North,-9999.0,-9999.0,-999,-999,5.8,9.3
1,Unknown,"{u'mday': u'17', u'hour': u'00', u'min': u'30', u'mon': u'08', u'pretty': u'12:30 AM CEST on August 17, 2009', u'year': u'2009', u'tzname': u'Europe/Paris'}",59.0,15.0,0,0,-9999,-9999,73,unknown,METAR LFPB 162230Z AUTO VRB03KT 9999NDV NSC 20/15 Q1016,-9999.00,-9999.00,30.01,1016,0,0,68.0,20.0,0,0,"{u'mday': u'16', u'hour': u'22', u'min': u'30', u'mon': u'08', u'pretty': u'10:30 PM GMT on August 16, 2009', u'year': u'2009', u'tzname': u'UTC'}",6.2,10.0,0,Variable,-9999.0,-9999.0,-999,-999,3.5,5.6
2,Unknown,"{u'mday': u'17', u'hour': u'01', u'min': u'00', u'mon': u'08', u'pretty': u'1:00 AM CEST on August 17, 2009', u'year': u'2009', u'tzname': u'Europe/Paris'}",59.0,15.0,0,0,-9999,-9999,78,unknown,METAR LFPB 162300Z AUTO 02004KT 9999NDV NSC 19/15 Q1016,-9999.00,-9999.00,30.01,1016,0,0,66.2,19.0,0,0,"{u'mday': u'16', u'hour': u'23', u'min': u'00', u'mon': u'08', u'pretty': u'11:00 PM GMT on August 16, 2009', u'year': u'2009', u'tzname': u'UTC'}",6.2,10.0,20,NNE,-9999.0,-9999.0,-999,-999,4.6,7.4
3,Unknown,"{u'mday': u'17', u'hour': u'01', u'min': u'30', u'mon': u'08', u'pretty': u'1:30 AM CEST on August 17, 2009', u'year': u'2009', u'tzname': u'Europe/Paris'}",59.0,15.0,0,0,-9999,-9999,78,unknown,METAR LFPB 162330Z AUTO 01004KT 340V040 9999NDV NSC 19/15 Q1016,-9999.00,-9999.00,30.01,1016,0,0,66.2,19.0,0,0,"{u'mday': u'16', u'hour': u'23', u'min': u'30', u'mon': u'08', u'pretty': u'11:30 PM GMT on August 16, 2009', u'year': u'2009', u'tzname': u'UTC'}",6.2,10.0,10,North,-9999.0,-9999.0,-999,-999,4.6,7.4
4,Unknown,"{u'mday': u'17', u'hour': u'02', u'min': u'00', u'mon': u'08', u'pretty': u'2:00 AM CEST on August 17, 2009', u'year': u'2009', u'tzname': u'Europe/Paris'}",57.2,14.0,0,0,-9999,-9999,77,unknown,METAR LFPB 170000Z AUTO 36003KT 9999NDV NSC 18/14 Q1016,-9999.00,-9999.00,30.01,1016,0,0,64.4,18.0,0,0,"{u'mday': u'17', u'hour': u'00', u'min': u'00', u'mon': u'08', u'pretty': u'12:00 AM GMT on August 17, 2009', u'year': u'2009', u'tzname': u'UTC'}",6.2,10.0,360,North,-9999.0,-9999.0,-999,-999,3.5,5.6
5,Unknown,"{u'mday': u'17', u'hour': u'02', u'min': u'30', u'mon': u'08', u'pretty': u'2:30 AM CEST on August 17, 2009', u'year': u'2009', u'tzname': u'Europe/Paris'}",57.2,14.0,0,0,-9999,-9999,77,unknown,METAR LFPB 170030Z AUTO 36004KT 330V040 9999NDV NSC 18/14 Q1016,-9999.00,-9999.00,30.01,1016,0,0,64.4,18.0,0,0,"{u'mday': u'17', u'hour': u'00', u'min': u'30', u'mon': u'08', u'pretty': u'12:30 AM GMT on August 17, 2009', u'year': u'2009', u'tzname': u'UTC'}",6.2,10.0,360,North,-9999.0,-9999.0,-999,-999,4.6,7.4
6,Unknown,"{u'mday': u'17', u'hour': u'03', u'min': u'00', u'mon': u'08', u'pretty': u'3:00 AM CEST on August 17, 2009', u'year': u'2009', u'tzname': u'Europe/Paris'}",57.2,14.0,0,0,-9999,-9999,82,unknown,METAR LFPB 170100Z AUTO 36003KT 9999NDV NSC 17/14 Q1016,-9999.00,-9999.00,30.01,1016,0,0,62.6,17.0,0,0,"{u'mday': u'17', u'hour': u'01', u'min': u'00', u'mon': u'08', u'pretty': u'1:00 AM GMT on August 17, 2009', u'year': u'2009', u'tzname': u'UTC'}",6.2,10.0,360,North,-9999.0,-9999.0,-999,-999,3.5,5.6
7,Unknown,"{u'mday': u'17', u'hour': u'03', u'min': u'30', u'mon': u'08', u'pretty': u'3:30 AM CEST on August 17, 2009', u'year': u'2009', u'tzname': u'Europe/Paris'}",57.2,14.0,0,0,-9999,-9999,82,unknown,METAR LFPB 170130Z AUTO VRB02KT 9999NDV NSC 17/14 Q1016,-9999.00,-9999.00,30.01,1016,0,0,62.6,17.0,0,0,"{u'mday': u'17', u'hour': u'01', u'min': u'30', u'mon': u'08', u'pretty': u'1:30 AM GMT on August 17, 2009', u'year': u'2009', u'tzname': u'UTC'}",6.2,10.0,0,Variable,-9999.0,-9999.0,-999,-999,2.3,3.7
8,Unknown,"{u'mday': u'17', u'hour': u'04', u'min': u'00', u'mon': u'08', u'pretty': u'4:00 AM CEST on August 17, 2009', u'year': u'2009', u'tzname': u'Europe/Paris'}",57.2,14.0,0,0,-9999,-9999,82,unknown,METAR LFPB 170200Z AUTO 36003KT 9999NDV NSC 17/14 Q1016,-9999.00,-9999.00,30.01,1016,0,0,62.6,17.0,0,0,"{u'mday': u'17', u'hour': u'02', u'min': u'00', u'mon': u'08', u'pretty': u'2:00 AM GMT on August 17, 2009', u'year': u'2009', u'tzname': u'UTC'}",6.2,10.0,360,North,-9999.0,-9999.0,-999,-999,3.5,5.6
9,Unknown,"{u'mday': u'17', u'hour': u'04', u'min': u'30', u'mon': u'08', u'pretty': u'4:30 AM CEST on August 17, 2009', u'year': u'2009', u'tzname': u'Europe/Paris'}",57.2,14.0,0,0,-9999,-9999,82,unknown,METAR LFPB 170230Z AUTO 35003KT 9999NDV NSC 17/14 Q1016,-9999.00,-9999.00,30.01,1016,0,0,62.6,17.0,0,0,"{u'mday': u'17', u'hour': u'02', u'min': u'30', u'mon': u'08', u'pretty': u'2:30 AM GMT on August 17, 2009', u'year': u'2009', u'tzname': u'UTC'}",6.2,10.0,350,North,-9999.0,-9999.0,-999,-999,3.5,5.6
10,Unknown,"{u'mday': u'17', u'hour': u'05', u'min': u'00', u'mon': u'08', u'pretty': u'5:00 AM CEST on August 17, 2009', u'year': u'2009', u'tzname': u'Europe/Paris'}",55.4,13.0,0,0,-9999,-9999,82,unknown,METAR LFPB 170300Z AUTO 34003KT 9999NDV NSC 16/13 Q1016,-9999.00,-9999.00,30.01,1016,0,0,60.8,16.0,0,0,"{u'mday': u'17', u'hour': u'03', u'min': u'00', u'mon': u'08', u'pretty': u'3:00 AM GMT on August 17, 2009', u'year': u'2009', u'tzname': u'UTC'}",6.2,10.0,340,NNW,-9999.0,-9999.0,-999,-999,3.5,5.6
11,Unknown,"{u'mday': u'17', u'hour': u'05', u'min': u'30', u'mon': u'08', u'pretty': u'5:30 AM CEST on August 17, 2009', u'year': u'2009', u'tzname': u'Europe/Paris'}",55.4,13.0,0,0,-9999,-9999,82,unknown,METAR LFPB 170330Z AUTO 34002KT 9999NDV NSC 16/13 Q1015,-9999.00,-9999.00,29.98,1015,0,0,60.8,16.0,0,0,"{u'mday': u'17', u'hour': u'03', u'min': u'30', u'mon': u'08', u'pretty': u'3:30 AM GMT on August 17, 2009', u'year': u'2009', u'tzname': u'UTC'}",6.2,10.0,340,NNW,-9999.0,-9999.0,-999,-999,2.3,3.7
12,Unknown,"{u'mday': u'17', u'hour': u'06', u'min': u'00', u'mon': u'08', u'pretty': u'6:00 AM CEST on August 17, 2009', u'year': u'2009', u'tzname': u'Europe/Paris'}",55.4,13.0,0,0,-9999,-9999,82,unknown,METAR LFPB 170400Z AUTO 34003KT 9999NDV NSC 16/13 Q1015,-9999.00,-9999.00,29.98,1015,0,0,60.8,16.0,0,0,"{u'mday': u'17', u'hour': u'04', u'min': u'00', u'mon': u'08', u'pretty': u'4:00 AM GMT on August 17, 2009', u'year': u'2009', u'tzname': u'UTC'}",6.2,10.0,340,NNW,-9999.0,-9999.0,-999,-999,3.5,5.6
13,Clear,"{u'mday': u'17', u'hour': u'06', u'min': u'30', u'mon': u'08', u'pretty': u'6:30 AM CEST on August 17, 2009', u'year': u'2009', u'tzname': u'Europe/Paris'}",57.2,14.0,0,0,-9999,-9999,88,clear,METAR LFPB 170430Z 33004KT 290V010 CAVOK 16/14 Q1016 NOSIG,-9999.00,-9999.00,30.01,1016,0,0,60.8,16.0,0,0,"{u'mday': u'17', u'hour': u'04', u'min': u'30', u'mon': u'08', u'pretty': u'4:30 AM GMT on August 17, 2009', u'year': u'2009', u'tzname': u'UTC'}",-9999.0,-9999.0,330,NNW,-9999.0,-9999.0,-999,-999,4.6,7.4
14,Mostly Cloudy,"{u'mday': u'17', u'hour': u'07', u'min': u'00', u'mon': u'08', u'pretty': u'7:00 AM CEST on August 17, 2009', u'year': u'2009', u'tzname': u'Europe/Paris'}",55.4,13.0,0,0,-9999,-9999,88,mostlycloudy,METAR LFPB 170500Z 32007KT 280V350 9999 SCT006 SCT100 BKN250 15/13 Q1016 NOSIG,-9999.00,-9999.00,30.01,1016,0,0,59.0,15.0,0,0,"{u'mday': u'17', u'hour': u'05', u'min': u'00', u'mon': u'08', u'pretty': u'5:00 AM GMT on August 17, 2009', u'year': u'2009', u'tzname': u'UTC'}",6.2,10.0,320,NW,-9999.0,-9999.0,-999,-999,8.1,13.0
15,Mostly Cloudy,"{u'mday': u'17', u'hour': u'07', u'min': u'30', u'mon': u'08', u'pretty': u'7:30 AM CEST on August 17, 2009', u'year': u'2009', u'tzname': u'Europe/Paris'}",55.4,13.0,0,0,-9999,-9999,88,mostlycloudy,METAR LFPB 170530Z 33006KT 270V360 9999 BKN006 15/13 Q1016 NOSIG,-9999.00,-9999.00,30.01,1016,0,0,59.0,15.0,0,0,"{u'mday': u'17', u'hour': u'05', u'min': u'30', u'mon': u'08', u'pretty': u'5:30 AM GMT on August 17, 2009', u'year': u'2009', u'tzname': u'UTC'}",6.2,10.0,330,NNW,-9999.0,-9999.0,-999,-999,6.9,11.1
16,Mostly Cloudy,"{u'mday': u'17', u'hour': u'08', u'min': u'00', u'mon': u'08', u'pretty': u'8:00 AM CEST on August 17, 2009', u'year': u'2009', u'tzname': u'Europe/Paris'}",55.4,13.0,0,0,-9999,-9999,88,mostlycloudy,METAR LFPB 170600Z 33006KT 290V360 9999 BKN006 15/13 Q1016 NOSIG,-9999.00,-9999.00,30.01,1016,0,0,59.0,15.0,0,0,"{u'mday': u'17', u'hour': u'06', u'min': u'00', u'mon': u'08', u'pretty': u'6:00 AM GMT on August 17, 2009', u'year': u'2009', u'tzname': u'UTC'}",6.2,10.0,330,NNW,-9999.0,-9999.0,-999,-999,6.9,11.1
17,Mostly Cloudy,"{u'mday': u'17', u'hour': u'08', u'min': u'30', u'mon': u'08', u'pretty': u'8:30 AM CEST on August 17, 2009', u'year': u'2009', u'tzname': u'Europe/Paris'}",55.4,13.0,0,0,-9999,-9999,82,mostlycloudy,METAR LFPB 170630Z 33004KT 280V010 9999 BKN007 16/13 Q1017 NOSIG,-9999.00,-9999.00,30.04,1017,0,0,60.8,16.0,0,0,"{u'mday': u'17', u'hour': u'06', u'min': u'30', u'mon': u'08', u'pretty': u'6:30 AM GMT on August 17, 2009', u'year': u'2009', u'tzname': u'UTC'}",6.2,10.0,330,NNW,-9999.0,-9999.0,-999,-999,4.6,7.4
18,Mostly Cloudy,"{u'mday': u'17', u'hour': u'09', u'min': u'00', u'mon': u'08', u'pretty': u'9:00 AM CEST on August 17, 2009', u'year': u'2009', u'tzname': u'Europe/Paris'}",57.2,14.0,0,0,-9999,-9999,88,mostlycloudy,METAR LFPB 170700Z 33004KT 270V360 9999 BKN010 16/14 Q1016 NOSIG,-9999.00,-9999.00,30.01,1016,0,0,60.8,16.0,0,0,"{u'mday': u'17', u'hour': u'07', u'min': u'00', u'mon': u'08', u'pretty': u'7:00 AM GMT on August 17, 2009', u'year': u'2009', u'tzname': u'UTC'}",6.2,10.0,330,NNW,-9999.0,-9999.0,-999,-999,4.6,7.4
19,Mostly Cloudy,"{u'mday': u'17', u'hour': u'09', u'min': u'30', u'mon': u'08', u'pretty': u'9:30 AM CEST on August 17, 2009', u'year': u'2009', u'tzname': u'Europe/Paris'}",57.2,14.0,0,0,-9999,-9999,82,mostlycloudy,METAR LFPB 170730Z 31005KT 270V010 9999 BKN012 BKN250 17/14 Q1016 NOSIG,-9999.00,-9999.00,30.01,1016,0,0,62.6,17.0,0,0,"{u'mday': u'17', u'hour': u'07', u'min': u'30', u'mon': u'08', u'pretty': u'7:30 AM GMT on August 17, 2009', u'year': u'2009', u'tzname': u'UTC'}",6.2,10.0,310,NW,-9999.0,-9999.0,-999,-999,5.8,9.3
20,Mostly Cloudy,"{u'mday': u'17', u'hour': u'10', u'min': u'00', u'mon': u'08', u'pretty': u'10:00 AM CEST on August 17, 2009', u'year': u'2009', u'tzname': u'Europe/Paris'}",57.2,14.0,0,0,-9999,-9999,77,mostlycloudy,METAR LFPB 170800Z 34007KT 310V010 9999 SCT016 BKN250 18/14 Q1016 NOSIG,-9999.00,-9999.00,30.01,1016,0,0,64.4,18.0,0,0,"{u'mday': u'17', u'hour': u'08', u'min': u'00', u'mon': u'08', u'pretty': u'8:00 AM GMT on August 17, 2009', u'year': u'2009', u'tzname': u'UTC'}",6.2,10.0,340,NNW,-9999.0,-9999.0,-999,-999,8.1,13.0
21,Mostly Cloudy,"{u'mday': u'17', u'hour': u'10', u'min': u'30', u'mon': u'08', u'pretty': u'10:30 AM CEST on August 17, 2009', u'year': u'2009', u'tzname': u'Europe/Paris'}",57.2,14.0,0,0,-9999,-9999,77,mostlycloudy,METAR LFPB 170830Z 33006KT 270V360 9999 BKN016 18/14 Q1017 NOSIG,-9999.00,-9999.00,30.04,1017,0,0,64.4,18.0,0,0,"{u'mday': u'17', u'hour': u'08', u'min': u'30', u'mon': u'08', u'pretty': u'8:30 AM GMT on August 17, 2009', u'year': u'2009', u'tzname': u'UTC'}",6.2,10.0,330,NNW,-9999.0,-9999.0,-999,-999,6.9,11.1
22,Mostly Cloudy,"{u'mday': u'17', u'hour': u'11', u'min': u'00', u'mon': u'08', u'pretty': u'11:00 AM CEST on August 17, 2009', u'year': u'2009', u'tzname': u'Europe/Paris'}",57.2,14.0,0,0,-9999,-9999,77,mostlycloudy,METAR LFPB 170900Z 31006KT 270V010 9999 BKN015 18/14 Q1017 NOSIG,-9999.00,-9999.00,30.04,1017,0,0,64.4,18.0,0,0,"{u'mday': u'17', u'hour': u'09', u'min': u'00', u'mon': u'08', u'pretty': u'9:00 AM GMT on August 17, 2009', u'year': u'2009', u'tzname': u'UTC'}",6.2,10.0,310,NW,-9999.0,-9999.0,-999,-999,6.9,11.1
23,Mostly Cloudy,"{u'mday': u'17', u'hour': u'11', u'min': u'30', u'mon': u'08', u'pretty': u'11:30 AM CEST on August 17, 2009', u'year': u'2009', u'tzname': u'Europe/Paris'}",57.2,14.0,0,0,-9999,-9999,77,mostlycloudy,METAR LFPB 170930Z 32006KT 270V010 9999 BKN016 18/14 Q1017 NOSIG,-9999.00,-9999.00,30.04,1017,0,0,64.4,18.0,0,0,"{u'mday': u'17', u'hour': u'09', u'min': u'30', u'mon': u'08', u'pretty': u'9:30 AM GMT on August 17, 2009', u'year': u'2009', u'tzname': u'UTC'}",6.2,10.0,320,NW,-9999.0,-9999.0,-999,-999,6.9,11.1
24,Mostly Cloudy,"{u'mday': u'17', u'hour': u'12', u'min': u'00', u'mon': u'08', u'pretty': u'12:00 PM CEST on August 17, 2009', u'year': u'2009', u'tzname': u'Europe/Paris'}",55.4,13.0,0,0,-9999,-9999,68,mostlycloudy,METAR LFPB 171000Z 30005KT 230V360 9999 BKN017 19/13 Q1017 NOSIG,-9999.00,-9999.00,30.04,1017,0,0,66.2,19.0,0,0,"{u'mday': u'17', u'hour': u'10', u'min': u'00', u'mon': u'08', u'pretty': u'10:00 AM GMT on August 17, 2009', u'year': u'2009', u'tzname': u'UTC'}",6.2,10.0,300,WNW,-9999.0,-9999.0,-999,-999,5.8,9.3
25,Mostly Cloudy,"{u'mday': u'17', u'hour': u'12', u'min': u'30', u'mon': u'08', u'pretty': u'12:30 PM CEST on August 17, 2009', u'year': u'2009', u'tzname': u'Europe/Paris'}",57.2,14.0,0,0,-9999,-9999,68,mostlycloudy,METAR LFPB 171030Z AUTO 29006KT 230V350 9999NDV BKN020 20/14 Q1017,-9999.00,-9999.00,30.04,1017,0,0,68.0,20.0,0,0,"{u'mday': u'17', u'hour': u'10', u'min': u'30', u'mon': u'08', u'pretty': u'10:30 AM GMT on August 17, 2009', u'year': u'2009', u'tzname': u'UTC'}",6.2,10.0,290,WNW,-9999.0,-9999.0,-999,-999,6.9,11.1
26,Scattered Clouds,"{u'mday': u'17', u'hour': u'13', u'min': u'00', u'mon': u'08', u'pretty': u'1:00 PM CEST on August 17, 2009', u'year': u'2009', u'tzname': u'Europe/Paris'}",57.2,14.0,0,0,-9999,-9999,64,partlycloudy,METAR LFPB 171100Z 29007KT 230V360 9999 SCT022 SCT050 21/14 Q1017 NOSIG,-9999.00,-9999.00,30.04,1017,0,0,69.8,21.0,0,0,"{u'mday': u'17', u'hour': u'11', u'min': u'00', u'mon': u'08', u'pretty': u'11:00 AM GMT on August 17, 2009', u'year': u'2009', u'tzname': u'UTC'}",6.2,10.0,290,WNW,-9999.0,-9999.0,-999,-999,8.1,13.0
27,Scattered Clouds,"{u'mday': u'17', u'hour': u'13', u'min': u'30', u'mon': u'08', u'pretty': u'1:30 PM CEST on August 17, 2009', u'year': u'2009', u'tzname': u'Europe/Paris'}",57.2,14.0,0,0,-9999,-9999,60,partlycloudy,METAR LFPB 171130Z 28007KT 230V320 9999 SCT024 SCT050 22/14 Q1017 NOSIG,-9999.00,-9999.00,30.04,1017,0,0,71.6,22.0,0,0,"{u'mday': u'17', u'hour': u'11', u'min': u'30', u'mon': u'08', u'pretty': u'11:30 AM GMT on August 17, 2009', u'year': u'2009', u'tzname': u'UTC'}",6.2,10.0,280,West,-9999.0,-9999.0,-999,-999,8.1,13.0
28,Scattered Clouds,"{u'mday': u'17', u'hour': u'14', u'min': u'00', u'mon': u'08', u'pretty': u'2:00 PM CEST on August 17, 2009', u'year': u'2009', u'tzname': u'Europe/Paris'}",57.2,14.0,0,0,-9999,-9999,60,partlycloudy,METAR LFPB 171200Z 28007KT 230V330 9999 SCT027 22/14 Q1017 NOSIG,-9999.00,-9999.00,30.04,1017,0,0,71.6,22.0,0,0,"{u'mday': u'17', u'hour': u'12', u'min': u'00', u'mon': u'08', u'pretty': u'12:00 PM GMT on August 17, 2009', u'year': u'2009', u'tzname': u'UTC'}",6.2,10.0,280,West,-9999.0,-9999.0,-999,-999,8.1,13.0
29,Scattered Clouds,"{u'mday': u'17', u'hour': u'14', u'min': u'30', u'mon': u'08', u'pretty': u'2:30 PM CEST on August 17, 2009', u'year': u'2009', u'tzname': u'Europe/Paris'}",57.2,14.0,0,0,-9999,-9999,57,partlycloudy,METAR LFPB 171230Z 28010KT 240V310 9999 SCT030 23/14 Q1017 NOSIG,-9999.00,-9999.00,30.04,1017,0,0,73.4,23.0,0,0,"{u'mday': u'17', u'hour': u'12', u'min': u'30', u'mon': u'08', u'pretty': u'12:30 PM GMT on August 17, 2009', u'year': u'2009', u'tzname': u'UTC'}",6.2,10.0,280,West,-9999.0,-9999.0,-999,-999,11.5,18.5
30,Partly Cloudy,"{u'mday': u'17', u'hour': u'15', u'min': u'00', u'mon': u'08', u'pretty': u'3:00 PM CEST on August 17, 2009', u'year': u'2009', u'tzname': u'Europe/Paris'}",53.6,12.0,0,0,-9999,-9999,50,partlycloudy,METAR LFPB 171300Z 30009KT 270V330 9999 FEW035 23/12 Q1017 NOSIG,-9999.00,-9999.00,30.04,1017,0,0,73.4,23.0,0,0,"{u'mday': u'17', u'hour': u'13', u'min': u'00', u'mon': u'08', u'pretty': u'1:00 PM GMT on August 17, 2009', u'year': u'2009', u'tzname': u'UTC'}",6.2,10.0,300,WNW,-9999.0,-9999.0,-999,-999,10.4,16.7
31,Partly Cloudy,"{u'mday': u'17', u'hour': u'15', u'min': u'30', u'mon': u'08', u'pretty': u'3:30 PM CEST on August 17, 2009', u'year': u'2009', u'tzname': u'Europe/Paris'}",53.6,12.0,0,0,-9999,-9999,44,partlycloudy,METAR LFPB 171330Z 32007KT 260V020 9999 FEW040 25/12 Q1017 NOSIG,-9999.00,-9999.00,30.04,1017,0,0,77.0,25.0,0,0,"{u'mday': u'17', u'hour': u'13', u'min': u'30', u'mon': u'08', u'pretty': u'1:30 PM GMT on August 17, 2009', u'year': u'2009', u'tzname': u'UTC'}",6.2,10.0,320,NW,-9999.0,-9999.0,-999,-999,8.1,13.0
32,Partly Cloudy,"{u'mday': u'17', u'hour': u'16', u'min': u'00', u'mon': u'08', u'pretty': u'4:00 PM CEST on August 17, 2009', u'year': u'2009', u'tzname': u'Europe/Paris'}",51.8,11.0,0,0,-9999,-9999,41,partlycloudy,METAR LFPB 171400Z 30007KT 270V350 9999 FEW045 25/11 Q1017 NOSIG,-9999.00,-9999.00,30.04,1017,0,0,77.0,25.0,0,0,"{u'mday': u'17', u'hour': u'14', u'min': u'00', u'mon': u'08', u'pretty': u'2:00 PM GMT on August 17, 2009', u'year': u'2009', u'tzname': u'UTC'}",6.2,10.0,300,WNW,-9999.0,-9999.0,-999,-999,8.1,13.0
33,Clear,"{u'mday': u'17', u'hour': u'16', u'min': u'30', u'mon': u'08', u'pretty': u'4:30 PM CEST on August 17, 2009', u'year': u'2009', u'tzname': u'Europe/Paris'}",51.8,11.0,0,0,-9999,-9999,39,clear,METAR LFPB 171430Z 28009KT 250V350 CAVOK 26/11 Q1017 NOSIG,-9999.00,-9999.00,30.04,1017,0,0,78.8,26.0,0,0,"{u'mday': u'17', u'hour': u'14', u'min': u'30', u'mon': u'08', u'pretty': u'2:30 PM GMT on August 17, 2009', u'year': u'2009', u'tzname': u'UTC'}",-9999.0,-9999.0,280,West,-9999.0,-9999.0,-999,-999,10.4,16.7
34,Clear,"{u'mday': u'17', u'hour': u'17', u'min': u'00', u'mon': u'08', u'pretty': u'5:00 PM CEST on August 17, 2009', u'year': u'2009', u'tzname': u'Europe/Paris'}",50.0,10.0,0,0,-9999,-9999,39,clear,METAR LFPB 171500Z 29007KT 240V340 CAVOK 25/10 Q1016 NOSIG,-9999.00,-9999.00,30.01,1016,0,0,77.0,25.0,0,0,"{u'mday': u'17', u'hour': u'15', u'min': u'00', u'mon': u'08', u'pretty': u'3:00 PM GMT on August 17, 2009', u'year': u'2009', u'tzname': u'UTC'}",-9999.0,-9999.0,290,WNW,-9999.0,-9999.0,-999,-999,8.1,13.0
35,Clear,"{u'mday': u'17', u'hour': u'17', u'min': u'30', u'mon': u'08', u'pretty': u'5:30 PM CEST on August 17, 2009', u'year': u'2009', u'tzname': u'Europe/Paris'}",50.0,10.0,0,0,-9999,-9999,36,clear,METAR LFPB 171530Z 30006KT 220V360 CAVOK 26/10 Q1016 NOSIG,-9999.00,-9999.00,30.01,1016,0,0,78.8,26.0,0,0,"{u'mday': u'17', u'hour': u'15', u'min': u'30', u'mon': u'08', u'pretty': u'3:30 PM GMT on August 17, 2009', u'year': u'2009', u'tzname': u'UTC'}",-9999.0,-9999.0,300,WNW,-9999.0,-9999.0,-999,-999,6.9,11.1
36,Clear,"{u'mday': u'17', u'hour': u'18', u'min': u'00', u'mon': u'08', u'pretty': u'6:00 PM CEST on August 17, 2009', u'year': u'2009', u'tzname': u'Europe/Paris'}",51.8,11.0,0,0,-9999,-9999,39,clear,METAR LFPB 171600Z 33008KT 290V360 CAVOK 26/11 Q1016 NOSIG,-9999.00,-9999.00,30.01,1016,0,0,78.8,26.0,0,0,"{u'mday': u'17', u'hour': u'16', u'min': u'00', u'mon': u'08', u'pretty': u'4:00 PM GMT on August 17, 2009', u'year': u'2009', u'tzname': u'UTC'}",-9999.0,-9999.0,330,NNW,-9999.0,-9999.0,-999,-999,9.2,14.8
37,Clear,"{u'mday': u'17', u'hour': u'18', u'min': u'30', u'mon': u'08', u'pretty': u'6:30 PM CEST on August 17, 2009', u'year': u'2009', u'tzname': u'Europe/Paris'}",51.8,11.0,0,0,-9999,-9999,41,clear,METAR LFPB 171630Z 31008KT 270V340 CAVOK 25/11 Q1016 NOSIG,-9999.00,-9999.00,30.01,1016,0,0,77.0,25.0,0,0,"{u'mday': u'17', u'hour': u'16', u'min': u'30', u'mon': u'08', u'pretty': u'4:30 PM GMT on August 17, 2009', u'year': u'2009', u'tzname': u'UTC'}",-9999.0,-9999.0,310,NW,-9999.0,-9999.0,-999,-999,9.2,14.8
38,Unknown,"{u'mday': u'17', u'hour': u'19', u'min': u'00', u'mon': u'08', u'pretty': u'7:00 PM CEST on August 17, 2009', u'year': u'2009', u'tzname': u'Europe/Paris'}",51.8,11.0,0,0,-9999,-9999,44,unknown,METAR LFPB 171700Z AUTO 32010KT 290V350 9999NDV NSC 24/11 Q1017,-9999.00,-9999.00,30.04,1017,0,0,75.2,24.0,0,0,"{u'mday': u'17', u'hour': u'17', u'min': u'00', u'mon': u'08', u'pretty': u'5:00 PM GMT on August 17, 2009', u'year': u'2009', u'tzname': u'UTC'}",6.2,10.0,320,NW,-9999.0,-9999.0,-999,-999,11.5,18.5
39,Unknown,"{u'mday': u'17', u'hour': u'19', u'min': u'30', u'mon': u'08', u'pretty': u'7:30 PM CEST on August 17, 2009', u'year': u'2009', u'tzname': u'Europe/Paris'}",51.8,11.0,0,0,-9999,-9999,47,unknown,METAR LFPB 171730Z AUTO 31008KT 280V350 9999NDV NSC 23/11 Q1017,-9999.00,-9999.00,30.04,1017,0,0,73.4,23.0,0,0,"{u'mday': u'17', u'hour': u'17', u'min': u'30', u'mon': u'08', u'pretty': u'5:30 PM GMT on August 17, 2009', u'year': u'2009', u'tzname': u'UTC'}",6.2,10.0,310,NW,-9999.0,-9999.0,-999,-999,9.2,14.8
40,Unknown,"{u'mday': u'17', u'hour': u'20', u'min': u'00', u'mon': u'08', u'pretty': u'8:00 PM CEST on August 17, 2009', u'year': u'2009', u'tzname': u'Europe/Paris'}",53.6,12.0,0,0,-9999,-9999,53,unknown,METAR LFPB 171800Z AUTO 31010KT 280V360 9999NDV NSC 22/12 Q1017,-9999.00,-9999.00,30.04,1017,0,0,71.6,22.0,0,0,"{u'mday': u'17', u'hour': u'18', u'min': u'00', u'mon': u'08', u'pretty': u'6:00 PM GMT on August 17, 2009', u'year': u'2009', u'tzname': u'UTC'}",6.2,10.0,310,NW,-9999.0,-9999.0,-999,-999,11.5,18.5
41,Unknown,"{u'mday': u'17', u'hour': u'20', u'min': u'30', u'mon': u'08', u'pretty': u'8:30 PM CEST on August 17, 2009', u'year': u'2009', u'tzname': u'Europe/Paris'}",51.8,11.0,0,0,-9999,-9999,53,unknown,METAR LFPB 171830Z AUTO 32010KT 290V360 9999NDV NSC 21/11 Q1017,-9999.00,-9999.00,30.04,1017,0,0,69.8,21.0,0,0,"{u'mday': u'17', u'hour': u'18', u'min': u'30', u'mon': u'08', u'pretty': u'6:30 PM GMT on August 17, 2009', u'year': u'2009', u'tzname': u'UTC'}",6.2,10.0,320,NW,-9999.0,-9999.0,-999,-999,11.5,18.5
42,Unknown,"{u'mday': u'17', u'hour': u'21', u'min': u'00', u'mon': u'08', u'pretty': u'9:00 PM CEST on August 17, 2009', u'year': u'2009', u'tzname': u'Europe/Paris'}",51.8,11.0,0,0,-9999,-9999,56,unknown,METAR LFPB 171900Z AUTO 32008KT 280V360 9999NDV NSC 20/11 Q1018,-9999.00,-9999.00,30.06,1018,0,0,68.0,20.0,0,0,"{u'mday': u'17', u'hour': u'19', u'min': u'00', u'mon': u'08', u'pretty': u'7:00 PM GMT on August 17, 2009', u'year': u'2009', u'tzname': u'UTC'}",6.2,10.0,320,NW,-9999.0,-9999.0,-999,-999,9.2,14.8
43,Unknown,"{u'mday': u'17', u'hour': u'21', u'min': u'30', u'mon': u'08', u'pretty': u'9:30 PM CEST on August 17, 2009', u'year': u'2009', u'tzname': u'Europe/Paris'}",51.8,11.0,0,0,-9999,-9999,60,unknown,METAR LFPB 171930Z AUTO 32006KT 280V360 9999NDV NSC 19/11 Q1018,-9999.00,-9999.00,30.06,1018,0,0,66.2,19.0,0,0,"{u'mday': u'17', u'hour': u'19', u'min': u'30', u'mon': u'08', u'pretty': u'7:30 PM GMT on August 17, 2009', u'year': u'2009', u'tzname': u'UTC'}",6.2,10.0,320,NW,-9999.0,-9999.0,-999,-999,6.9,11.1
44,Unknown,"{u'mday': u'17', u'hour': u'22', u'min': u'00', u'mon': u'08', u'pretty': u'10:00 PM CEST on August 17, 2009', u'year': u'2009', u'tzname': u'Europe/Paris'}",51.8,11.0,0,0,-9999,-9999,60,unknown,METAR LFPB 172000Z AUTO 33004KT 9999NDV NSC 19/11 Q1019,-9999.00,-9999.00,30.09,1019,0,0,66.2,19.0,0,0,"{u'mday': u'17', u'hour': u'20', u'min': u'00', u'mon': u'08', u'pretty': u'8:00 PM GMT on August 17, 2009', u'year': u'2009', u'tzname': u'UTC'}",6.2,10.0,330,NNW,-9999.0,-9999.0,-999,-999,4.6,7.4
45,Unknown,"{u'mday': u'17', u'hour': u'22', u'min': u'30', u'mon': u'08', u'pretty': u'10:30 PM CEST on August 17, 2009', u'year': u'2009', u'tzname': u'Europe/Paris'}",51.8,11.0,0,0,-9999,-9999,64,unknown,METAR LFPB 172030Z AUTO VRB03KT 9999NDV NSC 18/11 Q1019,-9999.00,-9999.00,30.09,1019,0,0,64.4,18.0,0,0,"{u'mday': u'17', u'hour': u'20', u'min': u'30', u'mon': u'08', u'pretty': u'8:30 PM GMT on August 17, 2009', u'year': u'2009', u'tzname': u'UTC'}",6.2,10.0,0,Variable,-9999.0,-9999.0,-999,-999,3.5,5.6
46,Unknown,"{u'mday': u'17', u'hour': u'23', u'min': u'00', u'mon': u'08', u'pretty': u'11:00 PM CEST on August 17, 2009', u'year': u'2009', u'tzname': u'Europe/Paris'}",51.8,11.0,0,0,-9999,-9999,68,unknown,METAR LFPB 172100Z AUTO VRB02KT 9999NDV NSC 17/11 Q1019,-9999.00,-9999.00,30.09,1019,0,0,62.6,17.0,0,0,"{u'mday': u'17', u'hour': u'21', u'min': u'00', u'mon': u'08', u'pretty': u'9:00 PM GMT on August 17, 2009', u'year': u'2009', u'tzname': u'UTC'}",6.2,10.0,0,Variable,-9999.0,-9999.0,-999,-999,2.3,3.7
47,Unknown,"{u'mday': u'17', u'hour': u'23', u'min': u'30', u'mon': u'08', u'pretty': u'11:30 PM CEST on August 17, 2009', u'year': u'2009', u'tzname': u'Europe/Paris'}",51.8,11.0,0,0,-9999,-9999,68,unknown,METAR LFPB 172130Z AUTO 33003KT 280V360 9999NDV NSC 17/11 Q1019,-9999.00,-9999.00,30.09,1019,0,0,62.6,17.0,0,0,"{u'mday': u'17', u'hour': u'21', u'min': u'30', u'mon': u'08', u'pretty': u'9:30 PM GMT on August 17, 2009', u'year': u'2009', u'tzname': u'UTC'}",6.2,10.0,330,NNW,-9999.0,-9999.0,-999,-999,3.5,5.6
0,Mist,"{u'mday': u'18', u'hour': u'00', u'min': u'00', u'mon': u'08', u'pretty': u'12:00 AM CEST on August 18, 2009', u'year': u'2009', u'tzname': u'Europe/Paris'}",51.8,11.0,0,0,-9999,-9999,72,hazy,METAR LFPB 172200Z AUTO 34003KT 9999 1900NDV BR NSC 16/11 Q1019,-9999.00,-9999.00,30.09,1019,0,0,60.8,16.0,0,0,"{u'mday': u'17', u'hour': u'22', u'min': u'00', u'mon': u'08', u'pretty': u'10:00 PM GMT on August 17, 2009', u'year': u'2009', u'tzname': u'UTC'}",6.2,10.0,340,NNW,-9999.0,-9999.0,-999,-999,3.5,5.6
1,Unknown,"{u'mday': u'18', u'hour': u'00', u'min': u'30', u'mon': u'08', u'pretty': u'12:30 AM CEST on August 18, 2009', u'year': u'2009', u'tzname': u'Europe/Paris'}",51.8,11.0,0,0,-9999,-9999,77,unknown,METAR LFPB 172230Z AUTO 36002KT 9999NDV NSC 15/11 Q1020,-9999.00,-9999.00,30.12,1020,0,0,59.0,15.0,0,0,"{u'mday': u'17', u'hour': u'22', u'min': u'30', u'mon': u'08', u'pretty': u'10:30 PM GMT on August 17, 2009', u'year': u'2009', u'tzname': u'UTC'}",6.2,10.0,360,North,-9999.0,-9999.0,-999,-999,2.3,3.7
2,Unknown,"{u'mday': u'18', u'hour': u'01', u'min': u'00', u'mon': u'08', u'pretty': u'1:00 AM CEST on August 18, 2009', u'year': u'2009', u'tzname': u'Europe/Paris'}",51.8,11.0,0,0,-9999,-9999,77,unknown,METAR LFPB 172300Z AUTO 00000KT 9999NDV NSC 15/11 Q1020,-9999.00,-9999.00,30.12,1020,0,0,59.0,15.0,0,0,"{u'mday': u'17', u'hour': u'23', u'min': u'00', u'mon': u'08', u'pretty': u'11:00 PM GMT on August 17, 2009', u'year': u'2009', u'tzname': u'UTC'}",6.2,10.0,0,North,-9999.0,-9999.0,-999,-999,0.0,0.0
3,Unknown,"{u'mday': u'18', u'hour': u'01', u'min': u'30', u'mon': u'08', u'pretty': u'1:30 AM CEST on August 18, 2009', u'year': u'2009', u'tzname': u'Europe/Paris'}",50.0,10.0,0,0,-9999,-9999,77,unknown,METAR LFPB 172330Z AUTO 36002KT 9999NDV NSC 14/10 Q1020,-9999.00,-9999.00,30.12,1020,0,0,57.2,14.0,0,0,"{u'mday': u'17', u'hour': u'23', u'min': u'30', u'mon': u'08', u'pretty': u'11:30 PM GMT on August 17, 2009', u'year': u'2009', u'tzname': u'UTC'}",6.2,10.0,360,North,-9999.0,-9999.0,-999,-999,2.3,3.7
4,Unknown,"{u'mday': u'18', u'hour': u'02', u'min': u'00', u'mon': u'08', u'pretty': u'2:00 AM CEST on August 18, 2009', u'year': u'2009', u'tzname': u'Europe/Paris'}",51.8,11.0,0,0,-9999,-9999,82,unknown,METAR LFPB 180000Z AUTO 02002KT 9999NDV NSC 14/11 Q1020,-9999.00,-9999.00,30.12,1020,0,0,57.2,14.0,0,0,"{u'mday': u'18', u'hour': u'00', u'min': u'00', u'mon': u'08', u'pretty': u'12:00 AM GMT on August 18, 2009', u'year': u'2009', u'tzname': u'UTC'}",6.2,10.0,20,NNE,-9999.0,-9999.0,-999,-999,2.3,3.7
5,Unknown,"{u'mday': u'18', u'hour': u'02', u'min': u'30', u'mon': u'08', u'pretty': u'2:30 AM CEST on August 18, 2009', u'year': u'2009', u'tzname': u'Europe/Paris'}",51.8,11.0,0,0,-9999,-9999,82,unknown,METAR LFPB 180030Z AUTO 02002KT 9999NDV NSC 14/11 Q1020,-9999.00,-9999.00,30.12,1020,0,0,57.2,14.0,0,0,"{u'mday': u'18', u'hour': u'00', u'min': u'30', u'mon': u'08', u'pretty': u'12:30 AM GMT on August 18, 2009', u'year': u'2009', u'tzname': u'UTC'}",6.2,10.0,20,NNE,-9999.0,-9999.0,-999,-999,2.3,3.7
6,Mist,"{u'mday': u'18', u'hour': u'03', u'min': u'00', u'mon': u'08', u'pretty': u'3:00 AM CEST on August 18, 2009', u'year': u'2009', u'tzname': u'Europe/Paris'}",51.8,11.0,0,0,-9999,-9999,82,hazy,METAR LFPB 180100Z AUTO 01003KT 9999 1800NDV BR NSC 14/11 Q1020,-9999.00,-9999.00,30.12,1020,0,0,57.2,14.0,0,0,"{u'mday': u'18', u'hour': u'01', u'min': u'00', u'mon': u'08', u'pretty': u'1:00 AM GMT on August 18, 2009', u'year': u'2009', u'tzname': u'UTC'}",6.2,10.0,10,North,-9999.0,-9999.0,-999,-999,3.5,5.6
7,Unknown,"{u'mday': u'18', u'hour': u'03', u'min': u'30', u'mon': u'08', u'pretty': u'3:30 AM CEST on August 18, 2009', u'year': u'2009', u'tzname': u'Europe/Paris'}",50.0,10.0,0,0,-9999,-9999,82,unknown,METAR LFPB 180130Z AUTO 01003KT 9999NDV NSC 13/10 Q1020,-9999.00,-9999.00,30.12,1020,0,0,55.4,13.0,0,0,"{u'mday': u'18', u'hour': u'01', u'min': u'30', u'mon': u'08', u'pretty': u'1:30 AM GMT on August 18, 2009', u'year': u'2009', u'tzname': u'UTC'}",6.2,10.0,10,North,-9999.0,-9999.0,-999,-999,3.5,5.6
8,Unknown,"{u'mday': u'18', u'hour': u'04', u'min': u'00', u'mon': u'08', u'pretty': u'4:00 AM CEST on August 18, 2009', u'year': u'2009', u'tzname': u'Europe/Paris'}",50.0,10.0,0,0,-9999,-9999,88,unknown,METAR LFPB 180200Z AUTO 35003KT 9999NDV NSC 12/10 Q1020,-9999.00,-9999.00,30.12,1020,0,0,53.6,12.0,0,0,"{u'mday': u'18', u'hour': u'02', u'min': u'00', u'mon': u'08', u'pretty': u'2:00 AM GMT on August 18, 2009', u'year': u'2009', u'tzname': u'UTC'}",6.2,10.0,350,North,-9999.0,-9999.0,-999,-999,3.5,5.6
9,Unknown,"{u'mday': u'18', u'hour': u'04', u'min': u'30', u'mon': u'08', u'pretty': u'4:30 AM CEST on August 18, 2009', u'year': u'2009', u'tzname': u'Europe/Paris'}",50.0,10.0,0,0,-9999,-9999,88,unknown,METAR LFPB 180230Z AUTO 02003KT 9999NDV NSC 12/10 Q1020,-9999.00,-9999.00,30.12,1020,0,0,53.6,12.0,0,0,"{u'mday': u'18', u'hour': u'02', u'min': u'30', u'mon': u'08', u'pretty': u'2:30 AM GMT on August 18, 2009', u'year': u'2009', u'tzname': u'UTC'}",6.2,10.0,20,NNE,-9999.0,-9999.0,-999,-999,3.5,5.6
10,Unknown,"{u'mday': u'18', u'hour': u'05', u'min': u'00', u'mon': u'08', u'pretty': u'5:00 AM CEST on August 18, 2009', u'year': u'2009', u'tzname': u'Europe/Paris'}",50.0,10.0,0,0,-9999,-9999,88,unknown,METAR LFPB 180300Z AUTO 03002KT 9999NDV NSC 12/10 Q1020,-9999.00,-9999.00,30.12,1020,0,0,53.6,12.0,0,0,"{u'mday': u'18', u'hour': u'03', u'min': u'00', u'mon': u'08', u'pretty': u'3:00 AM GMT on August 18, 2009', u'year': u'2009', u'tzname': u'UTC'}",6.2,10.0,30,NNE,-9999.0,-9999.0,-999,-999,2.3,3.7
11,Unknown,"{u'mday': u'18', u'hour': u'05', u'min': u'30', u'mon': u'08', u'pretty': u'5:30 AM CEST on August 18, 2009', u'year': u'2009', u'tzname': u'Europe/Paris'}",50.0,10.0,0,0,-9999,-9999,88,unknown,METAR LFPB 180330Z AUTO 01002KT 9999NDV NSC 12/10 Q1020,-9999.00,-9999.00,30.12,1020,0,0,53.6,12.0,0,0,"{u'mday': u'18', u'hour': u'03', u'min': u'30', u'mon': u'08', u'pretty': u'3:30 AM GMT on August 18, 2009', u'year': u'2009', u'tzname': u'UTC'}",6.2,10.0,10,North,-9999.0,-9999.0,-999,-999,2.3,3.7
12,Unknown,"{u'mday': u'18', u'hour': u'06', u'min': u'00', u'mon': u'08', u'pretty': u'6:00 AM CEST on August 18, 2009', u'year': u'2009', u'tzname': u'Europe/Paris'}",50.0,10.0,0,0,-9999,-9999,88,unknown,METAR LFPB 180400Z AUTO 02002KT 9999NDV NSC 12/10 Q1020,-9999.00,-9999.00,30.12,1020,0,0,53.6,12.0,0,0,"{u'mday': u'18', u'hour': u'04', u'min': u'00', u'mon': u'08', u'pretty': u'4:00 AM GMT on August 18, 2009', u'year': u'2009', u'tzname': u'UTC'}",6.2,10.0,20,NNE,-9999.0,-9999.0,-999,-999,2.3,3.7
13,Clear,"{u'mday': u'18', u'hour': u'06', u'min': u'30', u'mon': u'08', u'pretty': u'6:30 AM CEST on August 18, 2009', u'year': u'2009', u'tzname': u'Europe/Paris'}",50.0,10.0,0,0,-9999,-9999,94,clear,METAR LFPB 180430Z 02003KT CAVOK 11/10 Q1020 NOSIG,-9999.00,-9999.00,30.12,1020,0,0,51.8,11.0,0,0,"{u'mday': u'18', u'hour': u'04', u'min': u'30', u'mon': u'08', u'pretty': u'4:30 AM GMT on August 18, 2009', u'year': u'2009', u'tzname': u'UTC'}",-9999.0,-9999.0,20,NNE,-9999.0,-9999.0,-999,-999,3.5,5.6
14,Clear,"{u'mday': u'18', u'hour': u'07', u'min': u'00', u'mon': u'08', u'pretty': u'7:00 AM CEST on August 18, 2009', u'year': u'2009', u'tzname': u'Europe/Paris'}",50.0,10.0,0,0,-9999,-9999,88,clear,METAR LFPB 180500Z 02003KT CAVOK 12/10 Q1020 NOSIG,-9999.00,-9999.00,30.12,1020,0,0,53.6,12.0,0,0,"{u'mday': u'18', u'hour': u'05', u'min': u'00', u'mon': u'08', u'pretty': u'5:00 AM GMT on August 18, 2009', u'year': u'2009', u'tzname': u'UTC'}",-9999.0,-9999.0,20,NNE,-9999.0,-9999.0,-999,-999,3.5,5.6
15,Clear,"{u'mday': u'18', u'hour': u'07', u'min': u'30', u'mon': u'08', u'pretty': u'7:30 AM CEST on August 18, 2009', u'year': u'2009', u'tzname': u'Europe/Paris'}",50.0,10.0,0,0,-9999,-9999,88,clear,METAR LFPB 180530Z 01003KT CAVOK 12/10 Q1020 NOSIG,-9999.00,-9999.00,30.12,1020,0,0,53.6,12.0,0,0,"{u'mday': u'18', u'hour': u'05', u'min': u'30', u'mon': u'08', u'pretty': u'5:30 AM GMT on August 18, 2009', u'year': u'2009', u'tzname': u'UTC'}",-9999.0,-9999.0,10,North,-9999.0,-9999.0,-999,-999,3.5,5.6
16,Clear,"{u'mday': u'18', u'hour': u'08', u'min': u'00', u'mon': u'08', u'pretty': u'8:00 AM CEST on August 18, 2009', u'year': u'2009', u'tzname': u'Europe/Paris'}",51.8,11.0,0,0,-9999,-9999,88,clear,METAR LFPB 180600Z 36003KT CAVOK 13/11 Q1020 NOSIG,-9999.00,-9999.00,30.12,1020,0,0,55.4,13.0,0,0,"{u'mday': u'18', u'hour': u'06', u'min': u'00', u'mon': u'08', u'pretty': u'6:00 AM GMT on August 18, 2009', u'year': u'2009', u'tzname': u'UTC'}",-9999.0,-9999.0,360,North,-9999.0,-9999.0,-999,-999,3.5,5.6
17,Clear,"{u'mday': u'18', u'hour': u'08', u'min': u'30', u'mon': u'08', u'pretty': u'8:30 AM CEST on August 18, 2009', u'year': u'2009', u'tzname': u'Europe/Paris'}",51.8,11.0,0,0,-9999,-9999,77,clear,METAR LFPB 180630Z 36002KT CAVOK 15/11 Q1020 NOSIG,-9999.00,-9999.00,30.12,1020,0,0,59.0,15.0,0,0,"{u'mday': u'18', u'hour': u'06', u'min': u'30', u'mon': u'08', u'pretty': u'6:30 AM GMT on August 18, 2009', u'year': u'2009', u'tzname': u'UTC'}",-9999.0,-9999.0,360,North,-9999.0,-9999.0,-999,-999,2.3,3.7
18,Clear,"{u'mday': u'18', u'hour': u'09', u'min': u'00', u'mon': u'08', u'pretty': u'9:00 AM CEST on August 18, 2009', u'year': u'2009', u'tzname': u'Europe/Paris'}",53.6,12.0,0,0,-9999,-9999,72,clear,METAR LFPB 180700Z VRB02KT CAVOK 17/12 Q1020 NOSIG,-9999.00,-9999.00,30.12,1020,0,0,62.6,17.0,0,0,"{u'mday': u'18', u'hour': u'07', u'min': u'00', u'mon': u'08', u'pretty': u'7:00 AM GMT on August 18, 2009', u'year': u'2009', u'tzname': u'UTC'}",-9999.0,-9999.0,0,Variable,-9999.0,-9999.0,-999,-999,2.3,3.7
19,Clear,"{u'mday': u'18', u'hour': u'09', u'min': u'30', u'mon': u'08', u'pretty': u'9:30 AM CEST on August 18, 2009', u'year': u'2009', u'tzname': u'Europe/Paris'}",53.6,12.0,0,0,-9999,-9999,68,clear,METAR LFPB 180730Z VRB03KT CAVOK 18/12 Q1020 NOSIG,-9999.00,-9999.00,30.12,1020,0,0,64.4,18.0,0,0,"{u'mday': u'18', u'hour': u'07', u'min': u'30', u'mon': u'08', u'pretty': u'7:30 AM GMT on August 18, 2009', u'year': u'2009', u'tzname': u'UTC'}",-9999.0,-9999.0,0,Variable,-9999.0,-9999.0,-999,-999,3.5,5.6
20,Clear,"{u'mday': u'18', u'hour': u'10', u'min': u'00', u'mon': u'08', u'pretty': u'10:00 AM CEST on August 18, 2009', u'year': u'2009', u'tzname': u'Europe/Paris'}",53.6,12.0,0,0,-9999,-9999,64,clear,METAR LFPB 180800Z VRB02KT CAVOK 19/12 Q1021 NOSIG,-9999.00,-9999.00,30.15,1021,0,0,66.2,19.0,0,0,"{u'mday': u'18', u'hour': u'08', u'min': u'00', u'mon': u'08', u'pretty': u'8:00 AM GMT on August 18, 2009', u'year': u'2009', u'tzname': u'UTC'}",-9999.0,-9999.0,0,Variable,-9999.0,-9999.0,-999,-999,2.3,3.7
21,Clear,"{u'mday': u'18', u'hour': u'10', u'min': u'30', u'mon': u'08', u'pretty': u'10:30 AM CEST on August 18, 2009', u'year': u'2009', u'tzname': u'Europe/Paris'}",51.8,11.0,0,0,-9999,-9999,56,clear,METAR LFPB 180830Z 00000KT CAVOK 20/11 Q1021 NOSIG,-9999.00,-9999.00,30.15,1021,0,0,68.0,20.0,0,0,"{u'mday': u'18', u'hour': u'08', u'min': u'30', u'mon': u'08', u'pretty': u'8:30 AM GMT on August 18, 2009', u'year': u'2009', u'tzname': u'UTC'}",-9999.0,-9999.0,0,North,-9999.0,-9999.0,-999,-999,0.0,0.0
22,Clear,"{u'mday': u'18', u'hour': u'11', u'min': u'00', u'mon': u'08', u'pretty': u'11:00 AM CEST on August 18, 2009', u'year': u'2009', u'tzname': u'Europe/Paris'}",51.8,11.0,0,0,-9999,-9999,53,clear,METAR LFPB 180900Z VRB02KT CAVOK 21/11 Q1020 NOSIG,-9999.00,-9999.00,30.12,1020,0,0,69.8,21.0,0,0,"{u'mday': u'18', u'hour': u'09', u'min': u'00', u'mon': u'08', u'pretty': u'9:00 AM GMT on August 18, 2009', u'year': u'2009', u'tzname': u'UTC'}",-9999.0,-9999.0,0,Variable,-9999.0,-9999.0,-999,-999,2.3,3.7
23,Clear,"{u'mday': u'18', u'hour': u'11', u'min': u'30', u'mon': u'08', u'pretty': u'11:30 AM CEST on August 18, 2009', u'year': u'2009', u'tzname': u'Europe/Paris'}",53.6,12.0,0,0,-9999,-9999,53,clear,METAR LFPB 180930Z VRB02KT CAVOK 22/12 Q1020 NOSIG,-9999.00,-9999.00,30.12,1020,0,0,71.6,22.0,0,0,"{u'mday': u'18', u'hour': u'09', u'min': u'30', u'mon': u'08', u'pretty': u'9:30 AM GMT on August 18, 2009', u'year': u'2009', u'tzname': u'UTC'}",-9999.0,-9999.0,0,Variable,-9999.0,-9999.0,-999,-999,2.3,3.7
24,Clear,"{u'mday': u'18', u'hour': u'12', u'min': u'00', u'mon': u'08', u'pretty': u'12:00 PM CEST on August 18, 2009', u'year': u'2009', u'tzname': u'Europe/Paris'}",51.8,11.0,0,0,-9999,-9999,50,clear,METAR LFPB 181000Z VRB03KT CAVOK 22/11 Q1020 NOSIG,-9999.00,-9999.00,30.12,1020,0,0,71.6,22.0,0,0,"{u'mday': u'18', u'hour': u'10', u'min': u'00', u'mon': u'08', u'pretty': u'10:00 AM GMT on August 18, 2009', u'year': u'2009', u'tzname': u'UTC'}",-9999.0,-9999.0,0,Variable,-9999.0,-9999.0,-999,-999,3.5,5.6
25,Unknown,"{u'mday': u'18', u'hour': u'12', u'min': u'30', u'mon': u'08', u'pretty': u'12:30 PM CEST on August 18, 2009', u'year': u'2009', u'tzname': u'Europe/Paris'}",53.6,12.0,0,0,-9999,-9999,50,unknown,METAR LFPB 181030Z AUTO VRB02KT 9999NDV NSC 23/12 Q1020,-9999.00,-9999.00,30.12,1020,0,0,73.4,23.0,0,0,"{u'mday': u'18', u'hour': u'10', u'min': u'30', u'mon': u'08', u'pretty': u'10:30 AM GMT on August 18, 2009', u'year': u'2009', u'tzname': u'UTC'}",6.2,10.0,0,Variable,-9999.0,-9999.0,-999,-999,2.3,3.7
26,Clear,"{u'mday': u'18', u'hour': u'13', u'min': u'00', u'mon': u'08', u'pretty': u'1:00 PM CEST on August 18, 2009', u'year': u'2009', u'tzname': u'Europe/Paris'}",51.8,11.0,0,0,-9999,-9999,44,clear,METAR LFPB 181100Z VRB03KT CAVOK 24/11 Q1020 NOSIG,-9999.00,-9999.00,30.12,1020,0,0,75.2,24.0,0,0,"{u'mday': u'18', u'hour': u'11', u'min': u'00', u'mon': u'08', u'pretty': u'11:00 AM GMT on August 18, 2009', u'year': u'2009', u'tzname': u'UTC'}",-9999.0,-9999.0,0,Variable,-9999.0,-9999.0,-999,-999,3.5,5.6
27,Clear,"{u'mday': u'18', u'hour': u'13', u'min': u'30', u'mon': u'08', u'pretty': u'1:30 PM CEST on August 18, 2009', u'year': u'2009', u'tzname': u'Europe/Paris'}",51.8,11.0,0,0,-9999,-9999,41,clear,METAR LFPB 181130Z VRB04KT CAVOK 25/11 Q1020 NOSIG,-9999.00,-9999.00,30.12,1020,0,0,77.0,25.0,0,0,"{u'mday': u'18', u'hour': u'11', u'min': u'30', u'mon': u'08', u'pretty': u'11:30 AM GMT on August 18, 2009', u'year': u'2009', u'tzname': u'UTC'}",-9999.0,-9999.0,0,Variable,-9999.0,-9999.0,-999,-999,4.6,7.4
28,Clear,"{u'mday': u'18', u'hour': u'14', u'min': u'00', u'mon': u'08', u'pretty': u'2:00 PM CEST on August 18, 2009', u'year': u'2009', u'tzname': u'Europe/Paris'}",51.8,11.0,0,0,-9999,-9999,41,clear,METAR LFPB 181200Z 12004KT 030V190 CAVOK 25/11 Q1020 NOSIG,-9999.00,-9999.00,30.12,1020,0,0,77.0,25.0,0,0,"{u'mday': u'18', u'hour': u'12', u'min': u'00', u'mon': u'08', u'pretty': u'12:00 PM GMT on August 18, 2009', u'year': u'2009', u'tzname': u'UTC'}",-9999.0,-9999.0,120,ESE,-9999.0,-9999.0,-999,-999,4.6,7.4
29,Clear,"{u'mday': u'18', u'hour': u'14', u'min': u'30', u'mon': u'08', u'pretty': u'2:30 PM CEST on August 18, 2009', u'year': u'2009', u'tzname': u'Europe/Paris'}",51.8,11.0,0,0,-9999,-9999,37,clear,METAR LFPB 181230Z 16003KT 090V190 CAVOK 27/11 Q1019 NOSIG,-9999.00,-9999.00,30.09,1019,0,0,80.6,27.0,0,0,"{u'mday': u'18', u'hour': u'12', u'min': u'30', u'mon': u'08', u'pretty': u'12:30 PM GMT on August 18, 2009', u'year': u'2009', u'tzname': u'UTC'}",-9999.0,-9999.0,160,SSE,-9999.0,-9999.0,-999,-999,3.5,5.6
30,Clear,"{u'mday': u'18', u'hour': u'15', u'min': u'00', u'mon': u'08', u'pretty': u'3:00 PM CEST on August 18, 2009', u'year': u'2009', u'tzname': u'Europe/Paris'}",50.0,10.0,0,0,-9999,-9999,34,clear,METAR LFPB 181300Z VRB03KT CAVOK 27/10 Q1019 NOSIG,-9999.00,-9999.00,30.09,1019,0,0,80.6,27.0,0,0,"{u'mday': u'18', u'hour': u'13', u'min': u'00', u'mon': u'08', u'pretty': u'1:00 PM GMT on August 18, 2009', u'year': u'2009', u'tzname': u'UTC'}",-9999.0,-9999.0,0,Variable,-9999.0,-9999.0,-999,-999,3.5,5.6
31,Clear,"{u'mday': u'18', u'hour': u'15', u'min': u'30', u'mon': u'08', u'pretty': u'3:30 PM CEST on August 18, 2009', u'year': u'2009', u'tzname': u'Europe/Paris'}",50.0,10.0,0,0,-9999,-9999,32,clear,METAR LFPB 181330Z 12004KT 070V200 CAVOK 28/10 Q1019 NOSIG,-9999.00,-9999.00,30.09,1019,0,0,82.4,28.0,0,0,"{u'mday': u'18', u'hour': u'13', u'min': u'30', u'mon': u'08', u'pretty': u'1:30 PM GMT on August 18, 2009', u'year': u'2009', u'tzname': u'UTC'}",-9999.0,-9999.0,120,ESE,-9999.0,-9999.0,-999,-999,4.6,7.4
32,Clear,"{u'mday': u'18', u'hour': u'16', u'min': u'00', u'mon': u'08', u'pretty': u'4:00 PM CEST on August 18, 2009', u'year': u'2009', u'tzname': u'Europe/Paris'}",50.0,10.0,0,0,-9999,-9999,32,clear,METAR LFPB 181400Z VRB03KT CAVOK 28/10 Q1019 NOSIG,-9999.00,-9999.00,30.09,1019,0,0,82.4,28.0,0,0,"{u'mday': u'18', u'hour': u'14', u'min': u'00', u'mon': u'08', u'pretty': u'2:00 PM GMT on August 18, 2009', u'year': u'2009', u'tzname': u'UTC'}",-9999.0,-9999.0,0,Variable,-9999.0,-9999.0,-999,-999,3.5,5.6
33,Clear,"{u'mday': u'18', u'hour': u'16', u'min': u'30', u'mon': u'08', u'pretty': u'4:30 PM CEST on August 18, 2009', u'year': u'2009', u'tzname': u'Europe/Paris'}",50.0,10.0,0,0,-9999,-9999,30,clear,METAR LFPB 181430Z 20003KT 090V260 CAVOK 29/10 Q1018 NOSIG,-9999.00,-9999.00,30.06,1018,0,0,84.2,29.0,0,0,"{u'mday': u'18', u'hour': u'14', u'min': u'30', u'mon': u'08', u'pretty': u'2:30 PM GMT on August 18, 2009', u'year': u'2009', u'tzname': u'UTC'}",-9999.0,-9999.0,200,SSW,-9999.0,-9999.0,-999,-999,3.5,5.6
34,Clear,"{u'mday': u'18', u'hour': u'17', u'min': u'00', u'mon': u'08', u'pretty': u'5:00 PM CEST on August 18, 2009', u'year': u'2009', u'tzname': u'Europe/Paris'}",50.0,10.0,0,0,-9999,-9999,30,clear,METAR LFPB 181500Z VRB03KT CAVOK 29/10 Q1018 NOSIG,-9999.00,-9999.00,30.06,1018,0,0,84.2,29.0,0,0,"{u'mday': u'18', u'hour': u'15', u'min': u'00', u'mon': u'08', u'pretty': u'3:00 PM GMT on August 18, 2009', u'year': u'2009', u'tzname': u'UTC'}",-9999.0,-9999.0,0,Variable,-9999.0,-9999.0,-999,-999,3.5,5.6
35,Clear,"{u'mday': u'18', u'hour': u'17', u'min': u'30', u'mon': u'08', u'pretty': u'5:30 PM CEST on August 18, 2009', u'year': u'2009', u'tzname': u'Europe/Paris'}",46.4,8.0,0,0,-9999,-9999,27,clear,METAR LFPB 181530Z VRB03KT CAVOK 29/08 Q1018 NOSIG,-9999.00,-9999.00,30.06,1018,0,0,84.2,29.0,0,0,"{u'mday': u'18', u'hour': u'15', u'min': u'30', u'mon': u'08', u'pretty': u'3:30 PM GMT on August 18, 2009', u'year': u'2009', u'tzname': u'UTC'}",-9999.0,-9999.0,0,Variable,-9999.0,-9999.0,-999,-999,3.5,5.6
36,Clear,"{u'mday': u'18', u'hour': u'18', u'min': u'00', u'mon': u'08', u'pretty': u'6:00 PM CEST on August 18, 2009', u'year': u'2009', u'tzname': u'Europe/Paris'}",46.4,8.0,0,0,-9999,-9999,27,clear,METAR LFPB 181600Z 23005KT 200V260 CAVOK 29/08 Q1018 NOSIG,-9999.00,-9999.00,30.06,1018,0,0,84.2,29.0,0,0,"{u'mday': u'18', u'hour': u'16', u'min': u'00', u'mon': u'08', u'pretty': u'4:00 PM GMT on August 18, 2009', u'year': u'2009', u'tzname': u'UTC'}",-9999.0,-9999.0,230,SW,-9999.0,-9999.0,-999,-999,5.8,9.3
37,Clear,"{u'mday': u'18', u'hour': u'18', u'min': u'30', u'mon': u'08', u'pretty': u'6:30 PM CEST on August 18, 2009', u'year': u'2009', u'tzname': u'Europe/Paris'}",46.4,8.0,0,0,-9999,-9999,27,clear,METAR LFPB 181630Z 30003KT 250V350 CAVOK 29/08 Q1018 NOSIG,-9999.00,-9999.00,30.06,1018,0,0,84.2,29.0,0,0,"{u'mday': u'18', u'hour': u'16', u'min': u'30', u'mon': u'08', u'pretty': u'4:30 PM GMT on August 18, 2009', u'year': u'2009', u'tzname': u'UTC'}",-9999.0,-9999.0,300,WNW,-9999.0,-9999.0,-999,-999,3.5,5.6
38,Unknown,"{u'mday': u'18', u'hour': u'19', u'min': u'00', u'mon': u'08', u'pretty': u'7:00 PM CEST on August 18, 2009', u'year': u'2009', u'tzname': u'Europe/Paris'}",48.2,9.0,0,0,-9999,-9999,30,unknown,METAR LFPB 181700Z AUTO VRB02KT 9999NDV NSC 28/09 Q1017,-9999.00,-9999.00,30.04,1017,0,0,82.4,28.0,0,0,"{u'mday': u'18', u'hour': u'17', u'min': u'00', u'mon': u'08', u'pretty': u'5:00 PM GMT on August 18, 2009', u'year': u'2009', u'tzname': u'UTC'}",6.2,10.0,0,Variable,-9999.0,-9999.0,-999,-999,2.3,3.7
39,Unknown,"{u'mday': u'18', u'hour': u'19', u'min': u'30', u'mon': u'08', u'pretty': u'7:30 PM CEST on August 18, 2009', u'year': u'2009', u'tzname': u'Europe/Paris'}",48.2,9.0,0,0,-9999,-9999,30,unknown,METAR LFPB 181730Z AUTO VRB02KT 9999NDV NSC 28/09 Q1017,-9999.00,-9999.00,30.04,1017,0,0,82.4,28.0,0,0,"{u'mday': u'18', u'hour': u'17', u'min': u'30', u'mon': u'08', u'pretty': u'5:30 PM GMT on August 18, 2009', u'year': u'2009', u'tzname': u'UTC'}",6.2,10.0,0,Variable,-9999.0,-9999.0,-999,-999,2.3,3.7
40,Unknown,"{u'mday': u'18', u'hour': u'20', u'min': u'00', u'mon': u'08', u'pretty': u'8:00 PM CEST on August 18, 2009', u'year': u'2009', u'tzname': u'Europe/Paris'}",48.2,9.0,0,0,-9999,-9999,30,unknown,METAR LFPB 181800Z AUTO 01001KT 9999NDV NSC 28/09 Q1017,-9999.00,-9999.00,30.04,1017,0,0,82.4,28.0,0,0,"{u'mday': u'18', u'hour': u'18', u'min': u'00', u'mon': u'08', u'pretty': u'6:00 PM GMT on August 18, 2009', u'year': u'2009', u'tzname': u'UTC'}",6.2,10.0,10,North,-9999.0,-9999.0,-999,-999,1.2,1.9
41,Unknown,"{u'mday': u'18', u'hour': u'20', u'min': u'30', u'mon': u'08', u'pretty': u'8:30 PM CEST on August 18, 2009', u'year': u'2009', u'tzname': u'Europe/Paris'}",50.0,10.0,0,0,-9999,-9999,36,unknown,METAR LFPB 181830Z AUTO 03004KT 9999NDV NSC 26/10 Q1017,-9999.00,-9999.00,30.04,1017,0,0,78.8,26.0,0,0,"{u'mday': u'18', u'hour': u'18', u'min': u'30', u'mon': u'08', u'pretty': u'6:30 PM GMT on August 18, 2009', u'year': u'2009', u'tzname': u'UTC'}",6.2,10.0,30,NNE,-9999.0,-9999.0,-999,-999,4.6,7.4
42,Unknown,"{u'mday': u'18', u'hour': u'21', u'min': u'00', u'mon': u'08', u'pretty': u'9:00 PM CEST on August 18, 2009', u'year': u'2009', u'tzname': u'Europe/Paris'}",51.8,11.0,0,0,-9999,-9999,41,unknown,METAR LFPB 181900Z AUTO 02003KT 9999NDV NSC 25/11 Q1017,-9999.00,-9999.00,30.04,1017,0,0,77.0,25.0,0,0,"{u'mday': u'18', u'hour': u'19', u'min': u'00', u'mon': u'08', u'pretty': u'7:00 PM GMT on August 18, 2009', u'year': u'2009', u'tzname': u'UTC'}",6.2,10.0,20,NNE,-9999.0,-9999.0,-999,-999,3.5,5.6
43,Unknown,"{u'mday': u'18', u'hour': u'21', u'min': u'30', u'mon': u'08', u'pretty': u'9:30 PM CEST on August 18, 2009', u'year': u'2009', u'tzname': u'Europe/Paris'}",51.8,11.0,0,0,-9999,-9999,44,unknown,METAR LFPB 181930Z AUTO 03005KT 9999NDV NSC 24/11 Q1018,-9999.00,-9999.00,30.06,1018,0,0,75.2,24.0,0,0,"{u'mday': u'18', u'hour': u'19', u'min': u'30', u'mon': u'08', u'pretty': u'7:30 PM GMT on August 18, 2009', u'year': u'2009', u'tzname': u'UTC'}",6.2,10.0,30,NNE,-9999.0,-9999.0,-999,-999,5.8,9.3
44,Unknown,"{u'mday': u'18', u'hour': u'22', u'min': u'00', u'mon': u'08', u'pretty': u'10:00 PM CEST on August 18, 2009', u'year': u'2009', u'tzname': u'Europe/Paris'}",53.6,12.0,0,0,-9999,-9999,50,unknown,METAR LFPB 182000Z AUTO 03005KT 9999NDV NSC 23/12 Q1018,-9999.00,-9999.00,30.06,1018,0,0,73.4,23.0,0,0,"{u'mday': u'18', u'hour': u'20', u'min': u'00', u'mon': u'08', u'pretty': u'8:00 PM GMT on August 18, 2009', u'year': u'2009', u'tzname': u'UTC'}",6.2,10.0,30,NNE,-9999.0,-9999.0,-999,-999,5.8,9.3
45,Unknown,"{u'mday': u'18', u'hour': u'22', u'min': u'30', u'mon': u'08', u'pretty': u'10:30 PM CEST on August 18, 2009', u'year': u'2009', u'tzname': u'Europe/Paris'}",53.6,12.0,0,0,-9999,-9999,53,unknown,METAR LFPB 182030Z AUTO 02005KT 9999NDV NSC 22/12 Q1018,-9999.00,-9999.00,30.06,1018,0,0,71.6,22.0,0,0,"{u'mday': u'18', u'hour': u'20', u'min': u'30', u'mon': u'08', u'pretty': u'8:30 PM GMT on August 18, 2009', u'year': u'2009', u'tzname': u'UTC'}",6.2,10.0,20,NNE,-9999.0,-9999.0,-999,-999,5.8,9.3
46,Mist,"{u'mday': u'18', u'hour': u'23', u'min': u'00', u'mon': u'08', u'pretty': u'11:00 PM CEST on August 18, 2009', u'year': u'2009', u'tzname': u'Europe/Paris'}",53.6,12.0,0,0,-9999,-9999,56,hazy,METAR LFPB 182100Z AUTO VRB02KT 9999 1900NDV BR NSC 21/12 Q1018,-9999.00,-9999.00,30.06,1018,0,0,69.8,21.0,0,0,"{u'mday': u'18', u'hour': u'21', u'min': u'00', u'mon': u'08', u'pretty': u'9:00 PM GMT on August 18, 2009', u'year': u'2009', u'tzname': u'UTC'}",6.2,10.0,0,Variable,-9999.0,-9999.0,-999,-999,2.3,3.7
47,Unknown,"{u'mday': u'18', u'hour': u'23', u'min': u'30', u'mon': u'08', u'pretty': u'11:30 PM CEST on August 18, 2009', u'year': u'2009', u'tzname': u'Europe/Paris'}",53.6,12.0,0,0,-9999,-9999,60,unknown,METAR LFPB 182130Z AUTO 02003KT 9999NDV NSC 20/12 Q1018,-9999.00,-9999.00,30.06,1018,0,0,68.0,20.0,0,0,"{u'mday': u'18', u'hour': u'21', u'min': u'30', u'mon': u'08', u'pretty': u'9:30 PM GMT on August 18, 2009', u'year': u'2009', u'tzname': u'UTC'}",6.2,10.0,20,NNE,-9999.0,-9999.0,-999,-999,3.5,5.6
0,Unknown,"{u'mday': u'19', u'hour': u'00', u'min': u'00', u'mon': u'08', u'pretty': u'12:00 AM CEST on August 19, 2009', u'year': u'2009', u'tzname': u'Europe/Paris'}",53.6,12.0,0,0,-9999,-9999,60,unknown,METAR LFPB 182200Z AUTO 01004KT 9999NDV NSC 20/12 Q1018,-9999.00,-9999.00,30.06,1018,0,0,68.0,20.0,0,0,"{u'mday': u'18', u'hour': u'22', u'min': u'00', u'mon': u'08', u'pretty': u'10:00 PM GMT on August 18, 2009', u'year': u'2009', u'tzname': u'UTC'}",6.2,10.0,10,North,-9999.0,-9999.0,-999,-999,4.6,7.4
1,Unknown,"{u'mday': u'19', u'hour': u'00', u'min': u'30', u'mon': u'08', u'pretty': u'12:30 AM CEST on August 19, 2009', u'year': u'2009', u'tzname': u'Europe/Paris'}",53.6,12.0,0,0,-9999,-9999,60,unknown,METAR LFPB 182230Z AUTO 36006KT 9999NDV NSC 20/12 Q1018,-9999.00,-9999.00,30.06,1018,0,0,68.0,20.0,0,0,"{u'mday': u'18', u'hour': u'22', u'min': u'30', u'mon': u'08', u'pretty': u'10:30 PM GMT on August 18, 2009', u'year': u'2009', u'tzname': u'UTC'}",6.2,10.0,360,North,-9999.0,-9999.0,-999,-999,6.9,11.1
2,Unknown,"{u'mday': u'19', u'hour': u'01', u'min': u'00', u'mon': u'08', u'pretty': u'1:00 AM CEST on August 19, 2009', u'year': u'2009', u'tzname': u'Europe/Paris'}",53.6,12.0,0,0,-9999,-9999,60,unknown,METAR LFPB 182300Z AUTO 35008KT 9999NDV NSC 20/12 Q1018,-9999.00,-9999.00,30.06,1018,0,0,68.0,20.0,0,0,"{u'mday': u'18', u'hour': u'23', u'min': u'00', u'mon': u'08', u'pretty': u'11:00 PM GMT on August 18, 2009', u'year': u'2009', u'tzname': u'UTC'}",6.2,10.0,350,North,-9999.0,-9999.0,-999,-999,9.2,14.8
3,Unknown,"{u'mday': u'19', u'hour': u'01', u'min': u'30', u'mon': u'08', u'pretty': u'1:30 AM CEST on August 19, 2009', u'year': u'2009', u'tzname': u'Europe/Paris'}",55.4,13.0,0,0,-9999,-9999,73,unknown,METAR LFPB 182330Z AUTO 36005KT 330V030 9999NDV NSC 18/13 Q1018,-9999.00,-9999.00,30.06,1018,0,0,64.4,18.0,0,0,"{u'mday': u'18', u'hour': u'23', u'min': u'30', u'mon': u'08', u'pretty': u'11:30 PM GMT on August 18, 2009', u'year': u'2009', u'tzname': u'UTC'}",6.2,10.0,360,North,-9999.0,-9999.0,-999,-999,5.8,9.3
4,Unknown,"{u'mday': u'19', u'hour': u'02', u'min': u'00', u'mon': u'08', u'pretty': u'2:00 AM CEST on August 19, 2009', u'year': u'2009', u'tzname': u'Europe/Paris'}",55.4,13.0,0,0,-9999,-9999,77,unknown,METAR LFPB 190000Z AUTO VRB02KT 9999NDV NSC 17/13 Q1018,-9999.00,-9999.00,30.06,1018,0,0,62.6,17.0,0,0,"{u'mday': u'19', u'hour': u'00', u'min': u'00', u'mon': u'08', u'pretty': u'12:00 AM GMT on August 19, 2009', u'year': u'2009', u'tzname': u'UTC'}",6.2,10.0,0,Variable,-9999.0,-9999.0,-999,-999,2.3,3.7
5,Unknown,"{u'mday': u'19', u'hour': u'02', u'min': u'30', u'mon': u'08', u'pretty': u'2:30 AM CEST on August 19, 2009', u'year': u'2009', u'tzname': u'Europe/Paris'}",55.4,13.0,0,0,-9999,-9999,77,unknown,METAR LFPB 190030Z AUTO 03003KT 9999NDV NSC 17/13 Q1018,-9999.00,-9999.00,30.06,1018,0,0,62.6,17.0,0,0,"{u'mday': u'19', u'hour': u'00', u'min': u'30', u'mon': u'08', u'pretty': u'12:30 AM GMT on August 19, 2009', u'year': u'2009', u'tzname': u'UTC'}",6.2,10.0,30,NNE,-9999.0,-9999.0,-999,-999,3.5,5.6
6,Unknown,"{u'mday': u'19', u'hour': u'03', u'min': u'00', u'mon': u'08', u'pretty': u'3:00 AM CEST on August 19, 2009', u'year': u'2009', u'tzname': u'Europe/Paris'}",55.4,13.0,0,0,-9999,-9999,77,unknown,METAR LFPB 190100Z AUTO 03003KT 9999NDV NSC 17/13 Q1018,-9999.00,-9999.00,30.06,1018,0,0,62.6,17.0,0,0,"{u'mday': u'19', u'hour': u'01', u'min': u'00', u'mon': u'08', u'pretty': u'1:00 AM GMT on August 19, 2009', u'year': u'2009', u'tzname': u'UTC'}",6.2,10.0,30,NNE,-9999.0,-9999.0,-999,-999,3.5,5.6
7,Unknown,"{u'mday': u'19', u'hour': u'03', u'min': u'30', u'mon': u'08', u'pretty': u'3:30 AM CEST on August 19, 2009', u'year': u'2009', u'tzname': u'Europe/Paris'}",55.4,13.0,0,0,-9999,-9999,82,unknown,METAR LFPB 190130Z AUTO 01002KT 9999NDV NSC 16/13 Q1018,-9999.00,-9999.00,30.06,1018,0,0,60.8,16.0,0,0,"{u'mday': u'19', u'hour': u'01', u'min': u'30', u'mon': u'08', u'pretty': u'1:30 AM GMT on August 19, 2009', u'year': u'2009', u'tzname': u'UTC'}",6.2,10.0,10,North,-9999.0,-9999.0,-999,-999,2.3,3.7
8,Unknown,"{u'mday': u'19', u'hour': u'04', u'min': u'00', u'mon': u'08', u'pretty': u'4:00 AM CEST on August 19, 2009', u'year': u'2009', u'tzname': u'Europe/Paris'}",55.4,13.0,0,0,-9999,-9999,82,unknown,METAR LFPB 190200Z AUTO 01003KT 9999NDV NSC 16/13 Q1018,-9999.00,-9999.00,30.06,1018,0,0,60.8,16.0,0,0,"{u'mday': u'19', u'hour': u'02', u'min': u'00', u'mon': u'08', u'pretty': u'2:00 AM GMT on August 19, 2009', u'year': u'2009', u'tzname': u'UTC'}",6.2,10.0,10,North,-9999.0,-9999.0,-999,-999,3.5,5.6
9,Unknown,"{u'mday': u'19', u'hour': u'04', u'min': u'30', u'mon': u'08', u'pretty': u'4:30 AM CEST on August 19, 2009', u'year': u'2009', u'tzname': u'Europe/Paris'}",55.4,13.0,0,0,-9999,-9999,82,unknown,METAR LFPB 190230Z AUTO 02002KT 9999NDV NSC 16/13 Q1018,-9999.00,-9999.00,30.06,1018,0,0,60.8,16.0,0,0,"{u'mday': u'19', u'hour': u'02', u'min': u'30', u'mon': u'08', u'pretty': u'2:30 AM GMT on August 19, 2009', u'year': u'2009', u'tzname': u'UTC'}",6.2,10.0,20,NNE,-9999.0,-9999.0,-999,-999,2.3,3.7
10,Unknown,"{u'mday': u'19', u'hour': u'05', u'min': u'00', u'mon': u'08', u'pretty': u'5:00 AM CEST on August 19, 2009', u'year': u'2009', u'tzname': u'Europe/Paris'}",55.4,13.0,0,0,-9999,-9999,88,unknown,METAR LFPB 190300Z AUTO 02002KT 9999NDV NSC 15/13 Q1018,-9999.00,-9999.00,30.06,1018,0,0,59.0,15.0,0,0,"{u'mday': u'19', u'hour': u'03', u'min': u'00', u'mon': u'08', u'pretty': u'3:00 AM GMT on August 19, 2009', u'year': u'2009', u'tzname': u'UTC'}",6.2,10.0,20,NNE,-9999.0,-9999.0,-999,-999,2.3,3.7
11,Unknown,"{u'mday': u'19', u'hour': u'05', u'min': u'30', u'mon': u'08', u'pretty': u'5:30 AM CEST on August 19, 2009', u'year': u'2009', u'tzname': u'Europe/Paris'}",53.6,12.0,0,0,-9999,-9999,82,unknown,METAR LFPB 190330Z AUTO 03002KT 9999NDV NSC 15/12 Q1018,-9999.00,-9999.00,30.06,1018,0,0,59.0,15.0,0,0,"{u'mday': u'19', u'hour': u'03', u'min': u'30', u'mon': u'08', u'pretty': u'3:30 AM GMT on August 19, 2009', u'year': u'2009', u'tzname': u'UTC'}",6.2,10.0,30,NNE,-9999.0,-9999.0,-999,-999,2.3,3.7
12,Unknown,"{u'mday': u'19', u'hour': u'06', u'min': u'00', u'mon': u'08', u'pretty': u'6:00 AM CEST on August 19, 2009', u'year': u'2009', u'tzname': u'Europe/Paris'}",53.6,12.0,0,0,-9999,-9999,88,unknown,METAR LFPB 190400Z AUTO 04003KT 9999NDV NSC 14/12 Q1018,-9999.00,-9999.00,30.06,1018,0,0,57.2,14.0,0,0,"{u'mday': u'19', u'hour': u'04', u'min': u'00', u'mon': u'08', u'pretty': u'4:00 AM GMT on August 19, 2009', u'year': u'2009', u'tzname': u'UTC'}",6.2,10.0,40,NE,-9999.0,-9999.0,-999,-999,3.5,5.6
13,Clear,"{u'mday': u'19', u'hour': u'06', u'min': u'30', u'mon': u'08', u'pretty': u'6:30 AM CEST on August 19, 2009', u'year': u'2009', u'tzname': u'Europe/Paris'}",55.4,13.0,0,0,-9999,-9999,88,clear,METAR LFPB 190430Z 02004KT CAVOK 15/13 Q1018 NOSIG,-9999.00,-9999.00,30.06,1018,0,0,59.0,15.0,0,0,"{u'mday': u'19', u'hour': u'04', u'min': u'30', u'mon': u'08', u'pretty': u'4:30 AM GMT on August 19, 2009', u'year': u'2009', u'tzname': u'UTC'}",-9999.0,-9999.0,20,NNE,-9999.0,-9999.0,-999,-999,4.6,7.4
14,Clear,"{u'mday': u'19', u'hour': u'07', u'min': u'00', u'mon': u'08', u'pretty': u'7:00 AM CEST on August 19, 2009', u'year': u'2009', u'tzname': u'Europe/Paris'}",55.4,13.0,0,0,-9999,-9999,88,clear,METAR LFPB 190500Z 02003KT CAVOK 15/13 Q1018 NOSIG,-9999.00,-9999.00,30.06,1018,0,0,59.0,15.0,0,0,"{u'mday': u'19', u'hour': u'05', u'min': u'00', u'mon': u'08', u'pretty': u'5:00 AM GMT on August 19, 2009', u'year': u'2009', u'tzname': u'UTC'}",-9999.0,-9999.0,20,NNE,-9999.0,-9999.0,-999,-999,3.5,5.6
15,Clear,"{u'mday': u'19', u'hour': u'07', u'min': u'30', u'mon': u'08', u'pretty': u'7:30 AM CEST on August 19, 2009', u'year': u'2009', u'tzname': u'Europe/Paris'}",55.4,13.0,0,0,-9999,-9999,88,clear,METAR LFPB 190530Z 01004KT CAVOK 15/13 Q1018 NOSIG,-9999.00,-9999.00,30.06,1018,0,0,59.0,15.0,0,0,"{u'mday': u'19', u'hour': u'05', u'min': u'30', u'mon': u'08', u'pretty': u'5:30 AM GMT on August 19, 2009', u'year': u'2009', u'tzname': u'UTC'}",-9999.0,-9999.0,10,North,-9999.0,-9999.0,-999,-999,4.6,7.4
16,Clear,"{u'mday': u'19', u'hour': u'08', u'min': u'00', u'mon': u'08', u'pretty': u'8:00 AM CEST on August 19, 2009', u'year': u'2009', u'tzname': u'Europe/Paris'}",55.4,13.0,0,0,-9999,-9999,82,clear,METAR LFPB 190600Z 01003KT CAVOK 16/13 Q1018 NOSIG,-9999.00,-9999.00,30.06,1018,0,0,60.8,16.0,0,0,"{u'mday': u'19', u'hour': u'06', u'min': u'00', u'mon': u'08', u'pretty': u'6:00 AM GMT on August 19, 2009', u'year': u'2009', u'tzname': u'UTC'}",-9999.0,-9999.0,10,North,-9999.0,-9999.0,-999,-999,3.5,5.6
17,Clear,"{u'mday': u'19', u'hour': u'08', u'min': u'30', u'mon': u'08', u'pretty': u'8:30 AM CEST on August 19, 2009', u'year': u'2009', u'tzname': u'Europe/Paris'}",55.4,13.0,0,0,-9999,-9999,77,clear,METAR LFPB 190630Z VRB02KT CAVOK 17/13 Q1018 NOSIG,-9999.00,-9999.00,30.06,1018,0,0,62.6,17.0,0,0,"{u'mday': u'19', u'hour': u'06', u'min': u'30', u'mon': u'08', u'pretty': u'6:30 AM GMT on August 19, 2009', u'year': u'2009', u'tzname': u'UTC'}",-9999.0,-9999.0,0,Variable,-9999.0,-9999.0,-999,-999,2.3,3.7
18,Clear,"{u'mday': u'19', u'hour': u'09', u'min': u'00', u'mon': u'08', u'pretty': u'9:00 AM CEST on August 19, 2009', u'year': u'2009', u'tzname': u'Europe/Paris'}",57.2,14.0,0,0,-9999,-9999,73,clear,METAR LFPB 190700Z VRB03KT CAVOK 19/14 Q1018 NOSIG,-9999.00,-9999.00,30.06,1018,0,0,66.2,19.0,0,0,"{u'mday': u'19', u'hour': u'07', u'min': u'00', u'mon': u'08', u'pretty': u'7:00 AM GMT on August 19, 2009', u'year': u'2009', u'tzname': u'UTC'}",-9999.0,-9999.0,0,Variable,-9999.0,-9999.0,-999,-999,3.5,5.6
19,Clear,"{u'mday': u'19', u'hour': u'09', u'min': u'30', u'mon': u'08', u'pretty': u'9:30 AM CEST on August 19, 2009', u'year': u'2009', u'tzname': u'Europe/Paris'}",57.2,14.0,0,0,-9999,-9999,60,clear,METAR LFPB 190730Z VRB03KT CAVOK 22/14 Q1018 NOSIG,-9999.00,-9999.00,30.06,1018,0,0,71.6,22.0,0,0,"{u'mday': u'19', u'hour': u'07', u'min': u'30', u'mon': u'08', u'pretty': u'7:30 AM GMT on August 19, 2009', u'year': u'2009', u'tzname': u'UTC'}",-9999.0,-9999.0,0,Variable,-9999.0,-9999.0,-999,-999,3.5,5.6
20,Clear,"{u'mday': u'19', u'hour': u'10', u'min': u'00', u'mon': u'08', u'pretty': u'10:00 AM CEST on August 19, 2009', u'year': u'2009', u'tzname': u'Europe/Paris'}",57.2,14.0,0,0,-9999,-9999,57,clear,METAR LFPB 190800Z VRB02KT CAVOK 23/14 Q1018 NOSIG,-9999.00,-9999.00,30.06,1018,0,0,73.4,23.0,0,0,"{u'mday': u'19', u'hour': u'08', u'min': u'00', u'mon': u'08', u'pretty': u'8:00 AM GMT on August 19, 2009', u'year': u'2009', u'tzname': u'UTC'}",-9999.0,-9999.0,0,Variable,-9999.0,-9999.0,-999,-999,2.3,3.7
21,Clear,"{u'mday': u'19', u'hour': u'10', u'min': u'30', u'mon': u'08', u'pretty': u'10:30 AM CEST on August 19, 2009', u'year': u'2009', u'tzname': u'Europe/Paris'}",57.2,14.0,0,0,-9999,-9999,50,clear,METAR LFPB 190830Z 00000KT CAVOK 25/14 Q1018 NOSIG,-9999.00,-9999.00,30.06,1018,0,0,77.0,25.0,0,0,"{u'mday': u'19', u'hour': u'08', u'min': u'30', u'mon': u'08', u'pretty': u'8:30 AM GMT on August 19, 2009', u'year': u'2009', u'tzname': u'UTC'}",-9999.0,-9999.0,0,North,-9999.0,-9999.0,-999,-999,0.0,0.0
22,Clear,"{u'mday': u'19', u'hour': u'11', u'min': u'00', u'mon': u'08', u'pretty': u'11:00 AM CEST on August 19, 2009', u'year': u'2009', u'tzname': u'Europe/Paris'}",57.2,14.0,0,0,-9999,-9999,47,clear,METAR LFPB 190900Z VRB02KT CAVOK 26/14 Q1018 NOSIG,-9999.00,-9999.00,30.06,1018,0,0,78.8,26.0,0,0,"{u'mday': u'19', u'hour': u'09', u'min': u'00', u'mon': u'08', u'pretty': u'9:00 AM GMT on August 19, 2009', u'year': u'2009', u'tzname': u'UTC'}",-9999.0,-9999.0,0,Variable,-9999.0,-9999.0,-999,-999,2.3,3.7
23,Clear,"{u'mday': u'19', u'hour': u'11', u'min': u'30', u'mon': u'08', u'pretty': u'11:30 AM CEST on August 19, 2009', u'year': u'2009', u'tzname': u'Europe/Paris'}",57.2,14.0,0,0,82.0,27.8,42,clear,METAR LFPB 190930Z VRB02KT CAVOK 28/14 Q1018 NOSIG,-9999.00,-9999.00,30.06,1018,0,0,82.4,28.0,0,0,"{u'mday': u'19', u'hour': u'09', u'min': u'30', u'mon': u'08', u'pretty': u'9:30 AM GMT on August 19, 2009', u'year': u'2009', u'tzname': u'UTC'}",-9999.0,-9999.0,0,Variable,-9999.0,-9999.0,-999,-999,2.3,3.7
24,Clear,"{u'mday': u'19', u'hour': u'12', u'min': u'00', u'mon': u'08', u'pretty': u'12:00 PM CEST on August 19, 2009', u'year': u'2009', u'tzname': u'Europe/Paris'}",57.2,14.0,0,0,83.5,28.6,40,clear,METAR LFPB 191000Z 13003KT 070V190 CAVOK 29/14 Q1018 NOSIG,-9999.00,-9999.00,30.06,1018,0,0,84.2,29.0,0,0,"{u'mday': u'19', u'hour': u'10', u'min': u'00', u'mon': u'08', u'pretty': u'10:00 AM GMT on August 19, 2009', u'year': u'2009', u'tzname': u'UTC'}",-9999.0,-9999.0,130,SE,-9999.0,-9999.0,-999,-999,3.5,5.6
25,Unknown,"{u'mday': u'19', u'hour': u'12', u'min': u'30', u'mon': u'08', u'pretty': u'12:30 PM CEST on August 19, 2009', u'year': u'2009', u'tzname': u'Europe/Paris'}",59.0,15.0,0,0,87.1,30.6,38,unknown,METAR LFPB 191030Z AUTO 16005KT 110V200 9999NDV NSC 31/15 Q1018,-9999.00,-9999.00,30.06,1018,0,0,87.8,31.0,0,0,"{u'mday': u'19', u'hour': u'10', u'min': u'30', u'mon': u'08', u'pretty': u'10:30 AM GMT on August 19, 2009', u'year': u'2009', u'tzname': u'UTC'}",6.2,10.0,160,SSE,-9999.0,-9999.0,-999,-999,5.8,9.3
26,Clear,"{u'mday': u'19', u'hour': u'13', u'min': u'00', u'mon': u'08', u'pretty': u'1:00 PM CEST on August 19, 2009', u'year': u'2009', u'tzname': u'Europe/Paris'}",60.8,16.0,0,0,87.6,30.9,40,clear,METAR LFPB 191100Z 15006KT 110V210 CAVOK 31/16 Q1017 NOSIG,-9999.00,-9999.00,30.04,1017,0,0,87.8,31.0,0,0,"{u'mday': u'19', u'hour': u'11', u'min': u'00', u'mon': u'08', u'pretty': u'11:00 AM GMT on August 19, 2009', u'year': u'2009', u'tzname': u'UTC'}",-9999.0,-9999.0,150,SSE,-9999.0,-9999.0,-999,-999,6.9,11.1
27,Clear,"{u'mday': u'19', u'hour': u'13', u'min': u'30', u'mon': u'08', u'pretty': u'1:30 PM CEST on August 19, 2009', u'year': u'2009', u'tzname': u'Europe/Paris'}",59.0,15.0,0,0,88.9,31.6,36,clear,METAR LFPB 191130Z VRB05KT CAVOK 32/15 Q1017 NOSIG,-9999.00,-9999.00,30.04,1017,0,0,89.6,32.0,0,0,"{u'mday': u'19', u'hour': u'11', u'min': u'30', u'mon': u'08', u'pretty': u'11:30 AM GMT on August 19, 2009', u'year': u'2009', u'tzname': u'UTC'}",-9999.0,-9999.0,0,Variable,-9999.0,-9999.0,-999,-999,5.8,9.3
28,Clear,"{u'mday': u'19', u'hour': u'14', u'min': u'00', u'mon': u'08', u'pretty': u'2:00 PM CEST on August 19, 2009', u'year': u'2009', u'tzname': u'Europe/Paris'}",60.8,16.0,0,0,91.4,33.0,36,clear,METAR LFPB 191200Z 15007KT 070V220 CAVOK 33/16 Q1017 NOSIG,-9999.00,-9999.00,30.04,1017,0,0,91.4,33.0,0,0,"{u'mday': u'19', u'hour': u'12', u'min': u'00', u'mon': u'08', u'pretty': u'12:00 PM GMT on August 19, 2009', u'year': u'2009', u'tzname': u'UTC'}",-9999.0,-9999.0,150,SSE,-9999.0,-9999.0,-999,-999,8.1,13.0
29,Clear,"{u'mday': u'19', u'hour': u'14', u'min': u'30', u'mon': u'08', u'pretty': u'2:30 PM CEST on August 19, 2009', u'year': u'2009', u'tzname': u'Europe/Paris'}",57.2,14.0,0,0,89.9,32.1,31,clear,METAR LFPB 191230Z 18007KT 120V220 CAVOK 33/14 Q1017 NOSIG,-9999.00,-9999.00,30.04,1017,0,0,91.4,33.0,0,0,"{u'mday': u'19', u'hour': u'12', u'min': u'30', u'mon': u'08', u'pretty': u'12:30 PM GMT on August 19, 2009', u'year': u'2009', u'tzname': u'UTC'}",-9999.0,-9999.0,180,South,-9999.0,-9999.0,-999,-999,8.1,13.0
30,Clear,"{u'mday': u'19', u'hour': u'15', u'min': u'00', u'mon': u'08', u'pretty': u'3:00 PM CEST on August 19, 2009', u'year': u'2009', u'tzname': u'Europe/Paris'}",57.2,14.0,0,0,91.9,33.3,30,clear,METAR LFPB 191300Z VRB04KT CAVOK 34/14 Q1017 NOSIG,-9999.00,-9999.00,30.04,1017,0,0,93.2,34.0,0,0,"{u'mday': u'19', u'hour': u'13', u'min': u'00', u'mon': u'08', u'pretty': u'1:00 PM GMT on August 19, 2009', u'year': u'2009', u'tzname': u'UTC'}",-9999.0,-9999.0,0,Variable,-9999.0,-9999.0,-999,-999,4.6,7.4
31,Clear,"{u'mday': u'19', u'hour': u'15', u'min': u'30', u'mon': u'08', u'pretty': u'3:30 PM CEST on August 19, 2009', u'year': u'2009', u'tzname': u'Europe/Paris'}",59.0,15.0,0,0,92.6,33.6,32,clear,METAR LFPB 191330Z 16008KT 100V220 CAVOK 34/15 Q1016 NOSIG,-9999.00,-9999.00,30.01,1016,0,0,93.2,34.0,0,0,"{u'mday': u'19', u'hour': u'13', u'min': u'30', u'mon': u'08', u'pretty': u'1:30 PM GMT on August 19, 2009', u'year': u'2009', u'tzname': u'UTC'}",-9999.0,-9999.0,160,SSE,-9999.0,-9999.0,-999,-999,9.2,14.8
32,Clear,"{u'mday': u'19', u'hour': u'16', u'min': u'00', u'mon': u'08', u'pretty': u'4:00 PM CEST on August 19, 2009', u'year': u'2009', u'tzname': u'Europe/Paris'}",59.0,15.0,0,0,94.4,34.7,30,clear,METAR LFPB 191400Z 18009KT 150V220 CAVOK 35/15 Q1016 NOSIG,-9999.00,-9999.00,30.01,1016,0,0,95.0,35.0,0,0,"{u'mday': u'19', u'hour': u'14', u'min': u'00', u'mon': u'08', u'pretty': u'2:00 PM GMT on August 19, 2009', u'year': u'2009', u'tzname': u'UTC'}",-9999.0,-9999.0,180,South,-9999.0,-9999.0,-999,-999,10.4,16.7
33,Clear,"{u'mday': u'19', u'hour': u'16', u'min': u'30', u'mon': u'08', u'pretty': u'4:30 PM CEST on August 19, 2009', u'year': u'2009', u'tzname': u'Europe/Paris'}",57.2,14.0,0,0,93.7,34.3,28,clear,METAR LFPB 191430Z 20006KT 140V230 CAVOK 35/14 Q1016 NOSIG,-9999.00,-9999.00,30.01,1016,0,0,95.0,35.0,0,0,"{u'mday': u'19', u'hour': u'14', u'min': u'30', u'mon': u'08', u'pretty': u'2:30 PM GMT on August 19, 2009', u'year': u'2009', u'tzname': u'UTC'}",-9999.0,-9999.0,200,SSW,-9999.0,-9999.0,-999,-999,6.9,11.1
34,Clear,"{u'mday': u'19', u'hour': u'17', u'min': u'00', u'mon': u'08', u'pretty': u'5:00 PM CEST on August 19, 2009', u'year': u'2009', u'tzname': u'Europe/Paris'}",57.2,14.0,0,0,93.7,34.3,28,clear,METAR LFPB 191500Z 15010KT 100V180 CAVOK 35/14 Q1015 NOSIG,-9999.00,-9999.00,29.98,1015,0,0,95.0,35.0,0,0,"{u'mday': u'19', u'hour': u'15', u'min': u'00', u'mon': u'08', u'pretty': u'3:00 PM GMT on August 19, 2009', u'year': u'2009', u'tzname': u'UTC'}",-9999.0,-9999.0,150,SSE,-9999.0,-9999.0,-999,-999,11.5,18.5
35,Clear,"{u'mday': u'19', u'hour': u'17', u'min': u'30', u'mon': u'08', u'pretty': u'5:30 PM CEST on August 19, 2009', u'year': u'2009', u'tzname': u'Europe/Paris'}",55.4,13.0,0,0,95.1,35.0,25,clear,METAR LFPB 191530Z 20006KT 120V260 CAVOK 36/13 Q1015 NOSIG,-9999.00,-9999.00,29.98,1015,0,0,96.8,36.0,0,0,"{u'mday': u'19', u'hour': u'15', u'min': u'30', u'mon': u'08', u'pretty': u'3:30 PM GMT on August 19, 2009', u'year': u'2009', u'tzname': u'UTC'}",-9999.0,-9999.0,200,SSW,-9999.0,-9999.0,-999,-999,6.9,11.1
36,Clear,"{u'mday': u'19', u'hour': u'18', u'min': u'00', u'mon': u'08', u'pretty': u'6:00 PM CEST on August 19, 2009', u'year': u'2009', u'tzname': u'Europe/Paris'}",57.2,14.0,0,0,95.8,35.5,27,clear,METAR LFPB 191600Z 17010KT CAVOK 36/14 Q1015 NOSIG,-9999.00,-9999.00,29.98,1015,0,0,96.8,36.0,0,0,"{u'mday': u'19', u'hour': u'16', u'min': u'00', u'mon': u'08', u'pretty': u'4:00 PM GMT on August 19, 2009', u'year': u'2009', u'tzname': u'UTC'}",-9999.0,-9999.0,170,South,-9999.0,-9999.0,-999,-999,11.5,18.5
37,Clear,"{u'mday': u'19', u'hour': u'18', u'min': u'30', u'mon': u'08', u'pretty': u'6:30 PM CEST on August 19, 2009', u'year': u'2009', u'tzname': u'Europe/Paris'}",53.6,12.0,0,0,94.4,34.7,23,clear,METAR LFPB 191630Z 20008KT 100V230 CAVOK 36/12 Q1015 NOSIG,-9999.00,-9999.00,29.98,1015,0,0,96.8,36.0,0,0,"{u'mday': u'19', u'hour': u'16', u'min': u'30', u'mon': u'08', u'pretty': u'4:30 PM GMT on August 19, 2009', u'year': u'2009', u'tzname': u'UTC'}",-9999.0,-9999.0,200,SSW,-9999.0,-9999.0,-999,-999,9.2,14.8
38,Unknown,"{u'mday': u'19', u'hour': u'19', u'min': u'00', u'mon': u'08', u'pretty': u'7:00 PM CEST on August 19, 2009', u'year': u'2009', u'tzname': u'Europe/Paris'}",55.4,13.0,0,0,95.1,35.0,25,unknown,METAR LFPB 191700Z AUTO 18010KT 9999NDV NSC 36/13 Q1015,-9999.00,-9999.00,29.98,1015,0,0,96.8,36.0,0,0,"{u'mday': u'19', u'hour': u'17', u'min': u'00', u'mon': u'08', u'pretty': u'5:00 PM GMT on August 19, 2009', u'year': u'2009', u'tzname': u'UTC'}",6.2,10.0,180,South,-9999.0,-9999.0,-999,-999,11.5,18.5
39,Unknown,"{u'mday': u'19', u'hour': u'19', u'min': u'30', u'mon': u'08', u'pretty': u'7:30 PM CEST on August 19, 2009', u'year': u'2009', u'tzname': u'Europe/Paris'}",55.4,13.0,0,0,93.0,33.9,26,unknown,METAR LFPB 191730Z AUTO 17010KT 9999NDV NSC 35/13 Q1015,-9999.00,-9999.00,29.98,1015,0,0,95.0,35.0,0,0,"{u'mday': u'19', u'hour': u'17', u'min': u'30', u'mon': u'08', u'pretty': u'5:30 PM GMT on August 19, 2009', u'year': u'2009', u'tzname': u'UTC'}",6.2,10.0,170,South,-9999.0,-9999.0,-999,-999,11.5,18.5
40,Unknown,"{u'mday': u'19', u'hour': u'20', u'min': u'00', u'mon': u'08', u'pretty': u'8:00 PM CEST on August 19, 2009', u'year': u'2009', u'tzname': u'Europe/Paris'}",55.4,13.0,0,0,93.0,33.9,26,unknown,METAR LFPB 191800Z AUTO 18008KT 9999NDV NSC 35/13 Q1015,-9999.00,-9999.00,29.98,1015,0,0,95.0,35.0,0,0,"{u'mday': u'19', u'hour': u'18', u'min': u'00', u'mon': u'08', u'pretty': u'6:00 PM GMT on August 19, 2009', u'year': u'2009', u'tzname': u'UTC'}",6.2,10.0,180,South,-9999.0,-9999.0,-999,-999,9.2,14.8
41,Unknown,"{u'mday': u'19', u'hour': u'20', u'min': u'30', u'mon': u'08', u'pretty': u'8:30 PM CEST on August 19, 2009', u'year': u'2009', u'tzname': u'Europe/Paris'}",57.2,14.0,0,0,89.9,32.1,31,unknown,METAR LFPB 191830Z AUTO 17006KT 9999NDV NSC 33/14 Q1015,-9999.00,-9999.00,29.98,1015,0,0,91.4,33.0,0,0,"{u'mday': u'19', u'hour': u'18', u'min': u'30', u'mon': u'08', u'pretty': u'6:30 PM GMT on August 19, 2009', u'year': u'2009', u'tzname': u'UTC'}",6.2,10.0,170,South,-9999.0,-9999.0,-999,-999,6.9,11.1
42,Unknown,"{u'mday': u'19', u'hour': u'21', u'min': u'00', u'mon': u'08', u'pretty': u'9:00 PM CEST on August 19, 2009', u'year': u'2009', u'tzname': u'Europe/Paris'}",57.2,14.0,0,0,88.1,31.2,33,unknown,METAR LFPB 191900Z AUTO 16004KT 9999NDV NSC 32/14 Q1015,-9999.00,-9999.00,29.98,1015,0,0,89.6,32.0,0,0,"{u'mday': u'19', u'hour': u'19', u'min': u'00', u'mon': u'08', u'pretty': u'7:00 PM GMT on August 19, 2009', u'year': u'2009', u'tzname': u'UTC'}",6.2,10.0,160,SSE,-9999.0,-9999.0,-999,-999,4.6,7.4
43,Unknown,"{u'mday': u'19', u'hour': u'21', u'min': u'30', u'mon': u'08', u'pretty': u'9:30 PM CEST on August 19, 2009', u'year': u'2009', u'tzname': u'Europe/Paris'}",57.2,14.0,0,0,86.5,30.3,35,unknown,METAR LFPB 191930Z AUTO 17004KT 9999NDV NSC 31/14 Q1015,-9999.00,-9999.00,29.98,1015,0,0,87.8,31.0,0,0,"{u'mday': u'19', u'hour': u'19', u'min': u'30', u'mon': u'08', u'pretty': u'7:30 PM GMT on August 19, 2009', u'year': u'2009', u'tzname': u'UTC'}",6.2,10.0,170,South,-9999.0,-9999.0,-999,-999,4.6,7.4
44,Unknown,"{u'mday': u'19', u'hour': u'22', u'min': u'00', u'mon': u'08', u'pretty': u'10:00 PM CEST on August 19, 2009', u'year': u'2009', u'tzname': u'Europe/Paris'}",59.0,15.0,0,0,87.1,30.6,38,unknown,METAR LFPB 192000Z AUTO 18005KT 9999NDV NSC 31/15 Q1015,-9999.00,-9999.00,29.98,1015,0,0,87.8,31.0,0,0,"{u'mday': u'19', u'hour': u'20', u'min': u'00', u'mon': u'08', u'pretty': u'8:00 PM GMT on August 19, 2009', u'year': u'2009', u'tzname': u'UTC'}",6.2,10.0,180,South,-9999.0,-9999.0,-999,-999,5.8,9.3
45,Unknown,"{u'mday': u'19', u'hour': u'22', u'min': u'30', u'mon': u'08', u'pretty': u'10:30 PM CEST on August 19, 2009', u'year': u'2009', u'tzname': u'Europe/Paris'}",59.0,15.0,0,0,85.4,29.7,40,unknown,METAR LFPB 192030Z AUTO 18003KT 9999NDV NSC 30/15 Q1015,-9999.00,-9999.00,29.98,1015,0,0,86.0,30.0,0,0,"{u'mday': u'19', u'hour': u'20', u'min': u'30', u'mon': u'08', u'pretty': u'8:30 PM GMT on August 19, 2009', u'year': u'2009', u'tzname': u'UTC'}",6.2,10.0,180,South,-9999.0,-9999.0,-999,-999,3.5,5.6
46,Unknown,"{u'mday': u'19', u'hour': u'23', u'min': u'00', u'mon': u'08', u'pretty': u'11:00 PM CEST on August 19, 2009', u'year': u'2009', u'tzname': u'Europe/Paris'}",59.0,15.0,0,0,83.8,28.8,42,unknown,METAR LFPB 192100Z AUTO 17003KT 9999NDV NSC 29/15 Q1015,-9999.00,-9999.00,29.98,1015,0,0,84.2,29.0,0,0,"{u'mday': u'19', u'hour': u'21', u'min': u'00', u'mon': u'08', u'pretty': u'9:00 PM GMT on August 19, 2009', u'year': u'2009', u'tzname': u'UTC'}",6.2,10.0,170,South,-9999.0,-9999.0,-999,-999,3.5,5.6
47,Unknown,"{u'mday': u'19', u'hour': u'23', u'min': u'30', u'mon': u'08', u'pretty': u'11:30 PM CEST on August 19, 2009', u'year': u'2009', u'tzname': u'Europe/Paris'}",60.8,16.0,0,0,82.9,28.3,48,unknown,METAR LFPB 192130Z AUTO 17005KT 9999NDV NSC 28/16 Q1015,-9999.00,-9999.00,29.98,1015,0,0,82.4,28.0,0,0,"{u'mday': u'19', u'hour': u'21', u'min': u'30', u'mon': u'08', u'pretty': u'9:30 PM GMT on August 19, 2009', u'year': u'2009', u'tzname': u'UTC'}",6.2,10.0,170,South,-9999.0,-9999.0,-999,-999,5.8,9.3
